imglink,infolink,name,city,country,lat,lng
https://assets.atlasobscura.com/media/W1siZiIsInVwbG9hZHMvcGxhY2VfaW1hZ2VzL29sbnR6OWV0bXFvZjQyNmIzMDFiZGQ1NjdlYTRlXzI3MzE4MTEyX1Vua25vd24uanBnIl0sWyJwIiwiY29udmVydCIsIiJdLFsicCIsImNvbnZlcnQiLCItcXVhbGl0eSA4MSAtYXV0by1vcmllbnQiXSxbInAiLCJ0aHVtYiIsIjYwMHg0MDAjIl1d/27318112_Unknown.jpg,https://www.atlasobscura.com/places/the-tree-goats-of-morocco-tamri-morocco,The Tree Goats of Morocco ,Tamri,Morocco,30.7,-9.833333
https://assets.atlasobscura.com/media/W1siZiIsInVwbG9hZHMvcGxhY2VfaW1hZ2VzLzczM2M1MjQ4OGY0ZjY5YTBmNmFkNTAyMjM4OTQwYjgyMmQ0NTFiNTAuanBnIl0sWyJwIiwiY29udmVydCIsIiJdLFsicCIsImNvbnZlcnQiLCItcXVhbGl0eSA4MSAtYXV0by1vcmllbnQiXSxbInAiLCJ0aHVtYiIsIjYwMHg0MDAjIl1d/733c52488f4f69a0f6ad502238940b822d451b50.jpg,https://www.atlasobscura.com/places/chefchaouen,Chefchaouen,Chefchaouen,Morocco,35.171389,-5.269722
https://assets.atlasobscura.com/media/W1siZiIsInVwbG9hZHMvcGxhY2VfaW1hZ2VzLzc1ZWU4OTg3ODMyMTA2ODQ5YjI2ZTAwZWNlNWUwYjljMDAzNGEyYzkuanBnIl0sWyJwIiwiY29udmVydCIsIiJdLFsicCIsImNvbnZlcnQiLCItcXVhbGl0eSA4MSAtYXV0by1vcmllbnQiXSxbInAiLCJ0aHVtYiIsIjYwMHg0MDAjIl1d/75ee8987832106849b26e00ece5e0b9c0034a2c9.jpg,https://www.atlasobscura.com/places/kasbah-du-toubkal,Kasbah du Toubkal,Imlil,Morocco,31.132479,-7.91934
https://assets.atlasobscura.com/media/W1siZiIsInVwbG9hZHMvcGxhY2VfaW1hZ2VzLzE3MTQxOWIzNDg2ZDM1ODc2ZV9hMmY2ZTI0M2Y1MGUxMWQyOGQxNzUyYWE1Yzk1YzRiYTU1MzhmMjVkLmpwZyJdLFsicCIsImNvbnZlcnQiLCIiXSxbInAiLCJjb252ZXJ0IiwiLXF1YWxpdHkgODEgLWF1dG8tb3JpZW50Il0sWyJwIiwidGh1bWIiLCI2MDB4NDAwIyJdXQ/a2f6e243f50e11d28d1752aa5c95c4ba5538f25d.jpg,https://www.atlasobscura.com/places/todra-gorge,Todra Gorge,Province de Tinghir,Morocco,31.590218,-5.594552
https://assets.atlasobscura.com/media/W1siZiIsInVwbG9hZHMvcGxhY2VfaW1hZ2VzLzVjNmVjMTU3NGY1NDVlZDZhOV9UaW5fTWFsX01vc3F1ZTRfKGpzKS5qcGciXSxbInAiLCJjb252ZXJ0IiwiIl0sWyJwIiwiY29udmVydCIsIi1xdWFsaXR5IDgxIC1hdXRvLW9yaWVudCJdLFsicCIsInRodW1iIiwiNjAweDQwMCMiXV0/Tin_Mal_Mosque4_%28js%29.jpg,https://www.atlasobscura.com/places/tin-mal-mosque,Tin Mal Mosque,Al Haouz,Morocco,30.984834,-8.228361
https://assets.atlasobscura.com/media/W1siZiIsInVwbG9hZHMvcGxhY2VfaW1hZ2VzLzZkODEzNWU5LTIwOTQtNDkxZi1hMTIyLWE1NWE5ZmY3MzY1NzU2NmJkMjU5YzkyZDU3YjQ0NF82ODExQ0JDNC1ERjk4LTQ1QkMtQkMyNy05NzNEMDdCMjZDRTIuanBlZyJdLFsicCIsImNvbnZlcnQiLCIiXSxbInAiLCJjb252ZXJ0IiwiLXF1YWxpdHkgODEgLWF1dG8tb3JpZW50Il0sWyJwIiwidGh1bWIiLCI2MDB4NDAwIyJdXQ/6811CBC4-DF98-45BC-BC27-973D07B26CE2.jpeg,https://www.atlasobscura.com/places/volubilis-archaeological-site,Volubilis Archaeological Site,Meknes,Morocco,34.071111,-5.553611
https://assets.atlasobscura.com/media/W1siZiIsInVwbG9hZHMvcGxhY2VfaW1hZ2VzLzUwZWEwNTY5LWZlNjAtNDU4Ny05Y2JkLWVmNjFjOTE2NjYxOTZlMzMxZjg1YjAyZjFjNjk4NV9KYXJkaW4tTWFqb3JlbGxlLTQuSlBHIl0sWyJwIiwiY29udmVydCIsIiJdLFsicCIsImNvbnZlcnQiLCItcXVhbGl0eSA4MSAtYXV0by1vcmllbnQiXSxbInAiLCJ0aHVtYiIsIjYwMHg0MDAjIl1d/Jardin-Majorelle-4.JPG,https://www.atlasobscura.com/places/jardin-majorelle,Jardin Majorelle,Marrakesh,Morocco,31.64166,-8.002417
https://assets.atlasobscura.com/media/W1siZiIsInVwbG9hZHMvcGxhY2VfaW1hZ2VzLzAxMzI5N2Q5OWMxNTYyN2IxZV85MDM3NTkyMzgwX2EyMWYyMWE1MjFfay5qcGciXSxbInAiLCJjb252ZXJ0IiwiIl0sWyJwIiwiY29udmVydCIsIi1xdWFsaXR5IDgxIC1hdXRvLW9yaWVudCJdLFsicCIsInRodW1iIiwiNjAweDQwMCMiXV0/9037592380_a21f21a521_k.jpg,https://www.atlasobscura.com/places/the-blue-gate-of-fes-fez-morocco,The Blue Gate of Fes,Fez,Morocco,34.061667,-4.983889
https://assets.atlasobscura.com/media/W1siZiIsInVwbG9hZHMvcGxhY2VfaW1hZ2VzLzdjYjJiN2ExM2MzNWY0ZmRhZmRhN2QwODQ3MTQ0YzFhZjViYWYyZDAuanBnIl0sWyJwIiwiY29udmVydCIsIiJdLFsicCIsImNvbnZlcnQiLCItcXVhbGl0eSA4MSAtYXV0by1vcmllbnQiXSxbInAiLCJ0aHVtYiIsIjYwMHg0MDAjIl1d/7cb2b7a13c35f4fdafda7d0847144c1af5baf2d0.jpg,https://www.atlasobscura.com/places/sunland-baobab,Sunland Baobab,Duiwelskloof,South Africa,-23.621275,30.198888
https://assets.atlasobscura.com/media/W1siZiIsInVwbG9hZHMvcGxhY2VfaW1hZ2VzLzM4ZmU4YTI1NDNkOTRiODY1M185NTM1OTkxMjgzX2E0YjM2Y2QxMjRfay5qcGciXSxbInAiLCJjb252ZXJ0IiwiIl0sWyJwIiwiY29udmVydCIsIi1xdWFsaXR5IDgxIC1hdXRvLW9yaWVudCJdLFsicCIsInRodW1iIiwiNjAweDQwMCMiXV0,https://www.atlasobscura.com/places/bourkes-luck-potholes,Bourke's Luck Potholes,Ehlanzeni,South Africa,-24.674319,30.810814
https://assets.atlasobscura.com/media/W1siZiIsInVwbG9hZHMvcGxhY2VfaW1hZ2VzLzQyZDE0MTRmMGU4NTMwYzkyNV8xMDUyNDMxN18xMDEwMDg1MDg0MzYzNDczNl8xODY5ODM0Nzg2NzY4OTQyMzIzX24uanBnIl0sWyJwIiwiY29udmVydCIsIiJdLFsicCIsImNvbnZlcnQiLCItcXVhbGl0eSA4MSAtYXV0by1vcmllbnQiXSxbInAiLCJ0aHVtYiIsIjYwMHg0MDAjIl1d,https://www.atlasobscura.com/places/boulders-beach-penguin-sanctuary,Boulders Beach Penguin Sanctuary,Cape Town,South Africa,-34.196486,18.450049
https://assets.atlasobscura.com/media/W1siZiIsInVwbG9hZHMvcGxhY2VfaW1hZ2VzLzFlNGU1ZjQwYzViYTVjNzAwM18xNjU0Nzk4MjI1OV9jNGM5NTQ1NzhhX28uanBnIl0sWyJwIiwiY29udmVydCIsIiJdLFsicCIsImNvbnZlcnQiLCItcXVhbGl0eSA4MSAtYXV0by1vcmllbnQiXSxbInAiLCJ0aHVtYiIsIjYwMHg0MDAjIl1d/16547982259_c4c954578a_o.jpg,https://www.atlasobscura.com/places/bo-kaap,Bo Kaap,Cape Town,South Africa,-33.918223,18.414252
https://assets.atlasobscura.com/media/W1siZiIsInVwbG9hZHMvcGxhY2VfaW1hZ2VzL2I4NGE3YzNmOWE1YjU2YjdiZl9BZGFtcy1DYWxlbmRhci5qcGciXSxbInAiLCJjb252ZXJ0IiwiIl0sWyJwIiwiY29udmVydCIsIi1xdWFsaXR5IDgxIC1hdXRvLW9yaWVudCJdLFsicCIsInRodW1iIiwiNjAweDQwMCMiXV0/Adams-Calendar.jpg,https://www.atlasobscura.com/places/adams-calendar,Adam's Calendar,Ehlanzeni,South Africa,-25.63185,30.759621
https://assets.atlasobscura.com/media/W1siZiIsInVwbG9hZHMvcGxhY2VfaW1hZ2VzLzk3NjBhYWRjMzRhZmNkNWM0ZF9tYWNhc3NhcmJlYWNoMDcuanBnIl0sWyJwIiwiY29udmVydCIsIiJdLFsicCIsImNvbnZlcnQiLCItcXVhbGl0eSA4MSAtYXV0by1vcmllbnQiXSxbInAiLCJ0aHVtYiIsIjYwMHg0MDAjIl1d,https://www.atlasobscura.com/places/macassar-beach-pavilion,Macassar Beach Pavilion,Cape Town,South Africa,-34.076923,18.751891
https://assets.atlasobscura.com/media/W1siZiIsInVwbG9hZHMvcGxhY2VfaW1hZ2VzL2YwYTE2ZDFkNDViMzI4Y2M0N19jdDUuanBnIl0sWyJwIiwiY29udmVydCIsIiJdLFsicCIsImNvbnZlcnQiLCItcXVhbGl0eSA4MSAtYXV0by1vcmllbnQiXSxbInAiLCJ0aHVtYiIsIjYwMHg0MDAjIl1d/ct5.jpg,https://www.atlasobscura.com/places/collectors-treasury,Collectors Treasury,Johannesburg,South Africa,-26.204076,28.055679
https://assets.atlasobscura.com/media/W1siZiIsInVwbG9hZHMvcGxhY2VfaW1hZ2VzLzFhY2MyN2Q2NTY0YTQxMjg1NF9pc2xhbmRzZWFsczUuanBnIl0sWyJwIiwiY29udmVydCIsIiJdLFsicCIsImNvbnZlcnQiLCItcXVhbGl0eSA4MSAtYXV0by1vcmllbnQiXSxbInAiLCJ0aHVtYiIsIjYwMHg0MDAjIl1d,https://www.atlasobscura.com/places/seal-island,Seal Island,Cape Town,South Africa,-34.138147,18.582727
https://assets.atlasobscura.com/media/W1siZiIsInVwbG9hZHMvcGxhY2VfaW1hZ2VzL2I1MGM4YTY5ZDM0ZmE0MzMwNl9hMWRhYTU5ZTc2LmpwZyJdLFsicCIsImNvbnZlcnQiLCIiXSxbInAiLCJjb252ZXJ0IiwiLXF1YWxpdHkgODEgLWF1dG8tb3JpZW50Il0sWyJwIiwidGh1bWIiLCI2MDB4NDAwIyJdXQ,https://www.atlasobscura.com/places/the-lost-city-of-heracleion-al-maadeyah-egypt,The Lost City of Heracleion,Alexandria,Egypt,31.348379,30.175936
https://assets.atlasobscura.com/media/W1siZiIsInVwbG9hZHMvcGxhY2VfaW1hZ2VzL2QxNGFhOTllMmY2NWNjMjI4ZF9DYWlyb19OaWxvbWV0ZXJfMi5qcGciXSxbInAiLCJjb252ZXJ0IiwiIl0sWyJwIiwiY29udmVydCIsIi1xdWFsaXR5IDgxIC1hdXRvLW9yaWVudCJdLFsicCIsInRodW1iIiwiNjAweDQwMCMiXV0/Cairo_Nilometer_2.jpg,https://www.atlasobscura.com/places/nilometer,Nilometer,Cairo,Egypt,30.006965,31.22521
https://assets.atlasobscura.com/media/W1siZiIsInVwbG9hZHMvcGxhY2VfaW1hZ2VzL2NjM2JhOWUwZGFiMzlkZTgwYl9hYnVzaW1iZWwwMS5qcGciXSxbInAiLCJjb252ZXJ0IiwiIl0sWyJwIiwiY29udmVydCIsIi1xdWFsaXR5IDgxIC1hdXRvLW9yaWVudCJdLFsicCIsInRodW1iIiwiNjAweDQwMCMiXV0,https://www.atlasobscura.com/places/the-temple-of-abu-simbel-egypt-nubia-egypt,The Temple of Abu Simbel,Nubia,Egypt,22.337107,31.625379
https://assets.atlasobscura.com/media/W1siZiIsInVwbG9hZHMvcGxhY2VfaW1hZ2VzLzU2Yjg1MjA4NjJmY2FjZDZjOWFkMmYzMDk4NmQxZDhhYzY0NmRmOTQuanBnIl0sWyJwIiwiY29udmVydCIsIiJdLFsicCIsImNvbnZlcnQiLCItcXVhbGl0eSA4MSAtYXV0by1vcmllbnQiXSxbInAiLCJ0aHVtYiIsIjYwMHg0MDAjIl1d/56b8520862fcacd6c9ad2f30986d1d8ac646df94.jpg,https://www.atlasobscura.com/places/city-of-the-dead,City of the Dead,El-Saf,Egypt,29.7431,31.3011
https://assets.atlasobscura.com/media/W1siZiIsInVwbG9hZHMvcGxhY2VfaW1hZ2VzLzFiMDcyMzQ1LTgwZWYtNDM2NC1hNmYwLWIyMTIzNzMxM2ZmOTc2NjQ3YTI0Yjg4M2NmMzk2NF9EZXRhaWwgb2YgY2VpbGluZyBvZiBtYWluIHRlbXBsZS5qcGciXSxbInAiLCJjb252ZXJ0IiwiIl0sWyJwIiwiY29udmVydCIsIi1xdWFsaXR5IDgxIC1hdXRvLW9yaWVudCJdLFsicCIsInRodW1iIiwiNjAweDQwMCMiXV0/Detail%20of%20ceiling%20of%20main%20temple.jpg,https://www.atlasobscura.com/places/hathor-temple,Hathor Temple,Dandarah,Egypt,26.141738,32.666262
https://assets.atlasobscura.com/media/W1siZiIsInVwbG9hZHMvcGxhY2VfaW1hZ2VzLzU2OTUzNjBhYTcwMzliODI2YV9EZXBvc2l0cGhvdG9zXzcyNzAxMDI5X29yaWdpbmFsLmpwZyJdLFsicCIsImNvbnZlcnQiLCIiXSxbInAiLCJjb252ZXJ0IiwiLXF1YWxpdHkgODEgLWF1dG8tb3JpZW50Il0sWyJwIiwidGh1bWIiLCI2MDB4NDAwIyJdXQ/Depositphotos_72701029_original.jpg,https://www.atlasobscura.com/places/colossi-of-memnon,Colossi of Memnon,Luxor,Egypt,25.720598,32.610456
https://assets.atlasobscura.com/media/W1siZiIsInVwbG9hZHMvcGxhY2VfaW1hZ2VzLzQyODc0M2U5NWEzODE2NDAzOF9kZXNlcnQxMC5qcGciXSxbInAiLCJjb252ZXJ0IiwiIl0sWyJwIiwiY29udmVydCIsIi1xdWFsaXR5IDgxIC1hdXRvLW9yaWVudCJdLFsicCIsInRodW1iIiwiNjAweDQwMCMiXV0,https://www.atlasobscura.com/places/desert-breath,Desert Breath,Qesm Hurghada,Egypt,27.380403,33.632156
https://assets.atlasobscura.com/media/W1siZiIsInVwbG9hZHMvcGxhY2VfaW1hZ2VzLzIxOTUzNTRkLWJkNTgtNDA0Zi04NzVjLTU4Zjc4NzY1ZDc2N2MzY2MxNGM5MTQ2Mzc1NmNiY19CNDlFNjQuanBnIl0sWyJwIiwiY29udmVydCIsIiJdLFsicCIsImNvbnZlcnQiLCItcXVhbGl0eSA4MSAtYXV0by1vcmllbnQiXSxbInAiLCJ0aHVtYiIsIjYwMHg0MDAjIl1d/B49E64.jpg,https://www.atlasobscura.com/places/white-desert,White Desert,Al Farafrah,Egypt,27.06,27.97
https://assets.atlasobscura.com/media/W1siZiIsInVwbG9hZHMvcGxhY2VfaW1hZ2VzL2M1NWI2ZTllZWZhMDNiZWRhNF82MzQyMjA3NTI0XzUxMGQwM2EwNTBfYi5qcGciXSxbInAiLCJjb252ZXJ0IiwiIl0sWyJwIiwiY29udmVydCIsIi1xdWFsaXR5IDgxIC1hdXRvLW9yaWVudCJdLFsicCIsInRodW1iIiwiNjAweDQwMCMiXV0,https://www.atlasobscura.com/places/leftover-star-wars-sets,Leftover Star Wars Sets,Tozeur,Tunisia,33.92403,8.131213
https://assets.atlasobscura.com/media/W1siZiIsInVwbG9hZHMvcGxhY2VfaW1hZ2VzLzIxOTI4NjQ2NjNfZWM0YTI2NDcwYy5qcGciXSxbInAiLCJjb252ZXJ0IiwiIl0sWyJwIiwiY29udmVydCIsIi1xdWFsaXR5IDgxIC1hdXRvLW9yaWVudCJdLFsicCIsInRodW1iIiwiNjAweDQwMCMiXV0/2192864663_ec4a26470c.jpg,https://www.atlasobscura.com/places/hotel-sidi-driss,Hotel Sidi Driss,Matmatat-Al-Qadimal,Tunisia,33.545823,9.968492
https://assets.atlasobscura.com/media/W1siZiIsInVwbG9hZHMvcGxhY2VfaW1hZ2VzL2U5MzdkOTA2LTdmZTEtNDY0Zi05YjI1LTZhMzZiMmQzYjRiOGE2OGE1ZjhlM2MxYmY4YjU4OV90b3VyIGVsIGplbSB0dW5pc2lhLkpQRyJdLFsicCIsImNvbnZlcnQiLCIiXSxbInAiLCJjb252ZXJ0IiwiLXF1YWxpdHkgODEgLWF1dG8tb3JpZW50Il0sWyJwIiwidGh1bWIiLCI2MDB4NDAwIyJdXQ/tour%20el%20jem%20tunisia.JPG,https://www.atlasobscura.com/places/el-jem-amphitheatre,El Jem Amphitheatre,El Jem,Tunisia,35.296673,10.706873
https://assets.atlasobscura.com/media/W1siZiIsInVwbG9hZHMvcGxhY2VfaW1hZ2VzLzhkNTgwZDg0NWQ5YzUwMzMwNzAyOGQzYjk3MjllNjc2ZTk1ODM5N2UuanBnIl0sWyJwIiwiY29udmVydCIsIiJdLFsicCIsImNvbnZlcnQiLCItcXVhbGl0eSA4MSAtYXV0by1vcmllbnQiXSxbInAiLCJ0aHVtYiIsIjYwMHg0MDAjIl1d/8d580d845d9c503307028d3b9729e676e958397e.jpg,https://www.atlasobscura.com/places/ksar-ouleds,Ksar Ouled Soltane,Tataouine,Tunisia,32.933441,10.45171
https://assets.atlasobscura.com/media/W1siZiIsInVwbG9hZHMvcGxhY2VfaW1hZ2VzLzdiZTFiZWYxNTA5YzkxY2Q5NV8wMDQuSlBHIl0sWyJwIiwiY29udmVydCIsIiJdLFsicCIsImNvbnZlcnQiLCItcXVhbGl0eSA4MSAtYXV0by1vcmllbnQiXSxbInAiLCJ0aHVtYiIsIjYwMHg0MDAjIl1d,https://www.atlasobscura.com/places/dougga,Dougga,Teboursouk,Tunisia,36.423691,9.220315
https://assets.atlasobscura.com/media/W1siZiIsInVwbG9hZHMvcGxhY2VfaW1hZ2VzLzg2ZGMxNTJjLWE5ZmQtNDYwZS05MWUwLTcyM2ZmYjBkOGU1NDEzMTllY2I2ZDViMWJlMTY2OV9NYXRtYXRhX2hvdXNlXzYuanBnIl0sWyJwIiwiY29udmVydCIsIiJdLFsicCIsImNvbnZlcnQiLCItcXVhbGl0eSA4MSAtYXV0by1vcmllbnQiXSxbInAiLCJ0aHVtYiIsIjYwMHg0MDAjIl1d/Matmata_house_6.jpg,https://www.atlasobscura.com/places/matmata-underground-houses,Matmata Underground Houses,Matmatat-Al-Qadimal,Tunisia,33.542645,9.967275
https://assets.atlasobscura.com/media/W1siZiIsInVwbG9hZHMvcGxhY2VfaW1hZ2VzLzhlOTA1NGViNjE5MjBjY2NkMF9UdW5pc2lzZV9DYXJ0aGFnZV9Ub3BoZXRfU2FsYW1ib18wMi5qcGVnIl0sWyJwIiwiY29udmVydCIsIiJdLFsicCIsImNvbnZlcnQiLCItcXVhbGl0eSA4MSAtYXV0by1vcmllbnQiXSxbInAiLCJ0aHVtYiIsIjYwMHg0MDAjIl1d/Tunisise_Carthage_Tophet_Salambo_02.jpeg,https://www.atlasobscura.com/places/tophet-at-carthage,Tophet at Carthage,Site archéologique de Carthage,Tunisia,36.841254,10.322863
https://assets.atlasobscura.com/media/W1siZiIsInVwbG9hZHMvcGxhY2VfaW1hZ2VzLzE2YmNjMTI5LWY0MmUtNDA4Mi04NGZhLWZhMDE3YWE2ODdkOGJhOTFiZjNlMjI2NGI1YWZiMl9SV0RHV00uanBnIl0sWyJwIiwiY29udmVydCIsIi1hdXRvLW9yaWVudCAiXSxbInAiLCJ0aHVtYiIsIjI4NjJ4MTkwOCswKzAiXSxbInAiLCJjb252ZXJ0IiwiLXF1YWxpdHkgODEgLWF1dG8tb3JpZW50Il0sWyJwIiwidGh1bWIiLCI2MDB4NDAwIyJdXQ/RWDGWM.jpg,https://www.atlasobscura.com/places/lars-homestead,Lars Homestead,Nefta,Tunisia,33.842829,7.779036
https://assets.atlasobscura.com/media/W1siZiIsInVwbG9hZHMvcGxhY2VfaW1hZ2VzLzA4OWE4MDMzLWMxMWUtNDRkZi1iMDQ5LTI4NmY4ZTk5NDZjZTZkZjc3OWMzNzg1OGM4ZGJjOV9JTUctMTc4My5KUEciXSxbInAiLCJjb252ZXJ0IiwiLWF1dG8tb3JpZW50ICJdLFsicCIsInRodW1iIiwiMjg4NXgxOTIzKzArMTIzIl0sWyJwIiwiY29udmVydCIsIi1xdWFsaXR5IDgxIC1hdXRvLW9yaWVudCJdLFsicCIsInRodW1iIiwiNjAweDQwMCMiXV0/IMG-1783.JPG,https://www.atlasobscura.com/places/royal-mausoleum-of-mauretania,Royal Mausoleum of Mauretania,Tipaza,Algeria,36.575134,2.552847
https://assets.atlasobscura.com/media/W1siZiIsInVwbG9hZHMvcGxhY2VfaW1hZ2VzLzI0YWJhZDUyLTJiN2YtNGY0ZS04YzYzLTMwMjQ0N2Y0MmU5Y2ZlOGFlNmI4ZGJjMGEwNzI4OV90aXBhc2E0LmpwZyJdLFsicCIsImNvbnZlcnQiLCIiXSxbInAiLCJjb252ZXJ0IiwiLXF1YWxpdHkgODEgLWF1dG8tb3JpZW50Il0sWyJwIiwidGh1bWIiLCI2MDB4NDAwIyJdXQ/tipasa4.jpg,https://www.atlasobscura.com/places/tipasa-roman-ruins,Tipasa Roman Ruins,Tipaza,Algeria,36.593806,2.44449
https://assets.atlasobscura.com/media/W1siZiIsInVwbG9hZHMvcGxhY2VfaW1hZ2VzLzFmMGQyOWUzLTRiNGMtNDM2Ny04NjMxLWZhYWUyNWNjNDE2OTViNGY4ZGQ0Y2MwMTQyZmViYV8xMjAwcHgtR29yZ2VzX2R1X1JodW1tZWxfJl9wb250cy5qcGciXSxbInAiLCJjb252ZXJ0IiwiIl0sWyJwIiwiY29udmVydCIsIi1xdWFsaXR5IDgxIC1hdXRvLW9yaWVudCJdLFsicCIsInRodW1iIiwiNjAweDQwMCMiXV0/1200px-Gorges_du_Rhummel_%26_ponts.jpg,https://www.atlasobscura.com/places/sidi-m-cid-suspension-bridge,Sidi M'Cid Bridge,Constantine,Algeria,36.374494,6.612388
https://assets.atlasobscura.com/media/W1siZiIsInVwbG9hZHMvcGxhY2VfaW1hZ2VzL2FmNmU0NjU0LTY5MGYtNDYwYi1hNjQ0LTNlYzkyOWEzNDZkNmY4ZGQzMDVjNzE0YTMzNzFiN18zMjQ1ODQ4Nl8yOTQ4MDQwNzEwNTc3OTBfMjcwNjAzNDIxOTE3NTM3ODk0NF9uLmpwZyJdLFsicCIsImNvbnZlcnQiLCIiXSxbInAiLCJjb252ZXJ0IiwiLXF1YWxpdHkgODEgLWF1dG8tb3JpZW50Il0sWyJwIiwidGh1bWIiLCI2MDB4NDAwIyJdXQ/32458486_294804071057790_2706034219175378944_n.jpg,https://www.atlasobscura.com/places/timgad,Timgad,Batna,Algeria,35.484296,6.467686
https://assets.atlasobscura.com/media/W1siZiIsInVwbG9hZHMvcGxhY2VfaW1hZ2VzLzY4YmU0NDI5LTY2ZDgtNDBlOC1hNmFjLTY4MzY0NTM0MTRkYTk1Mjk0NDFlMDcxMDAzNjk1YV9JTUdfMDcxNC5KUEciXSxbInAiLCJjb252ZXJ0IiwiIl0sWyJwIiwiY29udmVydCIsIi1xdWFsaXR5IDgxIC1hdXRvLW9yaWVudCJdLFsicCIsInRodW1iIiwiNjAweDQwMCMiXV0/IMG_0714.JPG,https://www.atlasobscura.com/places/sacred-heart-cathedral-of-oran,Sacred Heart Cathedral of Oran,Oran,Algeria,35.700278,-0.646389
https://assets.atlasobscura.com/media/W1siZiIsInVwbG9hZHMvcGxhY2VfaW1hZ2VzLzcwMGY4ZTJhLWY5OTItNDc5Ni1iM2VjLWYxMTFlM2VjNGU4YTQ4ZDg0OTcyMDZmMjkzYTFjOF9JTUctMTY0OS5KUEciXSxbInAiLCJjb252ZXJ0IiwiLWF1dG8tb3JpZW50ICJdLFsicCIsInRodW1iIiwiODIyeDU0OCswKzAiXSxbInAiLCJjb252ZXJ0IiwiLXF1YWxpdHkgODEgLWF1dG8tb3JpZW50Il0sWyJwIiwidGh1bWIiLCI2MDB4NDAwIyJdXQ/IMG-1649.JPG,https://www.atlasobscura.com/places/martyrs-memorial,Martyrs' Memorial,El Madania,Algeria,36.740531,3.072676
https://assets.atlasobscura.com/media/W1siZiIsInVwbG9hZHMvcGxhY2VfaW1hZ2VzL2E2NDRiYjA5YmMwOTMwMTVmMl80MDBweC1HcmVhdF9aaW1iYWJ3ZV8oRG9uam9uKS5qcGciXSxbInAiLCJjb252ZXJ0IiwiIl0sWyJwIiwiY29udmVydCIsIi1xdWFsaXR5IDgxIC1hdXRvLW9yaWVudCJdLFsicCIsInRodW1iIiwiNjAweDQwMCMiXV0,https://www.atlasobscura.com/places/great-zimbabwe,Great Zimbabwe,Masvingo,Zimbabwe,-20.25962,30.936012
https://assets.atlasobscura.com/media/W1siZiIsInVwbG9hZHMvcGxhY2VfaW1hZ2VzL2EwNDAyNTg5MmNjNWU0MGQ3NF9aaW1iYWJ3ZV8kMTAwX3RyaWxsaW9uXzIwMDlfT2J2ZXJzZS5qcGciXSxbInAiLCJjb252ZXJ0IiwiIl0sWyJwIiwiY29udmVydCIsIi1xdWFsaXR5IDgxIC1hdXRvLW9yaWVudCJdLFsicCIsInRodW1iIiwiNjAweDQwMCMiXV0/Zimbabwe_%24100_trillion_2009_Obverse.jpg,https://www.atlasobscura.com/places/balancing-rocks-of-the-zimbabwe-dollar,Balancing Rocks of the Zimbabwe Dollar,Harare,Zimbabwe,-17.884794,31.125914
https://assets.atlasobscura.com/media/W1siZiIsInVwbG9hZHMvcGxhY2VfaW1hZ2VzLzljYmZhNGM1ODM0NWQ1ZmM1NjY5YzQ5YzMzNGYxYjQzZDNlNTkzY2QuanBnIl0sWyJwIiwiY29udmVydCIsIiJdLFsicCIsImNvbnZlcnQiLCItcXVhbGl0eSA4MSAtYXV0by1vcmllbnQiXSxbInAiLCJ0aHVtYiIsIjYwMHg0MDAjIl1d/9cbfa4c58345d5fc5669c49c334f1b43d3e593cd.jpg,https://www.atlasobscura.com/places/yamoussoukro,Basilica of Our Lady of Peace of Yamoussoukro,Yamoussoukro,Ivory Coast,6.808046,-5.299873
https://assets.atlasobscura.com/media/W1siZiIsInVwbG9hZHMvcGxhY2VfaW1hZ2VzL2VmYWIzZmY3OGJmMDZiMmQxMWYyZWQ5NjgwZmJhYzFjMzBhYjk2NmMuanBnIl0sWyJwIiwiY29udmVydCIsIiJdLFsicCIsImNvbnZlcnQiLCItcXVhbGl0eSA4MSAtYXV0by1vcmllbnQiXSxbInAiLCJ0aHVtYiIsIjYwMHg0MDAjIl1d/efab3ff78bf06b2d11f2ed9680fbac1c30ab966c.jpg,https://www.atlasobscura.com/places/crocodile-house,Crocodile House,Abidjan,Ivory Coast,5.336318,-4.027751
https://assets.atlasobscura.com/media/W1siZiIsInVwbG9hZHMvcGxhY2VfaW1hZ2VzLzlkNzM0YzAxZmE1NjJhNTU3M19aYW1iZXppX1JpdmVyX2F0X2p1bmN0aW9uX29mX05hbWliaWEsX1phbWJpYSxfWmltYmFid2VfJl9Cb3Rzd2FuYS5qcGciXSxbInAiLCJjb252ZXJ0IiwiIl0sWyJwIiwiY29udmVydCIsIi1xdWFsaXR5IDgxIC1hdXRvLW9yaWVudCJdLFsicCIsInRodW1iIiwiNjAweDQwMCMiXV0,https://www.atlasobscura.com/places/african-quadripoint,African Quadripoint,Chobe,Botswana,-17.791667,25.263333
https://assets.atlasobscura.com/media/W1siZiIsInVwbG9hZHMvcGxhY2VfaW1hZ2VzL2E5ZWRiODVhLWJiNTMtNDQxMC1hMjM1LTdjNWJmOWRmZjNlYWFhOWMxYzEzZTg3ZTZhOTMxNV9LdWJ1SXNsYW5kXzAyLmpwZyJdLFsicCIsImNvbnZlcnQiLCIiXSxbInAiLCJjb252ZXJ0IiwiLXF1YWxpdHkgODEgLWF1dG8tb3JpZW50Il0sWyJwIiwidGh1bWIiLCI2MDB4NDAwIyJdXQ/KubuIsland_02.jpg,https://www.atlasobscura.com/places/kubu-island,Kubu Island ,Mmatshumo,Botswana,-20.893,25.819
https://assets.atlasobscura.com/media/W1siZiIsInVwbG9hZHMvcGxhY2VfaW1hZ2VzL2U2OGQ1OWEzMzA2OWFiYmZkNV82MDc1MjczNTI0X2JlMDFkNGVlNThfYi5qcGciXSxbInAiLCJjb252ZXJ0IiwiIl0sWyJwIiwiY29udmVydCIsIi1xdWFsaXR5IDgxIC1hdXRvLW9yaWVudCJdLFsicCIsInRodW1iIiwiNjAweDQwMCMiXV0/6075273524_be01d4ee58_b.jpg,https://www.atlasobscura.com/places/matsieng-footprints,Matsieng Footprints,Kgatleng,Botswana,-24.352119,26.092604
https://assets.atlasobscura.com/media/W1siZiIsInVwbG9hZHMvcGxhY2VfaW1hZ2VzL2xneHZhdzUxeXM1ZmRjY2VlMmYzNTVhNzY1MTdfTWFrZ2FkaWtnYWRpX0Jhc2luXy1fQm90c3dhbmFfLV9wYW5vcmFtaW8uanBnIl0sWyJwIiwiY29udmVydCIsIiJdLFsicCIsImNvbnZlcnQiLCItcXVhbGl0eSA4MSAtYXV0by1vcmllbnQiXSxbInAiLCJ0aHVtYiIsIjYwMHg0MDAjIl1d/Makgadikgadi_Basin_-_Botswana_-_panoramio.jpg,https://www.atlasobscura.com/places/makgadikgadi-salt-pans,Makgadikgadi Salt Pans,Tutume,Botswana,-20.591626,24.672443
https://assets.atlasobscura.com/media/W1siZiIsInVwbG9hZHMvcGxhY2VfaW1hZ2VzL2U4YjlsOW1idXdscG1pN203MDA2NzJiNDYzNzUwMzZjYzZfa2Vib2t3ZSB2aWV3LmpwZyJdLFsicCIsImNvbnZlcnQiLCIiXSxbInAiLCJjb252ZXJ0IiwiLXF1YWxpdHkgODEgLWF1dG8tb3JpZW50Il0sWyJwIiwidGh1bWIiLCI2MDB4NDAwIyJdXQ/kebokwe%20view.jpg,https://www.atlasobscura.com/places/kebokwes-cave,Kebokwe's Cave,Molepolole,Botswana,-24.396582,25.497047
https://assets.atlasobscura.com/media/W1siZiIsInVwbG9hZHMvcGxhY2VfaW1hZ2VzL2NkZGExOGJjOTRmOTQzZjM1MV84MDBweC0zX0Rpa2dvc2kuanBnIl0sWyJwIiwiY29udmVydCIsIiJdLFsicCIsImNvbnZlcnQiLCItcXVhbGl0eSA4MSAtYXV0by1vcmllbnQiXSxbInAiLCJ0aHVtYiIsIjYwMHg0MDAjIl1d,https://www.atlasobscura.com/places/the-three-dikgosi-gaborone-botswana,The Three Dikgosi,Gaborone,Botswana,-24.64486,25.90735
https://assets.atlasobscura.com/media/W1siZiIsInVwbG9hZHMvcGxhY2VfaW1hZ2VzL3A3OWVybGt3bjlnaWNrN3QzNDA0OWY0NmMxMjEzZGI5ZTNfbGlvbnMgaG91c2UgY29tcHJlc3NlZC5qcGciXSxbInAiLCJjb252ZXJ0IiwiIl0sWyJwIiwiY29udmVydCIsIi1xdWFsaXR5IDgxIC1hdXRvLW9yaWVudCJdLFsicCIsInRodW1iIiwiNjAweDQwMCMiXV0/lions%20house%20compressed.jpg,https://www.atlasobscura.com/places/the-lion-house-gorongosa-mozambique,The Lion House,Gorongosa,Mozambique,-18.690278,34.313611
https://assets.atlasobscura.com/media/W1siZiIsInVwbG9hZHMvcGxhY2VfaW1hZ2VzLzkyZjYxZGM3YWU1ZGM2M2Q0NGZiNWM5MzE1OGRkZjA1MmM0YTFkODEuanBnIl0sWyJwIiwiY29udmVydCIsIiJdLFsicCIsImNvbnZlcnQiLCItcXVhbGl0eSA4MSAtYXV0by1vcmllbnQiXSxbInAiLCJ0aHVtYiIsIjYwMHg0MDAjIl1d/92f61dc7ae5dc63d44fb5c93158ddf052c4a1d81.jpg,https://www.atlasobscura.com/places/grande-hotel-of-beira,Grande Hotel of Beira,Beira,Mozambique,-19.847222,34.840556
https://assets.atlasobscura.com/media/W1siZiIsInVwbG9hZHMvcGxhY2VfaW1hZ2VzLzA4NTk3ZmExM2ZiYTMyODAxOV9tYXB1dG8tdGF4aWRlcm15LTQuanBnIl0sWyJwIiwiY29udmVydCIsIiJdLFsicCIsImNvbnZlcnQiLCItcXVhbGl0eSA4MSAtYXV0by1vcmllbnQiXSxbInAiLCJ0aHVtYiIsIjYwMHg0MDAjIl1d,https://www.atlasobscura.com/places/maputo-natural-history-museum,Maputo Natural History Museum,Maputo,Mozambique,-25.966667,32.583333
https://assets.atlasobscura.com/media/W1siZiIsInVwbG9hZHMvcGxhY2VfaW1hZ2VzLzg3M2M3ZDhlLWFiNjUtNGVkZC04YmFkLTYwNjM0YjFmOGVkZmY0MjRjZjQ3M2VmNzY5ZmVhMF9Nb3ogRGVwbG95bWVudCAyMDE5LTg4LmpwZyJdLFsicCIsImNvbnZlcnQiLCIiXSxbInAiLCJjb252ZXJ0IiwiLXF1YWxpdHkgODEgLWF1dG8tb3JpZW50Il0sWyJwIiwidGh1bWIiLCI2MDB4NDAwIyJdXQ/Moz%20Deployment%202019-88.jpg,https://www.atlasobscura.com/places/macuti-lighthouse-and-shipwreck,Macuti Lighthouse and Shipwreck,Beira,Mozambique,-19.843218,34.898372
https://assets.atlasobscura.com/media/W1siZiIsInVwbG9hZHMvcGxhY2VfaW1hZ2VzLzMxMTEyNDY2MjVfNzk1ZjQwNzY5MS5qcGciXSxbInAiLCJjb252ZXJ0IiwiLWF1dG8tb3JpZW50ICJdLFsicCIsInRodW1iIiwiNjAweDQwMCswKzAiXSxbInAiLCJjb252ZXJ0IiwiLXF1YWxpdHkgODEgLWF1dG8tb3JpZW50Il0sWyJwIiwidGh1bWIiLCI2MDB4NDAwIyJdXQ/3111246625_795f407691.jpg,https://www.atlasobscura.com/places/city-hall-station,City Hall Station,New York,United States,40.71335,-74.00458
https://assets.atlasobscura.com/media/W1siZiIsInVwbG9hZHMvcGxhY2VfaW1hZ2VzLzk4Y2QyM2VlYjNhMmE0NDVkOF9XYXZlX09yZ2FuXzIuanBnIl0sWyJwIiwiY29udmVydCIsIiJdLFsicCIsImNvbnZlcnQiLCItcXVhbGl0eSA4MSAtYXV0by1vcmllbnQiXSxbInAiLCJ0aHVtYiIsIjYwMHg0MDAjIl1d/Wave_Organ_2.jpg,https://www.atlasobscura.com/places/wave-organ,The Wave Organ,San Francisco,United States,37.808501,-122.439824
https://assets.atlasobscura.com/media/W1siZiIsInVwbG9hZHMvcGxhY2VfaW1hZ2VzLzdlZWI1YzdmODQyYWVjNzAxNF83MTc2NTUxNTc0XzM1NjljOThjMjJfaC5qcGciXSxbInAiLCJjb252ZXJ0IiwiIl0sWyJwIiwiY29udmVydCIsIi1xdWFsaXR5IDgxIC1hdXRvLW9yaWVudCJdLFsicCIsInRodW1iIiwiNjAweDQwMCMiXV0/7176551574_3569c98c22_h.jpg,https://www.atlasobscura.com/places/underground-tunnels-los-angeles,Underground Tunnels of Los Angeles,Los Angeles,United States,34.055848,-118.244728
https://assets.atlasobscura.com/media/W1siZiIsInVwbG9hZHMvcGxhY2VfaW1hZ2VzLzZiMWJlOGI5ZDRhMzM1YTQ5ZGRhZGQzNTdiNTFmNjJiRFNDXzAyNjguanBnIl0sWyJwIiwiY29udmVydCIsIiJdLFsicCIsImNvbnZlcnQiLCItcXVhbGl0eSA4MSAtYXV0by1vcmllbnQiXSxbInAiLCJ0aHVtYiIsIjYwMHg0MDAjIl1d/DSC_0268.jpg,https://www.atlasobscura.com/places/evolution-nature-store,Evolution Nature Store,New York,United States,40.728138,-73.9948
https://assets.atlasobscura.com/media/W1siZiIsInVwbG9hZHMvcGxhY2VfaW1hZ2VzL2RyZWFtMDItaW1nX2Fzc2lzdF9jdXN0b20uanBnIl0sWyJwIiwiY29udmVydCIsIiJdLFsicCIsImNvbnZlcnQiLCItcXVhbGl0eSA4MSAtYXV0by1vcmllbnQiXSxbInAiLCJ0aHVtYiIsIjYwMHg0MDAjIl1d/dream02-img_assist_custom.jpg,https://www.atlasobscura.com/places/dream-house,Dream House,New York,United States,40.718463,-74.004784
https://assets.atlasobscura.com/media/W1siZiIsInVwbG9hZHMvcGxhY2VfaW1hZ2VzLzc1N2FhOGVlZmRlZGIzMGZmMjdiZTk5OTk2ZjY4NjZhZWEwMzBmYzEuanBnIl0sWyJwIiwiY29udmVydCIsIi1hdXRvLW9yaWVudCAiXSxbInAiLCJ0aHVtYiIsIjY1Mng0MzUrMjIrNDkiXSxbInAiLCJjb252ZXJ0IiwiLXF1YWxpdHkgODEgLWF1dG8tb3JpZW50Il0sWyJwIiwidGh1bWIiLCI2MDB4NDAwIyJdXQ/757aa8eefdedb30ff27be99996f6866aea030fc1.jpg,https://www.atlasobscura.com/places/secret-tiled-staircase,Secret Tiled Staircase,San Francisco,United States,37.75625,-122.473451
https://assets.atlasobscura.com/media/W1siZiIsInVwbG9hZHMvcGxhY2VfaW1hZ2VzL2FlYWFhMjY0ZGQyMjBiNDNjYV93aW5jaGVzdGVyLmpwZyJdLFsicCIsImNvbnZlcnQiLCIiXSxbInAiLCJjb252ZXJ0IiwiLXF1YWxpdHkgODEgLWF1dG8tb3JpZW50Il0sWyJwIiwidGh1bWIiLCI2MDB4NDAwIyJdXQ/winchester.jpg,https://www.atlasobscura.com/places/winchester-mystery-house,The Winchester Mystery House,San Jose,United States,37.318946,-121.9506
https://assets.atlasobscura.com/media/W1siZiIsInVwbG9hZHMvcGxhY2VfaW1hZ2VzLzM1OTk0Y2RiOWI5NmQ2NDE5YV81NTc1NTk4OTUyXzhkY2VlODljZDlfYi5qcGciXSxbInAiLCJjb252ZXJ0IiwiLWF1dG8tb3JpZW50ICJdLFsicCIsInRodW1iIiwiNjgzeDQ1NSswKzEzMSJdLFsicCIsImNvbnZlcnQiLCItcXVhbGl0eSA4MSAtYXV0by1vcmllbnQiXSxbInAiLCJ0aHVtYiIsIjYwMHg0MDAjIl1d/5575598952_8dcee89cd9_b.jpg,https://www.atlasobscura.com/places/magowans-infinite-mirror-maze,Magowan's Infinite Mirror Maze,San Francisco,United States,37.810024,-122.410356
https://assets.atlasobscura.com/media/W1siZiIsInVwbG9hZHMvcGxhY2VfaW1hZ2VzLzZmNmRhNzdjZmVhYjQ1NDVhY185MzcyMDg2NzMxX2FkN2JmNzkxNmZfay5qcGciXSxbInAiLCJjb252ZXJ0IiwiIl0sWyJwIiwiY29udmVydCIsIi1xdWFsaXR5IDgxIC1hdXRvLW9yaWVudCJdLFsicCIsInRodW1iIiwiNjAweDQwMCMiXV0,https://www.atlasobscura.com/places/hidden-beach-playa-del-almor,Hidden Beach,Islas Marietas,Mexico,20.704039,-105.564935
https://assets.atlasobscura.com/media/W1siZiIsInVwbG9hZHMvcGxhY2VfaW1hZ2VzLzg3MThmOGE4ODI2OTFjNzdhMjA0YjUzNDI5YmM2N2ExZGM3MTJmMjQuanBnIl0sWyJwIiwiY29udmVydCIsIi1hdXRvLW9yaWVudCAiXSxbInAiLCJ0aHVtYiIsIjEwMjN4NjgyKzArMCJdLFsicCIsImNvbnZlcnQiLCItcXVhbGl0eSA4MSAtYXV0by1vcmllbnQiXSxbInAiLCJ0aHVtYiIsIjYwMHg0MDAjIl1d/8718f8a882691c77a204b53429bc67a1dc712f24.jpg,https://www.atlasobscura.com/places/la-isla-de-las-munecas,La Isla de las Muñecas (Island of the Dolls),Mexico City,Mexico,19.290794,-99.098584
https://assets.atlasobscura.com/media/W1siZiIsInVwbG9hZHMvcGxhY2VfaW1hZ2VzL2M1NjVmMWFjYTFmMzVlM2MzZF9vcmdhbmljYXJjaGl0ZWN0dXJlUU4yLmpwZyJdLFsicCIsImNvbnZlcnQiLCIiXSxbInAiLCJjb252ZXJ0IiwiLXF1YWxpdHkgODEgLWF1dG8tb3JpZW50Il0sWyJwIiwidGh1bWIiLCI2MDB4NDAwIyJdXQ,https://www.atlasobscura.com/places/quetzalcoatl-s-nest,Quetzalcoatl’s Nest,Naucalpan,Mexico,19.479314,-99.279154
https://assets.atlasobscura.com/media/W1siZiIsInVwbG9hZHMvcGxhY2VfaW1hZ2VzL2M1ODk4OTkyNGQwYzMxNGU5MjQzMjk1YzhmZTcxMmQ3MGY3ZjYyZjYuanBnIl0sWyJwIiwiY29udmVydCIsIi1hdXRvLW9yaWVudCAiXSxbInAiLCJ0aHVtYiIsIjY0MHg0MjYrMCswIl0sWyJwIiwiY29udmVydCIsIi1xdWFsaXR5IDgxIC1hdXRvLW9yaWVudCJdLFsicCIsInRodW1iIiwiNjAweDQwMCMiXV0/c58989924d0c314e9243295c8fe712d70f7f62f6.jpg,https://www.atlasobscura.com/places/cenote-xkeken,Cenote Xkeken,Dzitnup,Mexico,20.661718,-88.243513
https://assets.atlasobscura.com/media/W1siZiIsInVwbG9hZHMvcGxhY2VfaW1hZ2VzL05haWNhXzA2LmpwZyJdLFsicCIsImNvbnZlcnQiLCIiXSxbInAiLCJjb252ZXJ0IiwiLXF1YWxpdHkgODEgLWF1dG8tb3JpZW50Il0sWyJwIiwidGh1bWIiLCI2MDB4NDAwIyJdXQ/Naica_06.jpg,https://www.atlasobscura.com/places/giant-crystals-naica,Giant Crystals of Naica,Naica,Mexico,27.851689,-105.49786
https://assets.atlasobscura.com/media/W1siZiIsInVwbG9hZHMvcGxhY2VfaW1hZ2VzLzY5NzBkOTFlYzcxZThhYTcxZjk5MTljYTNiNzZiOTY1NGY3NTFhMmEuanBnIl0sWyJwIiwiY29udmVydCIsIiJdLFsicCIsImNvbnZlcnQiLCItcXVhbGl0eSA4MSAtYXV0by1vcmllbnQiXSxbInAiLCJ0aHVtYiIsIjYwMHg0MDAjIl1d/6970d91ec71e8aa71f9919ca3b76b9654f751a2a.jpg,https://www.atlasobscura.com/places/la-casa-azul,La Casa Azul,Mexico City,Mexico,19.355181,-99.162464
https://assets.atlasobscura.com/media/W1siZiIsInVwbG9hZHMvcGxhY2VfaW1hZ2VzLzUxZjI2NzVjLWYzMGQtNDRiNC04YjJhLWNiOWU2YjZlN2RjZWE0Y2YyNGFmMTI5M2FhOGJmMF9JTUdfMDUwOC5qcGciXSxbInAiLCJjb252ZXJ0IiwiIl0sWyJwIiwiY29udmVydCIsIi1xdWFsaXR5IDgxIC1hdXRvLW9yaWVudCJdLFsicCIsInRodW1iIiwiNjAweDQwMCMiXV0/IMG_0508.jpg,https://www.atlasobscura.com/places/mercado-de-sonora,Mercado de Sonora ,Mexico City,Mexico,19.420583,-99.124863
https://assets.atlasobscura.com/media/W1siZiIsInVwbG9hZHMvcGxhY2VfaW1hZ2VzLzkwNDE2YWVlYmFlNDlkOTc2ZV9sYXBvemFzMS5KUEciXSxbInAiLCJjb252ZXJ0IiwiIl0sWyJwIiwiY29udmVydCIsIi1xdWFsaXR5IDgxIC1hdXRvLW9yaWVudCJdLFsicCIsInRodW1iIiwiNjAweDQwMCMiXV0/90416aeebae49d976e_lapozas1.JPG,https://www.atlasobscura.com/places/las-pozas,Las Pozas,Xilitla,Mexico,21.396703,-98.996719
https://assets.atlasobscura.com/media/W1siZiIsInVwbG9hZHMvcGxhY2VfaW1hZ2VzLzg2ZTRhMTYyMzA4NDU5NTY1ZV9tb25rZXkuanBnIl0sWyJwIiwiY29udmVydCIsIiJdLFsicCIsImNvbnZlcnQiLCItcXVhbGl0eSA4MSAtYXV0by1vcmllbnQiXSxbInAiLCJ0aHVtYiIsIjYwMHg0MDAjIl1d,https://www.atlasobscura.com/places/the-monkey-s-paw-toronto-ontario,The Monkey's Paw,Toronto,Canada,43.660277,-79.432657
https://assets.atlasobscura.com/media/W1siZiIsInVwbG9hZHMvcGxhY2VfaW1hZ2VzLzU4ZTM5ZGVhMGVhNzNkNmZiOTVmNWMyNmJjMzEyMzc2YTQ3NGYxMmEuanBnIl0sWyJwIiwiY29udmVydCIsIi1hdXRvLW9yaWVudCAiXSxbInAiLCJ0aHVtYiIsIjYzN3g0MjUrMiswIl0sWyJwIiwiY29udmVydCIsIi1xdWFsaXR5IDgxIC1hdXRvLW9yaWVudCJdLFsicCIsInRodW1iIiwiNjAweDQwMCMiXV0/58e39dea0ea73d6fb95f5c26bc312376a474f12a.jpg,https://www.atlasobscura.com/places/enchanted-forest-british-columbia,The Enchanted Forest,Malakwa,Canada,50.971189,-118.563423
https://assets.atlasobscura.com/media/W1siZiIsInVwbG9hZHMvcGxhY2VfaW1hZ2VzL2RiMzFhZGU5OWFiMzUxOGQyYjViOTZjM2NmYjRlN2VkODg5YjM1NzguanBnIl0sWyJwIiwiY29udmVydCIsIiJdLFsicCIsImNvbnZlcnQiLCItcXVhbGl0eSA4MSAtYXV0by1vcmllbnQiXSxbInAiLCJ0aHVtYiIsIjYwMHg0MDAjIl1d/db31ade99ab3518d2b5b96c3cfb4e7ed889b3578.jpg,https://www.atlasobscura.com/places/vandusen-garden-s-elizabethan-hedge-maze,VanDusen Garden's Elizabethan Hedge Maze,Vancouver,Canada,49.238556,-123.128722
https://assets.atlasobscura.com/media/W1siZiIsInVwbG9hZHMvcGxhY2VfaW1hZ2VzL2M4ZmU2NTc5NThkN2E4NTJhM19TZW1pbmFyX3Jvb21fYW5kX21lenphbmluZS5qcGciXSxbInAiLCJjb252ZXJ0IiwiLWF1dG8tb3JpZW50ICJdLFsicCIsInRodW1iIiwiODk4eDU5OCsyKzI1Il0sWyJwIiwiY29udmVydCIsIi1xdWFsaXR5IDgxIC1hdXRvLW9yaWVudCJdLFsicCIsInRodW1iIiwiNjAweDQwMCMiXV0,https://www.atlasobscura.com/places/thomas-fisher-rare-books-library,Thomas Fisher Rare Book Library ,Toronto,Canada,43.664097,-79.398465
https://assets.atlasobscura.com/media/W1siZiIsInVwbG9hZHMvcGxhY2VfaW1hZ2VzLzgyMDEyZWEwMDM0YTRkMGM1MTc2MTIwYjIxZWQ4Y2U3NGE4YzhlYmYuanBnIl0sWyJwIiwiY29udmVydCIsIi1hdXRvLW9yaWVudCAiXSxbInAiLCJ0aHVtYiIsIjYwMHg0MDArMzIrMjY1Il0sWyJwIiwiY29udmVydCIsIi1xdWFsaXR5IDgxIC1hdXRvLW9yaWVudCJdLFsicCIsInRodW1iIiwiNjAweDQwMCMiXV0/82012ea0034a4d0c5176120b21ed8ce74a8c8ebf.jpg,https://www.atlasobscura.com/places/free-spirit-spheres,Free Spirit Spheres,Qualicum Beach,Canada,49.38202,-124.614092
https://assets.atlasobscura.com/media/W1siZiIsInVwbG9hZHMvcGxhY2VfaW1hZ2VzLzFmYzhlY2YzYjJkNDZjOTA4NF8yMzE3MDAwNTMyMV80ZTJiZDBhYTc2X28uanBnIl0sWyJwIiwiY29udmVydCIsIiJdLFsicCIsImNvbnZlcnQiLCItcXVhbGl0eSA4MSAtYXV0by1vcmllbnQiXSxbInAiLCJ0aHVtYiIsIjYwMHg0MDAjIl1d/23170005321_4e2bd0aa76_o.jpg,https://www.atlasobscura.com/places/casa-loma,Casa Loma,Toronto,Canada,43.67806,-79.40941
https://assets.atlasobscura.com/media/W1siZiIsInVwbG9hZHMvcGxhY2VfaW1hZ2VzLzNkNzE0OWE2NjBkZmMyODhiNF9JTUdfOTk2Mi5KUEciXSxbInAiLCJjb252ZXJ0IiwiIl0sWyJwIiwiY29udmVydCIsIi1xdWFsaXR5IDgxIC1hdXRvLW9yaWVudCJdLFsicCIsInRodW1iIiwiNjAweDQwMCMiXV0,https://www.atlasobscura.com/places/biosphere-of-montreal,Biosphere of Montreal,Montreal,Canada,45.518988,-73.534194
https://assets.atlasobscura.com/media/W1siZiIsInVwbG9hZHMvcGxhY2VfaW1hZ2VzLzJkMTAyYjNiMWRkMWRiY2YyNl82OTkyMDQ3MTc3Xzg0NzI3MzYwNGZfei5qcGciXSxbInAiLCJjb252ZXJ0IiwiIl0sWyJwIiwiY29udmVydCIsIi1xdWFsaXR5IDgxIC1hdXRvLW9yaWVudCJdLFsicCIsInRodW1iIiwiNjAweDQwMCMiXV0,https://www.atlasobscura.com/places/capilano-suspension-bridge-2,Capilano Suspension Bridge,West Vancouver,Canada,49.342943,-123.114771
https://assets.atlasobscura.com/media/W1siZiIsInVwbG9hZHMvcGxhY2VfaW1hZ2VzL2E1YzdiZDM2LWM2NGQtNDZiOS1hOGI2LTQxNjI1YzA5ZTMyYjI2MTlkYjAzM2M4OTI3MmExN19FRkU0REouanBnIl0sWyJwIiwiY29udmVydCIsIiJdLFsicCIsImNvbnZlcnQiLCItcXVhbGl0eSA4MSAtYXV0by1vcmllbnQiXSxbInAiLCJ0aHVtYiIsIjYwMHg0MDAjIl1d/EFE4DJ.jpg,https://www.atlasobscura.com/places/el-ateneo-grand-splendid,El Ateneo Grand Splendid,Buenos Aires,Argentina,-34.595842,-58.394124
https://assets.atlasobscura.com/media/W1siZiIsInVwbG9hZHMvcGxhY2VfaW1hZ2VzLzllNTA1ZDUzYzViMmUyNThjOV8yMDQ4cHgtMTUzXy1fR2xhY2llcl9QZXJpdG9fTW9yZW5vXy1fR3JvdHRlX2dsYWNpYWlyZV8tX0phbnZpZXJfMjAxMC5qcGciXSxbInAiLCJjb252ZXJ0IiwiIl0sWyJwIiwiY29udmVydCIsIi1xdWFsaXR5IDgxIC1hdXRvLW9yaWVudCJdLFsicCIsInRodW1iIiwiNjAweDQwMCMiXV0/2048px-153_-_Glacier_Perito_Moreno_-_Grotte_glaciaire_-_Janvier_2010.jpg,https://www.atlasobscura.com/places/perito-moreno-glacier,Perito Moreno Glacier,Los Glaciares National Park,Argentina,-50.471397,-73.036367
https://assets.atlasobscura.com/media/W1siZiIsInVwbG9hZHMvcGxhY2VfaW1hZ2VzLzA5MTkyMzY3YTllYjBhNDRkY18yNTc0NzI1NjM0X2ViNmIyODc5MTlfei0xLmpwZyJdLFsicCIsImNvbnZlcnQiLCIiXSxbInAiLCJjb252ZXJ0IiwiLXF1YWxpdHkgODEgLWF1dG8tb3JpZW50Il0sWyJwIiwidGh1bWIiLCI2MDB4NDAwIyJdXQ,https://www.atlasobscura.com/places/iguazu-falls,Iguazu Falls,Foz do Iguaçu,Argentina,-25.695404,-54.436961
https://assets.atlasobscura.com/media/W1siZiIsInVwbG9hZHMvcGxhY2VfaW1hZ2VzL2U4MmU3ODBmYTE2YzY4YmYyMDJiNDM0NzVkMzU2ZGJhOTczOWY5ZTYuanBnIl0sWyJwIiwiY29udmVydCIsIiJdLFsicCIsImNvbnZlcnQiLCItcXVhbGl0eSA4MSAtYXV0by1vcmllbnQiXSxbInAiLCJ0aHVtYiIsIjYwMHg0MDAjIl1d/e82e780fa16c68bf202b43475d356dba9739f9e6.jpg,https://www.atlasobscura.com/places/xul-solar-museum,Xul Solar Museum,Buenos Aires,Argentina,-34.594828,-58.407817
https://assets.atlasobscura.com/media/W1siZiIsInVwbG9hZHMvcGxhY2VfaW1hZ2VzL2FkMzliMWEzMzJhNmEyMTQ2Nl82MDBweC1NYXRhZGVyb19kZV9FcGVjdWVuLmpwZyJdLFsicCIsImNvbnZlcnQiLCIiXSxbInAiLCJjb252ZXJ0IiwiLXF1YWxpdHkgODEgLWF1dG8tb3JpZW50Il0sWyJwIiwidGh1bWIiLCI2MDB4NDAwIyJdXQ,https://www.atlasobscura.com/places/villa-epecuen-2,Villa Epecuen,Carhué,Argentina,-37.130833,-62.8075
https://assets.atlasobscura.com/media/W1siZiIsInVwbG9hZHMvcGxhY2VfaW1hZ2VzLzhhYTAzNzBiN2VkMWVlMDlhZl9yZWNvbGV0YTQuanBnIl0sWyJwIiwiY29udmVydCIsIiJdLFsicCIsImNvbnZlcnQiLCItcXVhbGl0eSA4MSAtYXV0by1vcmllbnQiXSxbInAiLCJ0aHVtYiIsIjYwMHg0MDAjIl1d,https://www.atlasobscura.com/places/recoleta-cemetery,Cementerio de la Recoleta,Buenos Aires,Argentina,-34.588636,-58.392521
https://assets.atlasobscura.com/media/W1siZiIsInVwbG9hZHMvcGxhY2VfaW1hZ2VzLzg0MzQ3Y2Y1YThkMDM4Njk5MTZkMzlmMTk4YmIyYTkwMTYwYWZkNTAuanBnIl0sWyJwIiwiY29udmVydCIsIiJdLFsicCIsImNvbnZlcnQiLCItcXVhbGl0eSA4MSAtYXV0by1vcmllbnQiXSxbInAiLCJ0aHVtYiIsIjYwMHg0MDAjIl1d/84347cf5a8d03869916d39f198bb2a90160afd50.jpg,https://www.atlasobscura.com/places/palacio-barolo,Palacio Barolo,Buenos Aires,Argentina,-34.609392,-58.385881
https://assets.atlasobscura.com/media/W1siZiIsInVwbG9hZHMvcGxhY2VfaW1hZ2VzLzgxY2U2NTM4NmJlMTlkYzgwNWM1OWE4YzEyZDg0MWQ1ZjkzNjY1Y2EuanBnIl0sWyJwIiwiY29udmVydCIsIiJdLFsicCIsImNvbnZlcnQiLCItcXVhbGl0eSA4MSAtYXV0by1vcmllbnQiXSxbInAiLCJ0aHVtYiIsIjYwMHg0MDAjIl1d/81ce65386be19dc805c59a8c12d841d5f93665ca.jpg,https://www.atlasobscura.com/places/largo-do-boticario,Largo do Boticário,Rio de Janeiro,Brazil,-22.93953,-43.201409
https://assets.atlasobscura.com/media/W1siZiIsInVwbG9hZHMvcGxhY2VfaW1hZ2VzLzYyNDFiYTk3NGFiM2Y3MTg2MF82MTAzMjcxMDUzX2M1Y2M2NzhlZWNfYi5qcGciXSxbInAiLCJjb252ZXJ0IiwiLWF1dG8tb3JpZW50ICJdLFsicCIsInRodW1iIiwiMTAyNHg2ODIrMCswIl0sWyJwIiwiY29udmVydCIsIi1xdWFsaXR5IDgxIC1hdXRvLW9yaWVudCJdLFsicCIsInRodW1iIiwiNjAweDQwMCMiXV0,https://www.atlasobscura.com/places/the-royal-portuguese-cabinet-of-reading-rio-de-janeiro-brazil,The Royal Portuguese Cabinet of Reading,Rio de Janeiro,Brazil,-22.905508,-43.182075
https://assets.atlasobscura.com/media/W1siZiIsInVwbG9hZHMvcGxhY2VfaW1hZ2VzL2NmNWQwODIxYTUzNzQ2ZmQzMF9MZWl0b19kYV9mb3JtYWNhb19WYWxlX2RhX0x1YS5wbmciXSxbInAiLCJjb252ZXJ0IiwiIl0sWyJwIiwiY29udmVydCIsIi1xdWFsaXR5IDgxIC1hdXRvLW9yaWVudCJdLFsicCIsInRodW1iIiwiNjAweDQwMCMiXV0,https://www.atlasobscura.com/places/vale-da-lua,Vale da Lua,Alto Paraíso de Goiás,Brazil,-14.186822,-47.789605
https://assets.atlasobscura.com/media/W1siZiIsInVwbG9hZHMvcGxhY2VfaW1hZ2VzLzI1a3U3enJqNG80MGVhZWVlMWFlMTNiMzJmZTVjX0lNR18zNzU0LkpQRyJdLFsicCIsImNvbnZlcnQiLCIiXSxbInAiLCJjb252ZXJ0IiwiLXF1YWxpdHkgODEgLWF1dG8tb3JpZW50Il0sWyJwIiwidGh1bWIiLCI2MDB4NDAwIyJdXQ/IMG_3754.JPG,https://www.atlasobscura.com/places/worlds-largest-cashew-tree-maior-cajueiro-do-mundo,World's Largest Cashew Tree,Parnamirim,Brazil,-5.978657,-35.123372
https://assets.atlasobscura.com/media/W1siZiIsInVwbG9hZHMvcGxhY2VfaW1hZ2VzL2IzOThjODU0NTNmYjFhZGFmYzk0ODJiMDFjNzVkMzk1OWM5MDMxMzcuanBnIl0sWyJwIiwiY29udmVydCIsIiJdLFsicCIsImNvbnZlcnQiLCItcXVhbGl0eSA4MSAtYXV0by1vcmllbnQiXSxbInAiLCJ0aHVtYiIsIjYwMHg0MDAjIl1d/b398c85453fb1adafc9482b01c75d3959c903137.jpg,https://www.atlasobscura.com/places/gruta-do-lago-azul-the-blue-lake-grotto,Gruta Do Lago Azul: The Blue Lake Grotto,Bonito,Brazil,-21.14478,-56.591335
https://assets.atlasobscura.com/media/W1siZiIsInVwbG9hZHMvcGxhY2VfaW1hZ2VzLzY5MmE5YTQxZDkyMGI0YmU2NjQzMzY5MTFjNjBkNTg5MzRkNjc3YmUuanBnIl0sWyJwIiwiY29udmVydCIsIiJdLFsicCIsImNvbnZlcnQiLCItcXVhbGl0eSA4MSAtYXV0by1vcmllbnQiXSxbInAiLCJ0aHVtYiIsIjYwMHg0MDAjIl1d/692a9a41d920b4be664336911c60d58934d677be.jpg,https://www.atlasobscura.com/places/parque-lage,Parque Lage,Rio de Janeiro,Brazil,-22.961229,-43.213186
https://assets.atlasobscura.com/media/W1siZiIsInVwbG9hZHMvcGxhY2VfaW1hZ2VzL2YxZjViMjVlYTllMWI0NGZiNF9UZXJtaXRlTW91bmQucG5nIl0sWyJwIiwiY29udmVydCIsIiJdLFsicCIsImNvbnZlcnQiLCItcXVhbGl0eSA4MSAtYXV0by1vcmllbnQiXSxbInAiLCJ0aHVtYiIsIjYwMHg0MDAjIl1d,https://www.atlasobscura.com/places/glowing-termite-mounds-of-emas-national-park,Glowing Termite Mounds of Emas National Park,Vila de São Jorge,Brazil,-18.122851,-52.908942
https://assets.atlasobscura.com/media/W1siZiIsInVwbG9hZHMvcGxhY2VfaW1hZ2VzL2ExODliMmMxOTA0OTUwNGYwMl8xNDYyMTk1MjQzX2NlMjI5YTI2ZTZfby5qcGciXSxbInAiLCJjb252ZXJ0IiwiIl0sWyJwIiwiY29udmVydCIsIi1xdWFsaXR5IDgxIC1hdXRvLW9yaWVudCJdLFsicCIsInRodW1iIiwiNjAweDQwMCMiXV0,https://www.atlasobscura.com/places/los-tres-ojos,Los Tres Ojos,Santo Domingo Este,Dominican Republic,18.478654,-69.857507
https://assets.atlasobscura.com/media/W1siZiIsInVwbG9hZHMvcGxhY2VfaW1hZ2VzL2VlNTBjNmJkNjBiMDZiNGZmMDAwMzU0Y2E3ZmI0ODI1NzVhN2UzYTguanBnIl0sWyJwIiwiY29udmVydCIsIiJdLFsicCIsImNvbnZlcnQiLCItcXVhbGl0eSA4MSAtYXV0by1vcmllbnQiXSxbInAiLCJ0aHVtYiIsIjYwMHg0MDAjIl1d/ee50c6bd60b06b4ff000354ca7fb482575a7e3a8.jpg,https://www.atlasobscura.com/places/cuevas-de-las-maravillas-cave-of-wonders,Cuevas de las Maravillas (Cave of Wonders),La Caña,Dominican Republic,18.451452,-69.160466
https://assets.atlasobscura.com/media/W1siZiIsInVwbG9hZHMvcGxhY2VfaW1hZ2VzLzZmZGRkNzVlNmI1ZjQ3ODc4Y2YxMzNkOTc1NDdiMTYxYTcwNTUyZWMuanBnIl0sWyJwIiwiY29udmVydCIsIiJdLFsicCIsImNvbnZlcnQiLCItcXVhbGl0eSA4MSAtYXV0by1vcmllbnQiXSxbInAiLCJ0aHVtYiIsIjYwMHg0MDAjIl1d/6fddd75e6b5f47878cf133d97547b161a70552ec.jpg,https://www.atlasobscura.com/places/el-meson-de-la-cava,El Meson de la Cava,Santo Domingo,Dominican Republic,18.441678,-69.957126
https://assets.atlasobscura.com/media/W1siZiIsInVwbG9hZHMvcGxhY2VfaW1hZ2VzL2FmNTkyOTFlNTg2NTZmOTIzOV80MzkzMzIyMTU3X2QyNjVhYmQ4OGJfby5qcGciXSxbInAiLCJjb252ZXJ0IiwiIl0sWyJwIiwiY29udmVydCIsIi1xdWFsaXR5IDgxIC1hdXRvLW9yaWVudCJdLFsicCIsInRodW1iIiwiNjAweDQwMCMiXV0/af59291e58656f9239_4393322157_d265abd88b_o.jpg,https://www.atlasobscura.com/places/museo-del-ambar-museum-of-amber,Museo Del Ambar (Amber Museum),Puerto Plata,Dominican Republic,19.796461,-70.69222
https://assets.atlasobscura.com/media/W1siZiIsInVwbG9hZHMvcGxhY2VfaW1hZ2VzLzUzMzZhMWMwZGYzY2EzNDkxNDMyNzNmMTRjNmQxNTZlMDFhODdkYjcuanBnIl0sWyJwIiwiY29udmVydCIsIiJdLFsicCIsImNvbnZlcnQiLCItcXVhbGl0eSA4MSAtYXV0by1vcmllbnQiXSxbInAiLCJ0aHVtYiIsIjYwMHg0MDAjIl1d/5336a1c0df3ca349143273f14c6d156e01a87db7.jpg,https://www.atlasobscura.com/places/faro-a-colon-columbus-lighthouse,Faro a Colon (Columbus Lighthouse),Santo Domingo Este,Dominican Republic,18.478693,-69.868262
https://assets.atlasobscura.com/media/W1siZiIsInVwbG9hZHMvcGxhY2VfaW1hZ2VzLzFlZjU3MjEwNmYzNDdhMjI0OV8zNTI4ODIwMjVfMTMyZDQ2YjZkYl9iLmpwZyJdLFsicCIsImNvbnZlcnQiLCIiXSxbInAiLCJjb252ZXJ0IiwiLXF1YWxpdHkgODEgLWF1dG8tb3JpZW50Il0sWyJwIiwidGh1bWIiLCI2MDB4NDAwIyJdXQ,https://www.atlasobscura.com/places/altos-de-chavon,Altos de Chavon,La Romana,Dominican Republic,18.420604,-68.889932
https://assets.atlasobscura.com/media/W1siZiIsInVwbG9hZHMvcGxhY2VfaW1hZ2VzLzg5MTlmYWJiLTI0MDItNDNmOC04NTg3LWQ1NDliMmU4OGFkNTI2OTc4M2ZkMDI4YTljYzNkNl9DYXN0aWxsby1NdW5kby1LaW5nLmpwZyJdLFsicCIsImNvbnZlcnQiLCIiXSxbInAiLCJjb252ZXJ0IiwiLXF1YWxpdHkgODEgLWF1dG8tb3JpZW50Il0sWyJwIiwidGh1bWIiLCI2MDB4NDAwIyJdXQ/Castillo-Mundo-King.jpg,https://www.atlasobscura.com/places/castillo-mundo-king,Castillo Mundo King,Sosúa,Dominican Republic,19.760014,-70.5116
https://assets.atlasobscura.com/media/W1siZiIsInVwbG9hZHMvcGxhY2VfaW1hZ2VzLzc1ZDlkZGE4ZWMwM2YwMDE3YmY2NzgxZTc1MjU1Y2Y5MjAzNGUwZTMuanBnIl0sWyJwIiwiY29udmVydCIsIiJdLFsicCIsImNvbnZlcnQiLCItcXVhbGl0eSA4MSAtYXV0by1vcmllbnQiXSxbInAiLCJ0aHVtYiIsIjYwMHg0MDAjIl1d/75d9dda8ec03f0017bf6781e75255cf92034e0e3.jpg,https://www.atlasobscura.com/places/ruins-hospital-st-nicolas-of-bari,Ruins of the Hospital of St. Nicolas of Bari ,Santo Domingo,Dominican Republic,18.474999,-69.885428
https://assets.atlasobscura.com/media/W1siZiIsInVwbG9hZHMvcGxhY2VfaW1hZ2VzL2Q0NGIxNzBlMTYxMzgyZDY1Yl84NDQ5NTg4Njg4Xzg4YmIwZjdlMDhfYi5qcGciXSxbInAiLCJjb252ZXJ0IiwiIl0sWyJwIiwiY29udmVydCIsIi1xdWFsaXR5IDgxIC1hdXRvLW9yaWVudCJdLFsicCIsInRodW1iIiwiNjAweDQwMCMiXV0,https://www.atlasobscura.com/places/marble-caves-of-chile-chico,Marble Caves of Chile Chico,Puerto Río Tranquilo,Chile,-46.658612,-72.627965
https://assets.atlasobscura.com/media/W1siZiIsInVwbG9hZHMvcGxhY2VfaW1hZ2VzLzBkYTRhZGEzMjA3ZDBkZjQzNF9Ib3RlbC1MYS1Nb250YW5hLU1hZ2ljYS5qcGciXSxbInAiLCJjb252ZXJ0IiwiIl0sWyJwIiwiY29udmVydCIsIi1xdWFsaXR5IDgxIC1hdXRvLW9yaWVudCJdLFsicCIsInRodW1iIiwiNjAweDQwMCMiXV0,https://www.atlasobscura.com/places/montana-magica-lodge,Montana Magica Lodge,Panguipulli,Chile,-39.868114,-71.908264
https://assets.atlasobscura.com/media/W1siZiIsInVwbG9hZHMvcGxhY2VfaW1hZ2VzLzgwOTE5OTMxX2ZkOWY5MTU5Yzhfby5qcGciXSxbInAiLCJjb252ZXJ0IiwiIl0sWyJwIiwiY29udmVydCIsIi1xdWFsaXR5IDgxIC1hdXRvLW9yaWVudCJdLFsicCIsInRodW1iIiwiNjAweDQwMCMiXV0/80919931_fd9f9159c8_o.jpg,https://www.atlasobscura.com/places/el-gigante-and-the-stone-moai-of-easter-island,"""El Gigante"" and the Stone Moai of Easter Island",Easter Island,Chile,-27.126145,-109.285324
https://assets.atlasobscura.com/media/W1siZiIsInVwbG9hZHMvcGxhY2VfaW1hZ2VzLzAxOTkzNWViNzhkNDJkZjJiNF82NzkxMzc5NzY2XzYzNDQ5ZDAxZDJfYi5qcGciXSxbInAiLCJjb252ZXJ0IiwiIl0sWyJwIiwiY29udmVydCIsIi1xdWFsaXR5IDgxIC1hdXRvLW9yaWVudCJdLFsicCIsInRodW1iIiwiNjAweDQwMCMiXV0,https://www.atlasobscura.com/places/termas-geometricas,Termas Geometricas,Panguipulli,Chile,-39.500909,-71.874385
https://assets.atlasobscura.com/media/W1siZiIsInVwbG9hZHMvcGxhY2VfaW1hZ2VzLzdmOTA3ZjdjMTdiZGFlYTUwOGRjZGI3NDY3OGE0ODUwZTZjZTgxMzYuanBnIl0sWyJwIiwiY29udmVydCIsIiJdLFsicCIsImNvbnZlcnQiLCItcXVhbGl0eSA4MSAtYXV0by1vcmllbnQiXSxbInAiLCJ0aHVtYiIsIjYwMHg0MDAjIl1d/7f907f7c17bdaea508dcdb74678a4850e6ce8136.jpg,https://www.atlasobscura.com/places/caves-of-the-villarrica-volcano,Caves of the Villarrica Volcano,Villarrica,Chile,-39.266667,-72.216667
https://assets.atlasobscura.com/media/W1siZiIsInVwbG9hZHMvcGxhY2VfaW1hZ2VzL2Y5NzRiNWI1YmNjZTM5NDg0MV80NTUzMTc4MTdfOGNhZDcyZGNkNl96LmpwZyJdLFsicCIsImNvbnZlcnQiLCIiXSxbInAiLCJjb252ZXJ0IiwiLXF1YWxpdHkgODEgLWF1dG8tb3JpZW50Il0sWyJwIiwidGh1bWIiLCI2MDB4NDAwIyJdXQ,https://www.atlasobscura.com/places/elevators-of-valparaiso,Elevators of Valparaiso,Valparaiso,Chile,-33.033661,-71.630209
https://assets.atlasobscura.com/media/W1siZiIsInVwbG9hZHMvcGxhY2VfaW1hZ2VzLzUyNmQyNzVlMTI3NDAzNmQwY18zODg2MDczODFfMGI4YmZiMjEwNV9vLmpwZyJdLFsicCIsImNvbnZlcnQiLCIiXSxbInAiLCJjb252ZXJ0IiwiLXF1YWxpdHkgODEgLWF1dG8tb3JpZW50Il0sWyJwIiwidGh1bWIiLCI2MDB4NDAwIyJdXQ,https://www.atlasobscura.com/places/discoteca-ayala,Discoteca Ayala,Trinidad,Cuba,21.808363,-79.981047
https://assets.atlasobscura.com/media/W1siZiIsInVwbG9hZHMvcGxhY2VfaW1hZ2VzLzc3MDllNTk4ZjE0Mjg1YmEyMl8xMTc0MjQ3Njc4Nl84NDg2NzYyOTViX2guanBnIl0sWyJwIiwiY29udmVydCIsIiJdLFsicCIsImNvbnZlcnQiLCItcXVhbGl0eSA4MSAtYXV0by1vcmllbnQiXSxbInAiLCJ0aHVtYiIsIjYwMHg0MDAjIl1d/11742476786_848676295b_h.jpg,https://www.atlasobscura.com/places/fusterlandia,Fusterlandia,Havana,Cuba,23.089907,-82.483254
https://assets.atlasobscura.com/media/W1siZiIsInVwbG9hZHMvcGxhY2VfaW1hZ2VzLzU3ZDM2YWQzNzAwYjViMzk3YV9DdWJhXzAyNjMuanBnIl0sWyJwIiwiY29udmVydCIsIiJdLFsicCIsImNvbnZlcnQiLCItcXVhbGl0eSA4MSAtYXV0by1vcmllbnQiXSxbInAiLCJ0aHVtYiIsIjYwMHg0MDAjIl1d,https://www.atlasobscura.com/places/los-jardines-de-la-tropical,Los Jardines de la Tropical,Havana,Cuba,23.10557,-82.40847
https://assets.atlasobscura.com/media/W1siZiIsInVwbG9hZHMvcGxhY2VfaW1hZ2VzLzAyNmJhZjAzNTBjOTQxMzE4NzM5MDE0ZDVhZjQ2OTg2NTNhZmNhMWEuanBnIl0sWyJwIiwiY29udmVydCIsIiJdLFsicCIsImNvbnZlcnQiLCItcXVhbGl0eSA4MSAtYXV0by1vcmllbnQiXSxbInAiLCJ0aHVtYiIsIjYwMHg0MDAjIl1d/026baf0350c941318739014d5af4698653afca1a.jpg,https://www.atlasobscura.com/places/presidio-modelo,Presidio Modelo,Nueva Gerona,Cuba,21.877417,-82.766447
https://assets.atlasobscura.com/media/W1siZiIsInVwbG9hZHMvcGxhY2VfaW1hZ2VzLzA0NzU3YTNiODhlYTcwMmQ0NV8xNDc2MjIzNDk2Nl83YWQxN2QzNmZjX2suanBnIl0sWyJwIiwiY29udmVydCIsIiJdLFsicCIsImNvbnZlcnQiLCItcXVhbGl0eSA4MSAtYXV0by1vcmllbnQiXSxbInAiLCJ0aHVtYiIsIjYwMHg0MDAjIl1d,https://www.atlasobscura.com/places/colon-cemetery,Colón Cemetery,Havana,Cuba,23.123079,-82.39959
https://assets.atlasobscura.com/media/W1siZiIsInVwbG9hZHMvcGxhY2VfaW1hZ2VzLzQyOTE4Y2RkOGFjOTg4YzkxOV8xMjAwcHgtQ2FsbGVqb25oYWJhbmEuanBlZyJdLFsicCIsImNvbnZlcnQiLCIiXSxbInAiLCJjb252ZXJ0IiwiLXF1YWxpdHkgODEgLWF1dG8tb3JpZW50Il0sWyJwIiwidGh1bWIiLCI2MDB4NDAwIyJdXQ/1200px-Callejonhabana.jpeg,https://www.atlasobscura.com/places/callejon-de-hamel,Callejon de Hamel,Havana,Cuba,23.138609,-82.375676
https://assets.atlasobscura.com/media/W1siZiIsInVwbG9hZHMvcGxhY2VfaW1hZ2VzL2QwYjZhOWNhZmY4NzhhOWUzZV83MTY0MzQ3OTk4Xzc4MzMwMWE4MDVfei5qcGciXSxbInAiLCJjb252ZXJ0IiwiIl0sWyJwIiwiY29udmVydCIsIi1xdWFsaXR5IDgxIC1hdXRvLW9yaWVudCJdLFsicCIsInRodW1iIiwiNjAweDQwMCMiXV0,https://www.atlasobscura.com/places/finca-vigia,Finca Vigía ,Havana,Cuba,23.067584,-82.295999
https://assets.atlasobscura.com/media/W1siZiIsInVwbG9hZHMvcGxhY2VfaW1hZ2VzLzJmMjMxMmU0MzVlZjU3M2E0Nl9TY3VscHR1cmVDaGVHdWV2YXJhQ3ViYS5qcGciXSxbInAiLCJjb252ZXJ0IiwiIl0sWyJwIiwiY29udmVydCIsIi1xdWFsaXR5IDgxIC1hdXRvLW9yaWVudCJdLFsicCIsInRodW1iIiwiNjAweDQwMCMiXV0/SculptureCheGuevaraCuba.jpg,https://www.atlasobscura.com/places/la-plaza-de-la-revolucion-havana-cuba,La Plaza de la Revolución,Havana,Cuba,23.124261,-82.385923
https://assets.atlasobscura.com/media/W1siZiIsInVwbG9hZHMvcGxhY2VfaW1hZ2VzLzk2ODMxNmM2ZmVhN2VlZmE0Nl9EU0NfMTE2My5qcGciXSxbInAiLCJjb252ZXJ0IiwiIl0sWyJwIiwiY29udmVydCIsIi1xdWFsaXR5IDgxIC1hdXRvLW9yaWVudCJdLFsicCIsInRodW1iIiwiNjAweDQwMCMiXV0/DSC_1163.jpg,https://www.atlasobscura.com/places/stonework-machu-picchu,Machu Picchu: The Lost City of The Inca,Aguas Calientes,Peru,-13.1631,-72.545
https://assets.atlasobscura.com/media/W1siZiIsInVwbG9hZHMvcGxhY2VfaW1hZ2VzL2VjMWU1NDcxODY3NDkwYWIxZDE0ZGVlMGM3ZDJkZmQ5ZGZiNjFmZGEuanBnIl0sWyJwIiwiY29udmVydCIsIi1hdXRvLW9yaWVudCAiXSxbInAiLCJ0aHVtYiIsIjB4MCswKzAiXSxbInAiLCJjb252ZXJ0IiwiLXF1YWxpdHkgODEgLWF1dG8tb3JpZW50Il0sWyJwIiwidGh1bWIiLCI2MDB4NDAwIyJdXQ/ec1e5471867490ab1d14dee0c7d2dfd9dfb61fda.jpg,https://www.atlasobscura.com/places/last-handwoven-bridge,Q'eswachaka Rope Bridge,Cusco,Peru,-14.381121,-71.484012
https://assets.atlasobscura.com/media/W1siZiIsInVwbG9hZHMvcGxhY2VfaW1hZ2VzLzg0NjFkZDk0NDBiM2RmZWFiZl9zaHV0dGVyc3RvY2tfNDUxNzgwMTE0LmpwZyJdLFsicCIsImNvbnZlcnQiLCIiXSxbInAiLCJjb252ZXJ0IiwiLXF1YWxpdHkgODEgLWF1dG8tb3JpZW50Il0sWyJwIiwidGh1bWIiLCI2MDB4NDAwIyJdXQ/shutterstock_451780114.jpg,https://www.atlasobscura.com/places/vinicunca-rainbow-mountain,Rainbow Mountain,Pitumarca,Peru,-13.870111,-71.303212
https://assets.atlasobscura.com/media/W1siZiIsInVwbG9hZHMvcGxhY2VfaW1hZ2VzLzZiMWJlOGI5ZDRhMzM1YTQ5ZGRhZGQzNTdiNTFmNjJiODAwcHgtQ2F0YWN1bWJhc19kZV9TYW5fRnJhbmNpc2NvLF9MaW1hLmpwZyJdLFsicCIsImNvbnZlcnQiLCItYXV0by1vcmllbnQgIl0sWyJwIiwidGh1bWIiLCI3MDJ4NDY4KzArMCJdLFsicCIsImNvbnZlcnQiLCItcXVhbGl0eSA4MSAtYXV0by1vcmllbnQiXSxbInAiLCJ0aHVtYiIsIjYwMHg0MDAjIl1d/800px-Catacumbas_de_San_Francisco%2C_Lima.jpg,https://www.atlasobscura.com/places/convento-de-san-francisco-ossuary,Convento de San Francisco Ossuary,Lima,Peru,-12.045361,-77.027011
https://assets.atlasobscura.com/media/W1siZiIsInVwbG9hZHMvcGxhY2VfaW1hZ2VzLzFkYzg5NDk2MjVmYTYwOWU0OV9UaGUgQm9pbGluZyBSaXZlcl9Tb2bDrWEgUnV6by5qcGciXSxbInAiLCJjb252ZXJ0IiwiIl0sWyJwIiwiY29udmVydCIsIi1xdWFsaXR5IDgxIC1hdXRvLW9yaWVudCJdLFsicCIsInRodW1iIiwiNjAweDQwMCMiXV0/The%20Boiling%20River_Sof%C3%ADa%20Ruzo.jpg,https://www.atlasobscura.com/places/the-boiling-river-of-the-amazon-puerto-inca-peru,The Boiling River of the Amazon,Puerto Inca,Peru,-8.82,-74.73
https://assets.atlasobscura.com/media/W1siZiIsInVwbG9hZHMvcGxhY2VfaW1hZ2VzLzEzOTIzMjI1NjhfNGIwYjBkYjkyM19iLmpwZyJdLFsicCIsImNvbnZlcnQiLCItYXV0by1vcmllbnQgIl0sWyJwIiwidGh1bWIiLCIxMDI0eDY4MiswKzI3OSJdLFsicCIsImNvbnZlcnQiLCItcXVhbGl0eSA4MSAtYXV0by1vcmllbnQiXSxbInAiLCJ0aHVtYiIsIjYwMHg0MDAjIl1d/1392322568_4b0b0db923_b.jpg,https://www.atlasobscura.com/places/nazca-lines-peru,Nazca Lines,Nazca,Peru,-14.739025,-75.130013
https://assets.atlasobscura.com/media/W1siZiIsInVwbG9hZHMvcGxhY2VfaW1hZ2VzLzg5N2EwMTM1ZmQwY2Q5YjQ4YjllMDgzMmE3NmQ5NDM4YzIwOTYyZGIuanBnIl0sWyJwIiwiY29udmVydCIsIiJdLFsicCIsImNvbnZlcnQiLCItcXVhbGl0eSA4MSAtYXV0by1vcmllbnQiXSxbInAiLCJ0aHVtYiIsIjYwMHg0MDAjIl1d/897a0135fd0cd9b48b9e0832a76d9438c20962db.jpg,https://www.atlasobscura.com/places/ollantaytambo-ruins,Ollantaytambo Ruins,Ollantaytambo,Peru,-13.258056,-72.263333
https://assets.atlasobscura.com/media/W1siZiIsInVwbG9hZHMvcGxhY2VfaW1hZ2VzL2RkZjc4ZWQ0Yzg3MTBiNmIwODE5MjRmZjcxNTVjZWViNzc3YjRjNDcuanBnIl0sWyJwIiwiY29udmVydCIsIi1hdXRvLW9yaWVudCAiXSxbInAiLCJ0aHVtYiIsIjYzN3g0MjUrMCswIl0sWyJwIiwiY29udmVydCIsIi1xdWFsaXR5IDgxIC1hdXRvLW9yaWVudCJdLFsicCIsInRodW1iIiwiNjAweDQwMCMiXV0/ddf78ed4c8710b6b081924ff7155ceeb777b4c47.jpg,https://www.atlasobscura.com/places/huayllay-national-sanctuary,Huayllay National Sanctuary,Casma District,Peru,-10.996614,-76.328969
https://assets.atlasobscura.com/media/W1siZiIsInVwbG9hZHMvcGxhY2VfaW1hZ2VzLzI0OTFmMDRkZDI1MGI5MzRlZF9DQU7Mg09fQ1JJU1RBTEVTX-KAk19MT1NfT0NIT1NfMDEuanBnIl0sWyJwIiwiY29udmVydCIsIiJdLFsicCIsImNvbnZlcnQiLCItcXVhbGl0eSA4MSAtYXV0by1vcmllbnQiXSxbInAiLCJ0aHVtYiIsIjYwMHg0MDAjIl1d/CAN%CC%83O_CRISTALES_%E2%80%93_LOS_OCHOS_01.jpg,https://www.atlasobscura.com/places/cano-cristales,Caño Cristales,Vista Hermosa,Colombia,2.264193,-73.794469
https://assets.atlasobscura.com/media/W1siZiIsInVwbG9hZHMvcGxhY2VfaW1hZ2VzL2ZhZjYyNjZiYTM3YWY0MWVhODQxYmQ0OWQ4MTUxNWYwODFhNmFiZTIuanBnIl0sWyJwIiwiY29udmVydCIsIiJdLFsicCIsImNvbnZlcnQiLCItcXVhbGl0eSA4MSAtYXV0by1vcmllbnQiXSxbInAiLCJ0aHVtYiIsIjYwMHg0MDAjIl1d/faf6266ba37af41ea841bd49d81515f081a6abe2.jpg,https://www.atlasobscura.com/places/las-lajas-sanctuary,Las Lajas Sanctuary,Nariño,Colombia,0.805495,-77.581687
https://assets.atlasobscura.com/media/W1siZiIsInVwbG9hZHMvcGxhY2VfaW1hZ2VzLzA5N2RjNzdiZjJjODViZTZkMF84MDBweC1Ib3RlbGRlbFNhbHRvQWJhbmRvbmFkby5qcGciXSxbInAiLCJjb252ZXJ0IiwiIl0sWyJwIiwiY29udmVydCIsIi1xdWFsaXR5IDgxIC1hdXRvLW9yaWVudCJdLFsicCIsInRodW1iIiwiNjAweDQwMCMiXV0,https://www.atlasobscura.com/places/tequendama-falls-museum-2,Tequendama Falls Museum,San Antonio del Tequendama,Colombia,4.616667,-74.35
https://assets.atlasobscura.com/media/W1siZiIsInVwbG9hZHMvcGxhY2VfaW1hZ2VzL2QwM2RiYTZhZjBhNjM1NTg4YV9jYXZlMS5qcGciXSxbInAiLCJjb252ZXJ0IiwiIl0sWyJwIiwiY29udmVydCIsIi1xdWFsaXR5IDgxIC1hdXRvLW9yaWVudCJdLFsicCIsInRodW1iIiwiNjAweDQwMCMiXV0,https://www.atlasobscura.com/places/cave-of-splendor,Cave of Splendor,Jardín,Colombia,5.599205,-75.819349
https://assets.atlasobscura.com/media/W1siZiIsInVwbG9hZHMvcGxhY2VfaW1hZ2VzLzU5MTAyNzBiLTM5ZDktNGUxMy1iNzE4LTE0MGE0YzdhOTFmMjkxNWM1N2RkNGIxNWUzODlmOV9EZXBvc2l0cGhvdG9zXzEzNjMzNzYxMl9sLTIwMTUuanBnIl0sWyJwIiwiY29udmVydCIsIiJdLFsicCIsImNvbnZlcnQiLCItcXVhbGl0eSA4MSAtYXV0by1vcmllbnQiXSxbInAiLCJ0aHVtYiIsIjYwMHg0MDAjIl1d/Depositphotos_136337612_l-2015.jpg,https://www.atlasobscura.com/places/guatape,Guatapé,Guatape,Colombia,6.231137,-75.153467
https://assets.atlasobscura.com/media/W1siZiIsInVwbG9hZHMvcGxhY2VfaW1hZ2VzLzY3NWE1ZDhiNzU0OGY1YzJhYl9pbWFnZSAoNDYpLmpwZyJdLFsicCIsImNvbnZlcnQiLCIiXSxbInAiLCJjb252ZXJ0IiwiLXF1YWxpdHkgODEgLWF1dG8tb3JpZW50Il0sWyJwIiwidGh1bWIiLCI2MDB4NDAwIyJdXQ/image%20%2846%29.jpg,https://www.atlasobscura.com/places/pablo-escobars-abandoned-secret-island-mansion,Pablo Escobar's Abandoned Secret Island Mansion,Barú,Colombia,10.17632,-75.740163
https://assets.atlasobscura.com/media/W1siZiIsInVwbG9hZHMvcGxhY2VfaW1hZ2VzLzdiMGY5Nzk0YjRhM2M5NTFlY18yMTI5NzQ2Mzg0XzE5MDVlMTFiODdfYi5qcGciXSxbInAiLCJjb252ZXJ0IiwiIl0sWyJwIiwiY29udmVydCIsIi1xdWFsaXR5IDgxIC1hdXRvLW9yaWVudCJdLFsicCIsInRodW1iIiwiNjAweDQwMCMiXV0,https://www.atlasobscura.com/places/the-volcan-de-lodo-el-totumo-santa-catalina-colombia,The Volcan de Lodo El Totumo,Santa Catalina,Colombia,10.744472,-75.241403
https://assets.atlasobscura.com/media/W1siZiIsInVwbG9hZHMvcGxhY2VfaW1hZ2VzL2NmNGM3ZTQ0YWIzNTJhOTQwMl8xNTg5MTI2NzA1N183NTM2ZTAyNGQwX28uanBnIl0sWyJwIiwiY29udmVydCIsIiJdLFsicCIsImNvbnZlcnQiLCItcXVhbGl0eSA4MSAtYXV0by1vcmllbnQiXSxbInAiLCJ0aHVtYiIsIjYwMHg0MDAjIl1d/15891267057_7536e024d0_o.jpg,https://www.atlasobscura.com/places/the-tatacoa-desert-villavieja-colombia,The Tatacoa Desert,Villavieja,Colombia,3.234559,-75.169948
https://assets.atlasobscura.com/media/W1siZiIsInVwbG9hZHMvcGxhY2VfaW1hZ2VzLzk1Njc3ZTUwMWM4OTVjZjQzMF9EZXBvc2l0cGhvdG9zXzEzOTQzNTM1Nl9tLTIwMTUuanBnIl0sWyJwIiwiY29udmVydCIsIiJdLFsicCIsImNvbnZlcnQiLCItcXVhbGl0eSA4MSAtYXV0by1vcmllbnQiXSxbInAiLCJ0aHVtYiIsIjYwMHg0MDAjIl1d/Depositphotos_139435356_m-2015.jpg,https://www.atlasobscura.com/places/hanging-temple-hengshan,Hanging Temple of Hengshan,Datong,China,39.659496,113.709269
https://assets.atlasobscura.com/media/W1siZiIsInVwbG9hZHMvcGxhY2VfaW1hZ2VzLzg4NGQ4MzYzYzIwNzhlMmI0N18yMDE1MDAxMDY1Xzk4NjQxOTFhNDNfYi5qcGciXSxbInAiLCJjb252ZXJ0IiwiLWF1dG8tb3JpZW50ICJdLFsicCIsInRodW1iIiwiOTE2eDYxMSswKzAiXSxbInAiLCJjb252ZXJ0IiwiLXF1YWxpdHkgODEgLWF1dG8tb3JpZW50Il0sWyJwIiwidGh1bWIiLCI2MDB4NDAwIyJdXQ,https://www.atlasobscura.com/places/red-beach,Red Beach ,Panjin Shi,China,40.970622,121.822995
https://assets.atlasobscura.com/media/W1siZiIsInVwbG9hZHMvcGxhY2VfaW1hZ2VzLzgxMTkyNGE4Y2VkZDIwOTdiYV8xX3RpYW56aXNoYW5fd3VsaW5neXVhbl96aGFuZ2ppYWppZV8yMDEyLmpwZyJdLFsicCIsImNvbnZlcnQiLCIiXSxbInAiLCJjb252ZXJ0IiwiLXF1YWxpdHkgODEgLWF1dG8tb3JpZW50Il0sWyJwIiwidGh1bWIiLCI2MDB4NDAwIyJdXQ/1_tianzishan_wulingyuan_zhangjiajie_2012.jpg,https://www.atlasobscura.com/places/avatar-hallelujah-mountain,Avatar Hallelujah Mountain,Zhangjiajie,China,29.314927,110.433129
https://assets.atlasobscura.com/media/W1siZiIsInVwbG9hZHMvcGxhY2VfaW1hZ2VzLzdhMzQ5YTFhZjMxNTc2YzIzY183OTlweC1CZWlqaW5nLWZvcmJpZGRlbjQuanBnIl0sWyJwIiwiY29udmVydCIsIiJdLFsicCIsImNvbnZlcnQiLCItcXVhbGl0eSA4MSAtYXV0by1vcmllbnQiXSxbInAiLCJ0aHVtYiIsIjYwMHg0MDAjIl1d,https://www.atlasobscura.com/places/the-forbidden-city-beijing-china,The Forbidden City,Beijing,China,39.922456,116.396804
https://assets.atlasobscura.com/media/W1siZiIsInVwbG9hZHMvcGxhY2VfaW1hZ2VzLzE2MjliZTgyNTg2Njc1OTkzMl84MjAyOTAwMjE0XzZkNTBhNWYzYTRfay5qcGciXSxbInAiLCJjb252ZXJ0IiwiIl0sWyJwIiwiY29udmVydCIsIi1xdWFsaXR5IDgxIC1hdXRvLW9yaWVudCJdLFsicCIsInRodW1iIiwiNjAweDQwMCMiXV0,https://www.atlasobscura.com/places/huanglong,Huanglong Travertine Pools,Aba,China,32.748759,103.823329
https://assets.atlasobscura.com/media/W1siZiIsInVwbG9hZHMvcGxhY2VfaW1hZ2VzLzBlNzE4YTY1MzdkNDM2ODE4NF9HZXR0eUltYWdlcy00NzY1MjYzOTYuanBnIl0sWyJwIiwiY29udmVydCIsIiJdLFsicCIsImNvbnZlcnQiLCItcXVhbGl0eSA4MSAtYXV0by1vcmllbnQiXSxbInAiLCJ0aHVtYiIsIjYwMHg0MDAjIl1d/GettyImages-476526396.jpg,https://www.atlasobscura.com/places/houtouwan,Houtouwan ,Shengshan Island,China,30.724012,122.822604
https://assets.atlasobscura.com/media/W1siZiIsInVwbG9hZHMvcGxhY2VfaW1hZ2VzL2FhMjYyMTczNjQyMWI1ZTUzMF90aWFubWVuc2hhbjIuanBnIl0sWyJwIiwiY29udmVydCIsIiJdLFsicCIsImNvbnZlcnQiLCItcXVhbGl0eSA4MSAtYXV0by1vcmllbnQiXSxbInAiLCJ0aHVtYiIsIjYwMHg0MDAjIl1d,https://www.atlasobscura.com/places/tianmen-shan,Tianmen Shan,Zhangjiajie,China,29.116525,110.479221
https://assets.atlasobscura.com/media/W1siZiIsInVwbG9hZHMvcGxhY2VfaW1hZ2VzLzYyY2IxMTFhNGY0MGI3N2Y2YzRhOGM5ZjM1NDlhYjJiNWY0NWE0MTkuanBnIl0sWyJwIiwiY29udmVydCIsIiJdLFsicCIsImNvbnZlcnQiLCItcXVhbGl0eSA4MSAtYXV0by1vcmllbnQiXSxbInAiLCJ0aHVtYiIsIjYwMHg0MDAjIl1d/62cb111a4f40b77f6c4a8c9f3549ab2b5f45a419.jpg,https://www.atlasobscura.com/places/dragon-escalator,Dragon Escalator,Beijing,China,40.456657,115.974978
https://assets.atlasobscura.com/media/W1siZiIsInVwbG9hZHMvcGxhY2VfaW1hZ2VzLzZiMWJlOGI5ZDRhMzM1YTQ5ZGRhZGQzNTdiNTFmNjJiTG90dXMgTGFrZS5qcGciXSxbInAiLCJjb252ZXJ0IiwiLWF1dG8tb3JpZW50ICJdLFsicCIsInRodW1iIiwiMTgwMHgxMjAwKzArMCJdLFsicCIsImNvbnZlcnQiLCItcXVhbGl0eSA4MSAtYXV0by1vcmllbnQiXSxbInAiLCJ0aHVtYiIsIjYwMHg0MDAjIl1d/Lotus%20Lake.jpg,https://www.atlasobscura.com/places/lotus-lake,Lotus Lake,Tambon Chiang Haeo,Thailand,17.212378,103.03447
https://assets.atlasobscura.com/media/W1siZiIsInVwbG9hZHMvcGxhY2VfaW1hZ2VzL2dvdWRlbi1sb3R1czEzMy5KUEciXSxbInAiLCJjb252ZXJ0IiwiIl0sWyJwIiwiY29udmVydCIsIi1xdWFsaXR5IDgxIC1hdXRvLW9yaWVudCJdLFsicCIsInRodW1iIiwiNjAweDQwMCMiXV0/gouden-lotus133.JPG,https://www.atlasobscura.com/places/wat-rong-khun,Wat Rong Khun,Tambon Pa O Don Chai,Thailand,19.824174,99.763133
https://assets.atlasobscura.com/media/W1siZiIsInVwbG9hZHMvcGxhY2VfaW1hZ2VzLzE3NWQxNDU2NjE1ODg0MThjMGQyMzUzZTFmMDY2ZTdjYjY0MjVhYWQuanBnIl0sWyJwIiwiY29udmVydCIsIiJdLFsicCIsImNvbnZlcnQiLCItcXVhbGl0eSA4MSAtYXV0by1vcmllbnQiXSxbInAiLCJ0aHVtYiIsIjYwMHg0MDAjIl1d/175d145661588418c0d2353e1f066e7cb6425aad.jpg,https://www.atlasobscura.com/places/the-wang-saen-suk-hell-garden-tambon-saen-suk-thailand,The Wang Saen Suk Hell Garden,Tambon Saen Suk,Thailand,13.297507,100.91288
https://assets.atlasobscura.com/media/W1siZiIsInVwbG9hZHMvcGxhY2VfaW1hZ2VzLzkwNzgwOTM3ZGIwOTFhZWJlZV9OUDEwN1MxVDFQMU4xMEUuSlBHIl0sWyJwIiwiY29udmVydCIsIiJdLFsicCIsImNvbnZlcnQiLCItcXVhbGl0eSA4MSAtYXV0by1vcmllbnQiXSxbInAiLCJ0aHVtYiIsIjYwMHg0MDAjIl1d,https://www.atlasobscura.com/places/erawan-cascading-waterfalls-and-caves,Erawan Cascading Waterfalls and Caves,Tambon Tha Kradan,Thailand,14.36109,99.142868
https://assets.atlasobscura.com/media/W1siZiIsInVwbG9hZHMvcGxhY2VfaW1hZ2VzLzEzMmZmMTFhYTAzYjRmMmI4NF9kcmFnb24yLmpwZyJdLFsicCIsImNvbnZlcnQiLCItYXV0by1vcmllbnQgIl0sWyJwIiwidGh1bWIiLCI2MDB4NDAwKzE2MSs0NCJdLFsicCIsImNvbnZlcnQiLCItcXVhbGl0eSA4MSAtYXV0by1vcmllbnQiXSxbInAiLCJ0aHVtYiIsIjYwMHg0MDAjIl1d,https://www.atlasobscura.com/places/wat-samphran-temple,Wat Samphran Temple,Khlong Mai,Thailand,13.735341,100.214771
https://assets.atlasobscura.com/media/W1siZiIsInVwbG9hZHMvcGxhY2VfaW1hZ2VzLzI0MDM0NDQ5M18xODM4NjU5MDVjLmpwZyJdLFsicCIsImNvbnZlcnQiLCIiXSxbInAiLCJjb252ZXJ0IiwiLXF1YWxpdHkgODEgLWF1dG8tb3JpZW50Il0sWyJwIiwidGh1bWIiLCI2MDB4NDAwIyJdXQ/240344493_183865905c.jpg,https://www.atlasobscura.com/places/siriraj-medical-museum,Siriraj Medical Museum,Bangkok,Thailand,13.758794,100.485113
https://assets.atlasobscura.com/media/W1siZiIsInVwbG9hZHMvcGxhY2VfaW1hZ2VzL2M4Nzg1ODgwLTYxMjktNDZmZS1hMjk1LWU4ZDJhMjYwOTgwZTI4MzkxZjMzNmU3ZGY0ZDBlMl90MS5qcGciXSxbInAiLCJjb252ZXJ0IiwiIl0sWyJwIiwiY29udmVydCIsIi1xdWFsaXR5IDgxIC1hdXRvLW9yaWVudCJdLFsicCIsInRodW1iIiwiNjAweDQwMCMiXV0/t1.jpg,https://www.atlasobscura.com/places/wat-mahathat-temple-of-the-great-relic,Wat Mahathat (Temple of the Great Relic),Bangkok,Thailand,13.755,100.490833
https://assets.atlasobscura.com/media/W1siZiIsInVwbG9hZHMvcGxhY2VfaW1hZ2VzLzI2MDJlMTMxN2U0MDgwNmJhNzA4ZmZiYzkyZDU4NTJiZDU1NzQ2OGEucG5nIl0sWyJwIiwiY29udmVydCIsIiJdLFsicCIsImNvbnZlcnQiLCItcXVhbGl0eSA4MSAtYXV0by1vcmllbnQiXSxbInAiLCJ0aHVtYiIsIjYwMHg0MDAjIl1d/2602e1317e40806ba708ffbc92d5852bd557468a.png,https://www.atlasobscura.com/places/bangkoks-ghost-tower-the-sathorn-unqiue,Bangkok's Ghost Tower: The Sathorn Unique,Bangkok,Thailand,13.717269,100.515257
https://assets.atlasobscura.com/media/W1siZiIsInVwbG9hZHMvcGxhY2VfaW1hZ2VzLzg0ODkxMmZlNjRiNjhmODhiNV85NDg3ODQ3MDE0Xzg0MmE0ZDdmYTFfby5qcGciXSxbInAiLCJjb252ZXJ0IiwiIl0sWyJwIiwiY29udmVydCIsIi1xdWFsaXR5IDgxIC1hdXRvLW9yaWVudCJdLFsicCIsInRodW1iIiwiNjAweDQwMCMiXV0,https://www.atlasobscura.com/places/ghibli-museum,Ghibli Museum,Tokyo,Japan,35.696233,139.570431
https://assets.atlasobscura.com/media/W1siZiIsInVwbG9hZHMvcGxhY2VfaW1hZ2VzLzA3OGU5ODg0YWE4OWRjOThlYThhOTEyNzVkM2FjMmU5NDUxZDgzZTYuanBnIl0sWyJwIiwiY29udmVydCIsIi1hdXRvLW9yaWVudCAiXSxbInAiLCJ0aHVtYiIsIjE2MTh4MTA3OSsxMzkrMCJdLFsicCIsImNvbnZlcnQiLCItcXVhbGl0eSA4MSAtYXV0by1vcmllbnQiXSxbInAiLCJ0aHVtYiIsIjYwMHg0MDAjIl1d/078e9884aa89dc98ea8a91275d3ac2e9451d83e6.jpg,https://www.atlasobscura.com/places/wisteria-tunnel,Wisteria Tunnel,Kitakyushu,Japan,33.831291,130.792655
https://assets.atlasobscura.com/media/W1siZiIsInVwbG9hZHMvcGxhY2VfaW1hZ2VzLzQ3NTI0Y2M3YWYxMjM2ZDEzN18xMjI0MzgzMjcwX2ZiMTJlMjFlY2Vfby5qcGciXSxbInAiLCJjb252ZXJ0IiwiIl0sWyJwIiwiY29udmVydCIsIi1xdWFsaXR5IDgxIC1hdXRvLW9yaWVudCJdLFsicCIsInRodW1iIiwiNjAweDQwMCMiXV0/1224383270_fb12e21ece_o.jpg,https://www.atlasobscura.com/places/cat-island,Cat Island,Ishinomaki,Japan,38.2955,141.417915
https://assets.atlasobscura.com/media/W1siZiIsInVwbG9hZHMvcGxhY2VfaW1hZ2VzL2U2ZTI3NTAzOTM3ODU1OTAwYl80MDcwNTgxNzA5XzEyMDRmMjVlM2JfYi5qcGciXSxbInAiLCJjb252ZXJ0IiwiIl0sWyJwIiwiY29udmVydCIsIi1xdWFsaXR5IDgxIC1hdXRvLW9yaWVudCJdLFsicCIsInRodW1iIiwiNjAweDQwMCMiXV0/e6e27503937855900b_4070581709_1204f25e3b_b.jpg,https://www.atlasobscura.com/places/sagano-bamboo-forest,Sagano Bamboo Forest,Kyoto,Japan,35.016702,135.670967
https://assets.atlasobscura.com/media/W1siZiIsInVwbG9hZHMvcGxhY2VfaW1hZ2VzL2RjZDVhMDE5YzQwNmVmMDk4Nl9DeWJlcl9Lb3dsb29uX1dhbGxlZF9DaXR5Xy1fMDdfLV9XYXJlaG91c2VfS2F3YXNha2ksXzIwMTQtMDYtMDJfKGJ5X0tlbl9PSFlBTUEpLmpwZyJdLFsicCIsImNvbnZlcnQiLCIiXSxbInAiLCJjb252ZXJ0IiwiLXF1YWxpdHkgODEgLWF1dG8tb3JpZW50Il0sWyJwIiwidGh1bWIiLCI2MDB4NDAwIyJdXQ,https://www.atlasobscura.com/places/anata-no-warehouse,Anata No Warehouse,Kawasaki,Japan,35.5269,139.694
https://assets.atlasobscura.com/media/W1siZiIsInVwbG9hZHMvcGxhY2VfaW1hZ2VzL2M1N2U3YzhmYTBlYzgyMTJmODQ4ODRmYWZhZjU4MjNiNjY5NjljYTcuanBnIl0sWyJwIiwiY29udmVydCIsIi1hdXRvLW9yaWVudCAiXSxbInAiLCJ0aHVtYiIsIjgwMHg1MzMrMCs2NiJdLFsicCIsImNvbnZlcnQiLCItcXVhbGl0eSA4MSAtYXV0by1vcmllbnQiXSxbInAiLCJ0aHVtYiIsIjYwMHg0MDAjIl1d/c57e7c8fa0ec8212f84884fafaf5823b66969ca7.jpg,https://www.atlasobscura.com/places/jigokudani-park-japan,Jigokudani Monkey Park,Yamanouchi,Japan,36.744634,138.412596
https://assets.atlasobscura.com/media/W1siZiIsInVwbG9hZHMvcGxhY2VfaW1hZ2VzLzZiMWJlOGI5ZDRhMzM1YTQ5ZGRhZGQzNTdiNTFmNjJiYm9zcXVlX3N1aWNpZGFzX2phcG9uLmpwZyJdLFsicCIsImNvbnZlcnQiLCIiXSxbInAiLCJjb252ZXJ0IiwiLXF1YWxpdHkgODEgLWF1dG8tb3JpZW50Il0sWyJwIiwidGh1bWIiLCI2MDB4NDAwIyJdXQ/bosque_suicidas_japon.jpg,https://www.atlasobscura.com/places/aokigahara-suicide-forest,Aokigahara Forest,Fujinomiya-shi,Japan,35.46259,138.654376
https://assets.atlasobscura.com/media/W1siZiIsInVwbG9hZHMvcGxhY2VfaW1hZ2VzL2MzMWViODFhYjg1ZWQ2MWQ3MzE2YWY1Mzc5MjE5MjU1OTk3MjgxYmQuanBnIl0sWyJwIiwiY29udmVydCIsIiJdLFsicCIsImNvbnZlcnQiLCItcXVhbGl0eSA4MSAtYXV0by1vcmllbnQiXSxbInAiLCJ0aHVtYiIsIjYwMHg0MDAjIl1d/c31eb81ab85ed61d7316af5379219255997281bd.jpg,https://www.atlasobscura.com/places/alice-wonderland-restaurant,Fantasy Dining Alice in a Labyrinth,Tokyo,Japan,35.668295,139.761587
https://assets.atlasobscura.com/media/W1siZiIsInVwbG9hZHMvcGxhY2VfaW1hZ2VzLzFjNzE2MjkyLTkzNTQtNDY4Yy1hODY3LTA1NTc0MTVlMGY4NTkzZWM1MmVkYjcyMTllNmQxN19BN1IwMDMwMi1FZGl0LmpwZyJdLFsicCIsImNvbnZlcnQiLCItYXV0by1vcmllbnQgIl0sWyJwIiwidGh1bWIiLCI1MjgweDM1MjArMCsxNzcyIl0sWyJwIiwiY29udmVydCIsIi1xdWFsaXR5IDgxIC1hdXRvLW9yaWVudCJdLFsicCIsInRodW1iIiwiNjAweDQwMCMiXV0/A7R00302-Edit.jpg,https://www.atlasobscura.com/places/un-chau-estate-flower-tunnel,Un Chau Estate Flower Tunnel,Kowloon,Hong Kong,22.335828,114.155947
https://assets.atlasobscura.com/media/W1siZiIsInVwbG9hZHMvcGxhY2VfaW1hZ2VzLzZhMzdiMDgwN2ExZDI2OGJiZDcxZGM4YjJmZWMxYTQ5ZTM3MzljYmMuanBnIl0sWyJwIiwiY29udmVydCIsIiJdLFsicCIsImNvbnZlcnQiLCItcXVhbGl0eSA4MSAtYXV0by1vcmllbnQiXSxbInAiLCJ0aHVtYiIsIjYwMHg0MDAjIl1d/6a37b0807a1d268bbd71dc8b2fec1a49e3739cbc.jpg,https://www.atlasobscura.com/places/tian-tan-buddha,Tian Tan Buddha,Ngong Ping,Hong Kong,22.252573,113.899663
https://assets.atlasobscura.com/media/W1siZiIsInVwbG9hZHMvcGxhY2VfaW1hZ2VzL2E1NDg5OTIwOGQ3NjIyZTA5M183OTMwNzY0NTU4XzEwMGQ3YTY0NDRfby5qcGciXSxbInAiLCJjb252ZXJ0IiwiLWF1dG8tb3JpZW50ICJdLFsicCIsInRodW1iIiwiMTAxMHg2NzMrNis2NTYiXSxbInAiLCJjb252ZXJ0IiwiLXF1YWxpdHkgODEgLWF1dG8tb3JpZW50Il0sWyJwIiwidGh1bWIiLCI2MDB4NDAwIyJdXQ,https://www.atlasobscura.com/places/lam-tsuen-wishing-trees,Lam Tsuen Wishing Trees,Tai Po,Hong Kong,22.455382,114.126099
https://assets.atlasobscura.com/media/W1siZiIsInVwbG9hZHMvcGxhY2VfaW1hZ2VzL0JhdHUtY2F2ZXMtd2ViLmpwZyJdLFsicCIsImNvbnZlcnQiLCItYXV0by1vcmllbnQgIl0sWyJwIiwidGh1bWIiLCI2MDB4NDAwKzE0MiszODIiXSxbInAiLCJjb252ZXJ0IiwiLXF1YWxpdHkgODEgLWF1dG8tb3JpZW50Il0sWyJwIiwidGh1bWIiLCI2MDB4NDAwIyJdXQ/Batu-caves-web.jpg,https://www.atlasobscura.com/places/batu-caves,Batu Caves,Batu Caves,Malaysia,3.241853,101.686792
https://assets.atlasobscura.com/media/W1siZiIsInVwbG9hZHMvcGxhY2VfaW1hZ2VzLzE5NTc4NTA3N19iNDMzNWZlZTBkX29fNC5qcGciXSxbInAiLCJjb252ZXJ0IiwiIl0sWyJwIiwiY29udmVydCIsIi1xdWFsaXR5IDgxIC1hdXRvLW9yaWVudCJdLFsicCIsInRodW1iIiwiNjAweDQwMCMiXV0/195785077_b4335fee0d_o_4.jpg,https://www.atlasobscura.com/places/flashing-fireflies-kampung-kuantan,Flashing Fireflies of Kampung Kuantan,Bestari Jaya,Malaysia,3.361903,101.296467
https://assets.atlasobscura.com/media/W1siZiIsInVwbG9hZHMvcGxhY2VfaW1hZ2VzL2Q0NDNmNTRmOGVmZTFkZmRhMF9UaGVfbWFpbl9lbnRyYW5jZV90b190aGVfTmlhaF9DYXZlc19hdF9zdW5zZXQuLmpwZyJdLFsicCIsImNvbnZlcnQiLCIiXSxbInAiLCJjb252ZXJ0IiwiLXF1YWxpdHkgODEgLWF1dG8tb3JpZW50Il0sWyJwIiwidGh1bWIiLCI2MDB4NDAwIyJdXQ/d443f54f8efe1dfda0_The_main_entrance_to_the_Niah_Caves_at_sunset..jpg,https://www.atlasobscura.com/places/niah-caves,Niah Caves,Miri,Malaysia,3.831212,113.753913
https://assets.atlasobscura.com/media/W1siZiIsInVwbG9hZHMvcGxhY2VfaW1hZ2VzLzcyZjlkMmRkMWU4MmI5Y2M2ZV85ODg5NDk0ODlfMjJhYTE3N2E5NV9iLmpwZyJdLFsicCIsImNvbnZlcnQiLCIiXSxbInAiLCJjb252ZXJ0IiwiLXF1YWxpdHkgODEgLWF1dG8tb3JpZW50Il0sWyJwIiwidGh1bWIiLCI2MDB4NDAwIyJdXQ,https://www.atlasobscura.com/places/the-pinnacles-of-gunung-mulu-marudi-malaysia,The Pinnacles of Gunung Mulu,Marudi,Malaysia,4.132,114.919
https://assets.atlasobscura.com/media/W1siZiIsInVwbG9hZHMvcGxhY2VfaW1hZ2VzL2YwZDE3ZmMwMzgwMjBkYjgwNl8xNDEyNTA1NDZfNGVhMGNmNjI4MV9iLmpwZyJdLFsicCIsImNvbnZlcnQiLCIiXSxbInAiLCJjb252ZXJ0IiwiLXF1YWxpdHkgODEgLWF1dG8tb3JpZW50Il0sWyJwIiwidGh1bWIiLCI2MDB4NDAwIyJdXQ,https://www.atlasobscura.com/places/langkawi-sky-bridge,Langkawi Sky Bridge,Langkawi,Malaysia,6.35,99.8
https://assets.atlasobscura.com/media/W1siZiIsInVwbG9hZHMvcGxhY2VfaW1hZ2VzL2Q3OWMzYjgwMWNiOTUwNmUzZWQzZmU3YmI5ODg4NWFjZjcwZjYwYWMuanBnIl0sWyJwIiwiY29udmVydCIsIiJdLFsicCIsImNvbnZlcnQiLCItcXVhbGl0eSA4MSAtYXV0by1vcmllbnQiXSxbInAiLCJ0aHVtYiIsIjYwMHg0MDAjIl1d/d79c3b801cb9506e3ed3fe7bb98885acf70f60ac.jpg,https://www.atlasobscura.com/places/crystal-mosque,Crystal Mosque,Kuala Terengganu,Malaysia,5.316667,103.116667
https://assets.atlasobscura.com/media/W1siZiIsInVwbG9hZHMvcGxhY2VfaW1hZ2VzLzNhZDE3YWVhYThhMGYwZTczZl8yMDE0LTA3LTE2IDA4LjMxLjM4IDEuanBnIl0sWyJwIiwiY29udmVydCIsIiJdLFsicCIsImNvbnZlcnQiLCItcXVhbGl0eSA4MSAtYXV0by1vcmllbnQiXSxbInAiLCJ0aHVtYiIsIjYwMHg0MDAjIl1d,https://www.atlasobscura.com/places/boh-tea-plantation-and-factory,BOH Tea Plantation and Factory,Cameron Highlands,Malaysia,4.512017,101.47935
https://assets.atlasobscura.com/media/W1siZiIsInVwbG9hZHMvcGxhY2VfaW1hZ2VzL2JmZTllNDI5OTUxMTM0NDZjNjRjMTEwMmFmMmJjYTg5OWU1Y2Q3NmMuanBnIl0sWyJwIiwiY29udmVydCIsIi1hdXRvLW9yaWVudCAiXSxbInAiLCJ0aHVtYiIsIjYwMHg0MDArMCs4Il0sWyJwIiwiY29udmVydCIsIi1xdWFsaXR5IDgxIC1hdXRvLW9yaWVudCJdLFsicCIsInRodW1iIiwiNjAweDQwMCMiXV0/bfe9e42995113446c64c1102af2bca899e5cd76c.jpg,https://www.atlasobscura.com/places/arulmigu-sri-rajakaliamman-hindu-temple,Arulmigu Sri Rajakaliamman Hindu Temple,Johor Bahru,Malaysia,1.468611,103.759722
https://assets.atlasobscura.com/media/W1siZiIsInVwbG9hZHMvcGxhY2VfaW1hZ2VzL0NoYW5kQmFvcmkuanBnIl0sWyJwIiwiY29udmVydCIsIiJdLFsicCIsImNvbnZlcnQiLCItcXVhbGl0eSA4MSAtYXV0by1vcmllbnQiXSxbInAiLCJ0aHVtYiIsIjYwMHg0MDAjIl1d/ChandBaori.jpg,https://www.atlasobscura.com/places/ancient-stepwells-india,Chand Baori,Jaipur,India,27.007252,76.606486
https://assets.atlasobscura.com/media/W1siZiIsInVwbG9hZHMvcGxhY2VfaW1hZ2VzLzE5NzMyYWQ4ZThjNjMyYzJiYV9MaXZpbmdfcm9vdF9icmlkZ2VzLF9Ob25ncmlhdF92aWxsYWdlLF9NZWdoYWxheWEuanBnIl0sWyJwIiwiY29udmVydCIsIiJdLFsicCIsImNvbnZlcnQiLCItcXVhbGl0eSA4MSAtYXV0by1vcmllbnQiXSxbInAiLCJ0aHVtYiIsIjYwMHg0MDAjIl1d,https://www.atlasobscura.com/places/root-bridges-cherrapungee,The Root Bridges of Cherrapunji,Cherrapunjee,India,25.21863,91.66264
https://assets.atlasobscura.com/media/W1siZiIsInVwbG9hZHMvcGxhY2VfaW1hZ2VzLzRkY2Q5ODAyMWRlMzNmZTI2YV8yNDMyNzYwM184MDg3MzkwNTI1ODQwNDhfMTYxMzcwODg4MzQzNDQwNTg4OF9uLmpwZyJdLFsicCIsImNvbnZlcnQiLCItYXV0by1vcmllbnQgIl0sWyJwIiwidGh1bWIiLCIxMDc2eDcxNys0KzcyIl0sWyJwIiwiY29udmVydCIsIi1xdWFsaXR5IDgxIC1hdXRvLW9yaWVudCJdLFsicCIsInRodW1iIiwiNjAweDQwMCMiXV0/24327603_808739052584048_1613708883434405888_n.jpg,https://www.atlasobscura.com/places/palace-of-winds,Palace of Winds,Jaipur,India,26.912417,75.787288
https://assets.atlasobscura.com/media/W1siZiIsInVwbG9hZHMvcGxhY2VfaW1hZ2VzL2UzNzgxZmNiNGVkOGE5MmM2NF9Sb29wa3VuZCxUcmlzaHVsLEhpbWFsYXlhcy5qcGciXSxbInAiLCJjb252ZXJ0IiwiIl0sWyJwIiwiY29udmVydCIsIi1xdWFsaXR5IDgxIC1hdXRvLW9yaWVudCJdLFsicCIsInRodW1iIiwiNjAweDQwMCMiXV0/Roopkund%2CTrishul%2CHimalayas.jpg,https://www.atlasobscura.com/places/skeleton-lake-of-roopkund-india,"Skeleton Lake of Roopkund, India ",Chamoli,India,30.262,79.732
https://assets.atlasobscura.com/media/W1siZiIsInVwbG9hZHMvcGxhY2VfaW1hZ2VzL2QxMTI2MWUwNWQyOWY1MzAzNV8yMTMzOTcyMDEzXzNlNzUzMTkxMjlfYi5qcGciXSxbInAiLCJjb252ZXJ0IiwiIl0sWyJwIiwiY29udmVydCIsIi1xdWFsaXR5IDgxIC1hdXRvLW9yaWVudCJdLFsicCIsInRodW1iIiwiNjAweDQwMCMiXV0/d11261e05d29f53035_2133972013_3e75319129_b.jpg,https://www.atlasobscura.com/places/jal-mahal,Jal Mahal,Jaipur,India,26.9537,75.8463
https://assets.atlasobscura.com/media/W1siZiIsInVwbG9hZHMvcGxhY2VfaW1hZ2VzLzQ4M2MwYTMyZTVhMzY2NDZiYmQzMDM5NDk5NmIwMjM5OGIwM2NjYWYuanBnIl0sWyJwIiwiY29udmVydCIsIiJdLFsicCIsImNvbnZlcnQiLCItcXVhbGl0eSA4MSAtYXV0by1vcmllbnQiXSxbInAiLCJ0aHVtYiIsIjYwMHg0MDAjIl1d/483c0a32e5a36646bbd30394996b02398b03ccaf.jpg,https://www.atlasobscura.com/places/ellora-caves,Ellora Caves,Verul,India,20.022941,75.179162
https://assets.atlasobscura.com/media/W1siZiIsInVwbG9hZHMvcGxhY2VfaW1hZ2VzLzRiNTg1YzhkZjdmODAxMDBiYWIzNDEzZDNjZWExYjRmODQzYmRkN2EuanBnIl0sWyJwIiwiY29udmVydCIsIiJdLFsicCIsImNvbnZlcnQiLCItcXVhbGl0eSA4MSAtYXV0by1vcmllbnQiXSxbInAiLCJ0aHVtYiIsIjYwMHg0MDAjIl1d/4b585c8df7f80100bab3413d3cea1b4f843bdd7a.jpg,https://www.atlasobscura.com/places/shatrunjaya-hill,Shatrunjaya Hill ,Gheti,India,21.483038,71.794689
https://assets.atlasobscura.com/media/W1siZiIsInVwbG9hZHMvcGxhY2VfaW1hZ2VzLzExMzY2NTc3NF9iMDE0ZTI2NDA5X2IuanBnIl0sWyJwIiwiY29udmVydCIsIiJdLFsicCIsImNvbnZlcnQiLCItcXVhbGl0eSA4MSAtYXV0by1vcmllbnQiXSxbInAiLCJ0aHVtYiIsIjYwMHg0MDAjIl1d/113665774_b014e26409_b.jpg,https://www.atlasobscura.com/places/hampi,Hampi,Hampi,India,15.335371,76.458778
https://assets.atlasobscura.com/media/W1siZiIsInVwbG9hZHMvcGxhY2VfaW1hZ2VzLzVlODg5YzhjZWVlMmM0MDZkOV9zb25nZG9vbmNhdmUwMi5qcGciXSxbInAiLCJjb252ZXJ0IiwiIl0sWyJwIiwiY29udmVydCIsIi1xdWFsaXR5IDgxIC1hdXRvLW9yaWVudCJdLFsicCIsInRodW1iIiwiNjAweDQwMCMiXV0,https://www.atlasobscura.com/places/hang-son-doong,Hang Son Doong,Xuân Trạch,Vietnam,17.537222,106.15125
https://assets.atlasobscura.com/media/W1siZiIsInVwbG9hZHMvcGxhY2VfaW1hZ2VzL2Y5MjRjNDViNjNkZDUyNGJmZV9IdWUtd2F0ZXIgcGFyay0xOC5qcGciXSxbInAiLCJjb252ZXJ0IiwiIl0sWyJwIiwiY29udmVydCIsIi1xdWFsaXR5IDgxIC1hdXRvLW9yaWVudCJdLFsicCIsInRodW1iIiwiNjAweDQwMCMiXV0,https://www.atlasobscura.com/places/ho-thuy-tien,Hồ Thuỷ Tiên,tx. Hương Thủy,Vietnam,16.407743,107.578607
https://assets.atlasobscura.com/media/W1siZiIsInVwbG9hZHMvcGxhY2VfaW1hZ2VzLzgwMWIwYWE2LTJlMmQtNDRhNS1iNDgwLTFhMWEzYjU4ZDAzYzM3NjZiZDdhMThkMTZkMDc0NF9TY3JlZW4gU2hvdCAyMDE4LTA4LTE2IGF0IDEyLjM2LjAwIFBNLnBuZyJdLFsicCIsImNvbnZlcnQiLCIiXSxbInAiLCJjb252ZXJ0IiwiLXF1YWxpdHkgODEgLWF1dG8tb3JpZW50Il0sWyJwIiwidGh1bWIiLCI2MDB4NDAwIyJdXQ/Screen%20Shot%202018-08-16%20at%2012.36.00%20PM.png,https://www.atlasobscura.com/places/golden-bridge,Golden Bridge,Hòa Phú,Vietnam,15.9989,107.9953
https://assets.atlasobscura.com/media/W1siZiIsInVwbG9hZHMvcGxhY2VfaW1hZ2VzLzFmMTJkMjI1ZmJkMzdjYThkZV9FTjQ1SzIuanBnIl0sWyJwIiwiY29udmVydCIsIiJdLFsicCIsImNvbnZlcnQiLCItcXVhbGl0eSA4MSAtYXV0by1vcmllbnQiXSxbInAiLCJ0aHVtYiIsIjYwMHg0MDAjIl1d/EN45K2.jpg,https://www.atlasobscura.com/places/hanois-train-street,Hanoi's Train Street,Hanoi,Vietnam,21.017879,105.840875
https://assets.atlasobscura.com/media/W1siZiIsInVwbG9hZHMvcGxhY2VfaW1hZ2VzL2ZyZWFraW5hbWF6aW5nXzAuanBnIl0sWyJwIiwiY29udmVydCIsIiJdLFsicCIsImNvbnZlcnQiLCItcXVhbGl0eSA4MSAtYXV0by1vcmllbnQiXSxbInAiLCJ0aHVtYiIsIjYwMHg0MDAjIl1d/freakinamazing_0.jpg,https://www.atlasobscura.com/places/suoi-tien-cultural-theme-park,Suoi Tien Cultural Theme Park,Ho Chi Minh City,Vietnam,10.866055,106.802044
https://assets.atlasobscura.com/media/W1siZiIsInVwbG9hZHMvcGxhY2VfaW1hZ2VzLzJlNWRiNTkyZWM2ZmUwOGEzMV9kcmFnb25icmlkZ2V2aWV0bmFtMi5qcGciXSxbInAiLCJjb252ZXJ0IiwiLWF1dG8tb3JpZW50ICJdLFsicCIsInRodW1iIiwiNjAweDQwMCsyMSsyMyJdLFsicCIsImNvbnZlcnQiLCItcXVhbGl0eSA4MSAtYXV0by1vcmllbnQiXSxbInAiLCJ0aHVtYiIsIjYwMHg0MDAjIl1d,https://www.atlasobscura.com/places/fire-breathing-dragon-bridge,Fire-Breathing Dragon Bridge,Da Nang,Vietnam,16.051571,108.214897
https://assets.atlasobscura.com/media/W1siZiIsInVwbG9hZHMvcGxhY2VfaW1hZ2VzLzZlZmE0N2YxMGRkMzk4NTJlM19JTUdfNTQwNi5qcGciXSxbInAiLCJjb252ZXJ0IiwiLWF1dG8tb3JpZW50ICJdLFsicCIsInRodW1iIiwiMjk4MXgxOTg3KzArMTU3NyJdLFsicCIsImNvbnZlcnQiLCItcXVhbGl0eSA4MSAtYXV0by1vcmllbnQiXSxbInAiLCJ0aHVtYiIsIjYwMHg0MDAjIl1d,https://www.atlasobscura.com/places/am-phu-cave,Am Phu Cave,Da Nang,Vietnam,16.00266,108.263392
https://assets.atlasobscura.com/media/W1siZiIsInVwbG9hZHMvcGxhY2VfaW1hZ2VzLzMzYzIxZWZjN2JiZmE1ZTIwOGIyMTU4ZjAyOTg4YmU4MDFiMmQ0MGIuanBnIl0sWyJwIiwiY29udmVydCIsIiJdLFsicCIsImNvbnZlcnQiLCItcXVhbGl0eSA4MSAtYXV0by1vcmllbnQiXSxbInAiLCJ0aHVtYiIsIjYwMHg0MDAjIl1d/33c21efc7bbfa5e208b2158f02988be801b2d40b.jpg,https://www.atlasobscura.com/places/the-tomb-of-nguyen-emperor-khai-dinh-tx-h-ng-th-y-vietnam,The Tomb of Nguyen Emperor Khai Dinh,tx. Hương Thủy,Vietnam,16.398925,107.590267
https://assets.atlasobscura.com/media/W1siZiIsInVwbG9hZHMvcGxhY2VfaW1hZ2VzL2E5Mzc5OTdlYmJhNWVjM2EyOV80NzIyMTA1NjY1XzQ2MGFjNGMwMThfYi5qcGciXSxbInAiLCJjb252ZXJ0IiwiLWF1dG8tb3JpZW50ICJdLFsicCIsInRodW1iIiwiMTAyNHg2ODIrMCswIl0sWyJwIiwiY29udmVydCIsIi1xdWFsaXR5IDgxIC1hdXRvLW9yaWVudCJdLFsicCIsInRodW1iIiwiNjAweDQwMCMiXV0,https://www.atlasobscura.com/places/tanah-lot,Tanah Lot,Kediri,Indonesia,-8.62107,115.08716
https://assets.atlasobscura.com/media/W1siZiIsInVwbG9hZHMvcGxhY2VfaW1hZ2VzLzFlZ29ybTA1cDF6emk1eW85MGIyMmM1OTg4NjY2YzZjZDNfYmFsaV90b3BfbHV4dXJ5X3Jlc29ydF8xNS5qcGciXSxbInAiLCJjb252ZXJ0IiwiIl0sWyJwIiwiY29udmVydCIsIi1xdWFsaXR5IDgxIC1hdXRvLW9yaWVudCJdLFsicCIsInRodW1iIiwiNjAweDQwMCMiXV0/bali_top_luxury_resort_15.jpg,https://www.atlasobscura.com/places/ghost-palace-hotel,Ghost Palace Hotel,Baturiti,Indonesia,-8.298211,115.176277
https://assets.atlasobscura.com/media/W1siZiIsInVwbG9hZHMvcGxhY2VfaW1hZ2VzLzk2MzIwZDZhZTI0YzljNGU3NmMwMjMyZGNiYWQ5OWU2YTAxNzMwYzcuanBnIl0sWyJwIiwiY29udmVydCIsIiJdLFsicCIsImNvbnZlcnQiLCItcXVhbGl0eSA4MSAtYXV0by1vcmllbnQiXSxbInAiLCJ0aHVtYiIsIjYwMHg0MDAjIl1d/96320d6ae24c9c4e76c0232dcbad99e6a01730c7.jpg,https://www.atlasobscura.com/places/sacred-monkey-forest,Sacred Monkey Forest (Mandala Wisata Wenara Wana),Ubud,Indonesia,-8.517893,115.259662
https://assets.atlasobscura.com/media/W1siZiIsInVwbG9hZHMvcGxhY2VfaW1hZ2VzLzk4YjI1ZTRhZDA2MzgxMTgxN18zNDE4OTkyNzg5NF84N2UzZTQ3OGJiX28ucG5nIl0sWyJwIiwiY29udmVydCIsIiJdLFsicCIsImNvbnZlcnQiLCItcXVhbGl0eSA4MSAtYXV0by1vcmllbnQiXSxbInAiLCJ0aHVtYiIsIjYwMHg0MDAjIl1d/34189927894_87e3e478bb_o.png,https://www.atlasobscura.com/places/gereja-ayam,Gereja Ayam,Magelang,Indonesia,-7.605686,110.180476
https://assets.atlasobscura.com/media/W1siZiIsInVwbG9hZHMvcGxhY2VfaW1hZ2VzL2ZhODU5ODVkLWQ2YWUtNGE5OC1iZjFmLTFiZmMwMzczMTFhZTYyYzU0MWU1MmI2NmQ0YTk4MF9GMTNHQjUgKDEpLmpwZyJdLFsicCIsImNvbnZlcnQiLCIiXSxbInAiLCJjb252ZXJ0IiwiLXF1YWxpdHkgODEgLWF1dG8tb3JpZW50Il0sWyJwIiwidGh1bWIiLCI2MDB4NDAwIyJdXQ/F13GB5%20%281%29.jpg,https://www.atlasobscura.com/places/pura-lempuyang,Pura Lempuyang Luhur,Abang,Indonesia,-8.391456,115.631306
https://assets.atlasobscura.com/media/W1siZiIsInVwbG9hZHMvcGxhY2VfaW1hZ2VzLzg4NTVjMTRjMDNjMWViNzRlMV84MDBweC1Lb21vZG9fSXNsYW5kX25vcnRoX2FlcmlhbC5qcGciXSxbInAiLCJjb252ZXJ0IiwiIl0sWyJwIiwiY29udmVydCIsIi1xdWFsaXR5IDgxIC1hdXRvLW9yaWVudCJdLFsicCIsInRodW1iIiwiNjAweDQwMCMiXV0,https://www.atlasobscura.com/places/komodo-national-park,Komodo National Park,East Nusa Tenggara,Indonesia,-8.57863,119.469873
https://assets.atlasobscura.com/media/W1siZiIsInVwbG9hZHMvcGxhY2VfaW1hZ2VzLzk0NjgyZWU0OGIyODkxYjg0OF82MjAxNDM2MzAzXzAyN2Q4Y2E5NDVfYi5qcGciXSxbInAiLCJjb252ZXJ0IiwiLWF1dG8tb3JpZW50ICJdLFsicCIsInRodW1iIiwiODYweDU3Mys3MSswIl0sWyJwIiwiY29udmVydCIsIi1xdWFsaXR5IDgxIC1hdXRvLW9yaWVudCJdLFsicCIsInRodW1iIiwiNjAweDQwMCMiXV0,https://www.atlasobscura.com/places/goa-gajah,Goa Gajah,Sukawati,Indonesia,-8.523389,115.286358
https://assets.atlasobscura.com/media/W1siZiIsInVwbG9hZHMvcGxhY2VfaW1hZ2VzL2U1Mjg2YmQyM2U4YjBlYzM2NV84MDBweC1IdW1hbl9za3VsbHMsX1RydW55YW4sX0xha2VfQmF0dXIsX0JhbGkuanBnIl0sWyJwIiwiY29udmVydCIsIi1hdXRvLW9yaWVudCAiXSxbInAiLCJ0aHVtYiIsIjgwMHg1MzMrMCswIl0sWyJwIiwiY29udmVydCIsIi1xdWFsaXR5IDgxIC1hdXRvLW9yaWVudCJdLFsicCIsInRodW1iIiwiNjAweDQwMCMiXV0,https://www.atlasobscura.com/places/trunyan,Trunyan,Trunyan,Indonesia,-8.244385,115.426322
https://assets.atlasobscura.com/media/W1siZiIsInVwbG9hZHMvcGxhY2VfaW1hZ2VzL2JlNWZmMWE3OGZkYjlmOTUyY19jYXRhY29tYnMxLmpwZyJdLFsicCIsImNvbnZlcnQiLCIiXSxbInAiLCJjb252ZXJ0IiwiLXF1YWxpdHkgODEgLWF1dG8tb3JpZW50Il0sWyJwIiwidGh1bWIiLCI2MDB4NDAwIyJdXQ/catacombs1.jpg,https://www.atlasobscura.com/places/catacombes-de-paris,Catacombes de Paris,Paris,France,48.834329,2.332234
https://assets.atlasobscura.com/media/W1siZiIsInVwbG9hZHMvcGxhY2VfaW1hZ2VzLzJiODFlMjY3YjQyZWRmMzE4NTNlMGIwMzM1ZTJhMTE3MmU3M2U3OWYuanBnIl0sWyJwIiwiY29udmVydCIsIi1hdXRvLW9yaWVudCAiXSxbInAiLCJ0aHVtYiIsIjYxNng0MTErMCswIl0sWyJwIiwiY29udmVydCIsIi1xdWFsaXR5IDgxIC1hdXRvLW9yaWVudCJdLFsicCIsInRodW1iIiwiNjAweDQwMCMiXV0/2b81e267b42edf31853e0b0335e2a1172e73e79f.jpg,https://www.atlasobscura.com/places/museum-vampires-and-legendary-creatures,Museum of Vampires and Legendary Creatures,Paris,France,48.875554,2.414373
https://assets.atlasobscura.com/media/W1siZiIsInVwbG9hZHMvcGxhY2VfaW1hZ2VzL2Z3cTlyY25teHZlZWIxNzNlZTQ4ZGYzNzQwZTMwX0RTQzAwMDQ2LkpQRyJdLFsicCIsImNvbnZlcnQiLCIiXSxbInAiLCJjb252ZXJ0IiwiLXF1YWxpdHkgODEgLWF1dG8tb3JpZW50Il0sWyJwIiwidGh1bWIiLCI2MDB4NDAwIyJdXQ/DSC00046.JPG,https://www.atlasobscura.com/places/pere-lachaise-cemetery,Père Lachaise Cemetery,Paris,France,48.859397,2.390971
https://assets.atlasobscura.com/media/W1siZiIsInVwbG9hZHMvcGxhY2VfaW1hZ2VzLzU4MTQxN2U4YjgwZWE3ZWQ2NWE3NGVmZWUxYmFkZWUyMGQ0MzIxN2UuanBnIl0sWyJwIiwiY29udmVydCIsIiJdLFsicCIsImNvbnZlcnQiLCItcXVhbGl0eSA4MSAtYXV0by1vcmllbnQiXSxbInAiLCJ0aHVtYiIsIjYwMHg0MDAjIl1d/581417e8b80ea7ed65a74efee1badee20d43217e.jpg,https://www.atlasobscura.com/places/59-rivoli,59 Rivoli,Paris,France,48.859239,2.345767
https://assets.atlasobscura.com/media/W1siZiIsInVwbG9hZHMvcGxhY2VfaW1hZ2VzLzQyOGY4MzRiZjg2MmUzNjlkMV8xNDY3MjkzODM4NV9lNjVkY2FiYTQ1X2suanBnIl0sWyJwIiwiY29udmVydCIsIiJdLFsicCIsImNvbnZlcnQiLCItcXVhbGl0eSA4MSAtYXV0by1vcmllbnQiXSxbInAiLCJ0aHVtYiIsIjYwMHg0MDAjIl1d,https://www.atlasobscura.com/places/petite-ceinture,Petite Ceinture,Paris,France,48.835036,2.28505
https://assets.atlasobscura.com/media/W1siZiIsInVwbG9hZHMvcGxhY2VfaW1hZ2VzLzQ2YjFhZjA1OWI0NjRjMjkyMl8xNDg0NDMzMTk1MF9iNzgyODQ2MzNiX2suanBnIl0sWyJwIiwiY29udmVydCIsIi1hdXRvLW9yaWVudCAiXSxbInAiLCJ0aHVtYiIsIjE3NjR4MTE3NisxMTgrMCJdLFsicCIsImNvbnZlcnQiLCItcXVhbGl0eSA4MSAtYXV0by1vcmllbnQiXSxbInAiLCJ0aHVtYiIsIjYwMHg0MDAjIl1d,https://www.atlasobscura.com/places/mont-saint-michel,Mont Saint-Michel,Mont Saint-Michel,France,48.635241,-1.510503
https://assets.atlasobscura.com/media/W1siZiIsInVwbG9hZHMvcGxhY2VfaW1hZ2VzLzEwMWYwOGRjMjJiNjE2Yjk4M19uaWNvbGFzZmxhbWVsMi5qcGciXSxbInAiLCJjb252ZXJ0IiwiIl0sWyJwIiwiY29udmVydCIsIi1xdWFsaXR5IDgxIC1hdXRvLW9yaWVudCJdLFsicCIsInRodW1iIiwiNjAweDQwMCMiXV0,https://www.atlasobscura.com/places/house-of-nicolas-flamel,House of Nicolas Flamel,Paris,France,48.863523,2.353051
https://assets.atlasobscura.com/media/W1siZiIsInVwbG9hZHMvcGxhY2VfaW1hZ2VzL2VjNzQ1MjliODIwMjliMjdlZl9CaWJsaW90aGXMgHF1ZV9uYXRpb25hbGVfZGVfRnJhbmNlLF9zaXRlX1JpY2hlbGlldV8oc2FsbGVfb3ZhbGUpLmpwZyJdLFsicCIsImNvbnZlcnQiLCIiXSxbInAiLCJjb252ZXJ0IiwiLXF1YWxpdHkgODEgLWF1dG8tb3JpZW50Il0sWyJwIiwidGh1bWIiLCI2MDB4NDAwIyJdXQ/Bibliothe%CC%80que_nationale_de_France%2C_site_Richelieu_%28salle_ovale%29.jpg,https://www.atlasobscura.com/places/bibliotheque-nationale-de-france,Bibliothèque nationale de France (National Library of France),Paris,France,48.867912,2.339513
https://assets.atlasobscura.com/media/W1siZiIsInVwbG9hZHMvcGxhY2VfaW1hZ2VzL2Y3OWQ1MjZkLTI0MjYtNGYzOS05MWIwLWJjZDg3YjgwZWNkZDBiNTRhZmQ5YjU5ZjQwODE2NV81MTIyMDg0NzA0XzhkODFmZWM5NTlfby5qcGciXSxbInAiLCJjb252ZXJ0IiwiIl0sWyJwIiwiY29udmVydCIsIi1xdWFsaXR5IDgxIC1hdXRvLW9yaWVudCJdLFsicCIsInRodW1iIiwiNjAweDQwMCMiXV0/5122084704_8d81fec959_o.jpg,https://www.atlasobscura.com/places/sagrada-familia,Sagrada Família,Barcelona,Spain,41.403629,2.174356
https://assets.atlasobscura.com/media/W1siZiIsInVwbG9hZHMvcGxhY2VfaW1hZ2VzLzA4ZDdkYjIzNjU4NzYzZGM2OV8yMTk4NTM0OV8xNzY5NDIwNDgzMzUwNjY3XzE4Nzg3MTE3MTEzNzcxMjk0NzJfbi5qcGciXSxbInAiLCJjb252ZXJ0IiwiIl0sWyJwIiwiY29udmVydCIsIi1xdWFsaXR5IDgxIC1hdXRvLW9yaWVudCJdLFsicCIsInRodW1iIiwiNjAweDQwMCMiXV0/21985349_1769420483350667_1878711711377129472_n.jpg,https://www.atlasobscura.com/places/casa-batllo,Casa Batlló,Barcelona,Spain,41.391697,2.164961
https://assets.atlasobscura.com/media/W1siZiIsInVwbG9hZHMvcGxhY2VfaW1hZ2VzLzUzZjg5MzdiOWRiZGYxMjU0Zl9JTUdfMjg2MS5KUEciXSxbInAiLCJjb252ZXJ0IiwiIl0sWyJwIiwiY29udmVydCIsIi1xdWFsaXR5IDgxIC1hdXRvLW9yaWVudCJdLFsicCIsInRodW1iIiwiNjAweDQwMCMiXV0,https://www.atlasobscura.com/places/labyrinth-park-of-horta,Labyrinth Park of Horta,Barcelona,Spain,41.437879,2.147612
https://assets.atlasobscura.com/media/W1siZiIsInVwbG9hZHMvcGxhY2VfaW1hZ2VzL2FkZjAwMThmMDNkNWVhMmY4Yl9EYXktNzIuanBnIl0sWyJwIiwiY29udmVydCIsIiJdLFsicCIsImNvbnZlcnQiLCItcXVhbGl0eSA4MSAtYXV0by1vcmllbnQiXSxbInAiLCJ0aHVtYiIsIjYwMHg0MDAjIl1d,https://www.atlasobscura.com/places/ronda-spain,"Ronda, Spain",Ronda,Spain,36.7404,-5.1644
https://assets.atlasobscura.com/media/W1siZiIsInVwbG9hZHMvcGxhY2VfaW1hZ2VzLzE1NTY1NTQ2NV9jYWZlNTVmNGE2X28uanBnIl0sWyJwIiwiY29udmVydCIsIi1hdXRvLW9yaWVudCAiXSxbInAiLCJ0aHVtYiIsIjgwMHg1MzMrMCszNSJdLFsicCIsImNvbnZlcnQiLCItcXVhbGl0eSA4MSAtYXV0by1vcmllbnQiXSxbInAiLCJ0aHVtYiIsIjYwMHg0MDAjIl1d/155655465_cafe55f4a6_o.jpg,https://www.atlasobscura.com/places/calder-mercury-fountain,Calder Mercury Fountain,Barcelona,Spain,41.36863,2.159872
https://assets.atlasobscura.com/media/W1siZiIsInVwbG9hZHMvcGxhY2VfaW1hZ2VzL3cxZHNwZWlnbTJ0ZWIyZGVmNTZjMWUwMDIyZjFkXzU3NDU2MV8xMDE1MTU1NzA5ODk2NzY1Ml8yNTIxNzU2MzVfbi5qcGciXSxbInAiLCJjb252ZXJ0IiwiIl0sWyJwIiwiY29udmVydCIsIi1xdWFsaXR5IDgxIC1hdXRvLW9yaWVudCJdLFsicCIsInRodW1iIiwiNjAweDQwMCMiXV0/574561_10151557098967652_252175635_n.jpg,https://www.atlasobscura.com/places/montjuic-cemetery,Montjuïc Cemetery,Barcelona,Spain,41.35777,2.153577
https://assets.atlasobscura.com/media/W1siZiIsInVwbG9hZHMvcGxhY2VfaW1hZ2VzLzYwNDQzNWRiNjRkYzZjOTUyZF9QYXJrX0fDvGVsbF8wMi5qcGciXSxbInAiLCJjb252ZXJ0IiwiIl0sWyJwIiwiY29udmVydCIsIi1xdWFsaXR5IDgxIC1hdXRvLW9yaWVudCJdLFsicCIsInRodW1iIiwiNjAweDQwMCMiXV0,https://www.atlasobscura.com/places/park-guell,Park Güell,Barcelona,Spain,41.413611,2.152778
https://assets.atlasobscura.com/media/W1siZiIsInVwbG9hZHMvcGxhY2VfaW1hZ2VzL2UwMTZiYzZhZTgxYTVkYmRkOV8xMjkxNDkyODU5NF9kMmFhOTYzMzYyX2suanBnIl0sWyJwIiwiY29udmVydCIsIiJdLFsicCIsImNvbnZlcnQiLCItcXVhbGl0eSA4MSAtYXV0by1vcmllbnQiXSxbInAiLCJ0aHVtYiIsIjYwMHg0MDAjIl1d,https://www.atlasobscura.com/places/bunkers-del-carmel,Bunkers of Carmel,Barcelona,Spain,41.419316,2.161656
https://assets.atlasobscura.com/media/W1siZiIsInVwbG9hZHMvcGxhY2VfaW1hZ2VzL2U1ZGIzMzIyMWJhYWNmZDhhZV9WYWxsZV9kZWlfTXVsaW5pXyhTb3JyZW50bylfNC5KUEciXSxbInAiLCJjb252ZXJ0IiwiIl0sWyJwIiwiY29udmVydCIsIi1xdWFsaXR5IDgxIC1hdXRvLW9yaWVudCJdLFsicCIsInRodW1iIiwiNjAweDQwMCMiXV0,https://www.atlasobscura.com/places/valle-dei-mulini-valley-of-the-mills,Valle dei Mulini (Valley of the Mills),Sorrento,Italy,40.624689,14.375598
https://assets.atlasobscura.com/media/W1siZiIsInVwbG9hZHMvcGxhY2VfaW1hZ2VzLzRmMThhZmE1ZWRjMmEzZjliMl9COUpUQzIgKDMpLmpwZyJdLFsicCIsImNvbnZlcnQiLCIiXSxbInAiLCJjb252ZXJ0IiwiLXF1YWxpdHkgODEgLWF1dG8tb3JpZW50Il0sWyJwIiwidGh1bWIiLCI2MDB4NDAwIyJdXQ/B9JTC2%20%283%29.jpg,https://www.atlasobscura.com/places/santa-maria-della-concezione,Santa Maria della Concezione Crypts,Rome,Italy,41.904736,12.488236
https://assets.atlasobscura.com/media/W1siZiIsInVwbG9hZHMvcGxhY2VfaW1hZ2VzLzgwMHB4LUJvbWFyem9fcGFyY29fbW9zdHJpX29yY28tMS5qcGciXSxbInAiLCJjb252ZXJ0IiwiLWF1dG8tb3JpZW50ICJdLFsicCIsInRodW1iIiwiNzYzeDUwOSswKzQ1Il0sWyJwIiwiY29udmVydCIsIi1xdWFsaXR5IDgxIC1hdXRvLW9yaWVudCJdLFsicCIsInRodW1iIiwiNjAweDQwMCMiXV0/800px-Bomarzo_parco_mostri_orco-1.jpg,https://www.atlasobscura.com/places/the-monsters-of-bomarzo-bomarzo-italy,The Monsters of Bomarzo,Bomarzo,Italy,42.490986,12.246171
https://assets.atlasobscura.com/media/W1siZiIsInVwbG9hZHMvcGxhY2VfaW1hZ2VzL1JvbWUtQ29sdW1uLUNhdC13ZWIuanBnIl0sWyJwIiwiY29udmVydCIsIiJdLFsicCIsImNvbnZlcnQiLCItcXVhbGl0eSA4MSAtYXV0by1vcmllbnQiXSxbInAiLCJ0aHVtYiIsIjYwMHg0MDAjIl1d/Rome-Column-Cat-web.jpg,https://www.atlasobscura.com/places/torre-argentina-roman-cat-sanctuary,Torre Argentina (Roman Cat Sanctuary),Rome,Italy,41.89592,12.476461
https://assets.atlasobscura.com/media/W1siZiIsInVwbG9hZHMvcGxhY2VfaW1hZ2VzL2QyMWIxMTRjYTU4ZTU3MjQ4NV9saWJyZXJpYS1hY3F1YS1hbHRhLTUuanBnIl0sWyJwIiwiY29udmVydCIsIiJdLFsicCIsImNvbnZlcnQiLCItcXVhbGl0eSA4MSAtYXV0by1vcmllbnQiXSxbInAiLCJ0aHVtYiIsIjYwMHg0MDAjIl1d,https://www.atlasobscura.com/places/libreria-acqua-alta,Libreria Acqua Alta,Venice,Italy,45.43796,12.3423
https://assets.atlasobscura.com/media/W1siZiIsInVwbG9hZHMvcGxhY2VfaW1hZ2VzLzVlY2U3Y2JhYzUyMDU0NjRhZV9TdGF0dWUgKDIpLmpwZyJdLFsicCIsImNvbnZlcnQiLCItYXV0by1vcmllbnQgIl0sWyJwIiwidGh1bWIiLCI2MDB4NDAwKzArNTEiXSxbInAiLCJjb252ZXJ0IiwiLXF1YWxpdHkgODEgLWF1dG8tb3JpZW50Il0sWyJwIiwidGh1bWIiLCI2MDB4NDAwIyJdXQ,https://www.atlasobscura.com/places/the-sunken-city-of-baia-baia-italy,The Sunken City of Baia,Baia,Italy,40.818356,14.07692
https://assets.atlasobscura.com/media/W1siZiIsInVwbG9hZHMvcGxhY2VfaW1hZ2VzLzgwMHB4LVBpYXp6YV9WaXR0b3Jpb19Qb3J0YV9tYWdpY2FfOTUxMS0wMi5KUEciXSxbInAiLCJjb252ZXJ0IiwiLWF1dG8tb3JpZW50ICJdLFsicCIsInRodW1iIiwiNjAweDQwMCsyOCsxMjMiXSxbInAiLCJjb252ZXJ0IiwiLXF1YWxpdHkgODEgLWF1dG8tb3JpZW50Il0sWyJwIiwidGh1bWIiLCI2MDB4NDAwIyJdXQ/800px-Piazza_Vittorio_Porta_magica_9511-02.JPG,https://www.atlasobscura.com/places/porta-magica,Porta Alchemica,Rome,Italy,41.89509,12.503729
https://assets.atlasobscura.com/media/W1siZiIsInVwbG9hZHMvcGxhY2VfaW1hZ2VzL3JvbWUucG5nIl0sWyJwIiwiY29udmVydCIsIiJdLFsicCIsImNvbnZlcnQiLCItcXVhbGl0eSA4MSAtYXV0by1vcmllbnQiXSxbInAiLCJ0aHVtYiIsIjYwMHg0MDAjIl1d/rome.png,https://www.atlasobscura.com/places/quartiere-copped,Quartiere Coppedè,Rome,Italy,41.918661,12.502356
https://assets.atlasobscura.com/media/W1siZiIsInVwbG9hZHMvcGxhY2VfaW1hZ2VzLzE3NmJiMjQ2NmFkMzNkNDY4NmI1ZjNmN2NjMjhlMzc1Y2I0NGVkZGMuanBnIl0sWyJwIiwiY29udmVydCIsIiJdLFsicCIsImNvbnZlcnQiLCItcXVhbGl0eSA4MSAtYXV0by1vcmllbnQiXSxbInAiLCJ0aHVtYiIsIjYwMHg0MDAjIl1d/176bb2466ad33d4686b5f3f7cc28e375cb44eddc.jpg,https://www.atlasobscura.com/places/cappadocia,Cappadocia,Aksaray,Turkey,38.417445,34.138185
https://assets.atlasobscura.com/media/W1siZiIsInVwbG9hZHMvcGxhY2VfaW1hZ2VzLzZiMWJlOGI5ZDRhMzM1YTQ5ZGRhZGQzNTdiNTFmNjJiUGFtdWtrYWxlLmpwZyJdLFsicCIsImNvbnZlcnQiLCItYXV0by1vcmllbnQgIl0sWyJwIiwidGh1bWIiLCIxMDI0eDY4MiswKzAiXSxbInAiLCJjb252ZXJ0IiwiLXF1YWxpdHkgODEgLWF1dG8tb3JpZW50Il0sWyJwIiwidGh1bWIiLCI2MDB4NDAwIyJdXQ/Pamukkale.jpg,https://www.atlasobscura.com/places/pamukkale-water-terraces,Pamukkale Water Terraces,Denizli,Turkey,37.773527,29.08649
https://assets.atlasobscura.com/media/W1siZiIsInVwbG9hZHMvcGxhY2VfaW1hZ2VzL0lzdGFuYnVsLUJhc2lsaWNhLUNpc3Rlcm4uanBnIl0sWyJwIiwiY29udmVydCIsIi1hdXRvLW9yaWVudCAiXSxbInAiLCJ0aHVtYiIsIjYwMHg0MDArMTAxKzQ1Il0sWyJwIiwiY29udmVydCIsIi1xdWFsaXR5IDgxIC1hdXRvLW9yaWVudCJdLFsicCIsInRodW1iIiwiNjAweDQwMCMiXV0/Istanbul-Basilica-Cistern.jpg,https://www.atlasobscura.com/places/basilica-cisterns-istanbul,Basilica Cisterns of Istanbul,Istanbul,Turkey,41.008382,28.977883
https://assets.atlasobscura.com/media/W1siZiIsInVwbG9hZHMvcGxhY2VfaW1hZ2VzL2E1ZmVkMmY3NjI5NWU0MDY5ZV9EYXktMTI1LmpwZyJdLFsicCIsImNvbnZlcnQiLCIiXSxbInAiLCJjb252ZXJ0IiwiLXF1YWxpdHkgODEgLWF1dG8tb3JpZW50Il0sWyJwIiwidGh1bWIiLCI2MDB4NDAwIyJdXQ,https://www.atlasobscura.com/places/lycian-rock-tombs,Lycian Rock Tombs,Fethiye,Turkey,36.618561,29.116751
https://assets.atlasobscura.com/media/W1siZiIsInVwbG9hZHMvcGxhY2VfaW1hZ2VzL2NiZTJkNmJkY2ZkMzEyNTU5Zl84NzA4NDM3MzQ1Xzg4MWIzMGVjNjBfei5qcGciXSxbInAiLCJjb252ZXJ0IiwiIl0sWyJwIiwiY29udmVydCIsIi1xdWFsaXR5IDgxIC1hdXRvLW9yaWVudCJdLFsicCIsInRodW1iIiwiNjAweDQwMCMiXV0,https://www.atlasobscura.com/places/troy,Troy,Çanakkale,Turkey,39.95748,26.238895
https://assets.atlasobscura.com/media/W1siZiIsInVwbG9hZHMvcGxhY2VfaW1hZ2VzLzY4M2VlMjI2MzI4MTM3MTk0OV9IaWVyYXBvbGlzXzEwX01heV8yMDA4Xyg2NykgKDEpLmpwZyJdLFsicCIsImNvbnZlcnQiLCIiXSxbInAiLCJjb252ZXJ0IiwiLXF1YWxpdHkgODEgLWF1dG8tb3JpZW50Il0sWyJwIiwidGh1bWIiLCI2MDB4NDAwIyJdXQ/Hierapolis_10_May_2008_%2867%29%20%281%29.jpg,https://www.atlasobscura.com/places/plutos-gate,Pluto's Gate,Denizli Merkez,Turkey,37.924032,29.125181
https://assets.atlasobscura.com/media/W1siZiIsInVwbG9hZHMvcGxhY2VfaW1hZ2VzLzFmM2EwMWNmY2FhM2U1NmY0MV84MzYyMTg5ODMyXzljYWYxZWRjY2Ffby5qcGciXSxbInAiLCJjb252ZXJ0IiwiIl0sWyJwIiwiY29udmVydCIsIi1xdWFsaXR5IDgxIC1hdXRvLW9yaWVudCJdLFsicCIsInRodW1iIiwiNjAweDQwMCMiXV0,https://www.atlasobscura.com/places/myra-necropolis,Myra Necropolis,Demre,Turkey,36.259061,29.985175
https://assets.atlasobscura.com/media/W1siZiIsInVwbG9hZHMvcGxhY2VfaW1hZ2VzLzAwMGY5Mzk2ODViMmMzNTczYzY5ZTBjYzhmN2ZlOWIzOTRlOTAwNWMuanBnIl0sWyJwIiwiY29udmVydCIsIiJdLFsicCIsImNvbnZlcnQiLCItcXVhbGl0eSA4MSAtYXV0by1vcmllbnQiXSxbInAiLCJ0aHVtYiIsIjYwMHg0MDAjIl1d/000f939685b2c3573c69e0cc8f7fe9b394e9005c.jpg,https://www.atlasobscura.com/places/spreepark,Spreepark,Berlin,Germany,52.483571,13.491633
https://assets.atlasobscura.com/media/W1siZiIsInVwbG9hZHMvcGxhY2VfaW1hZ2VzLzU0MThjOTY4MTExNzRhZDhkNl8yNTI1OTY2MzIzNF82YzExNTM3YWYyX2suanBnIl0sWyJwIiwiY29udmVydCIsIiJdLFsicCIsImNvbnZlcnQiLCItcXVhbGl0eSA4MSAtYXV0by1vcmllbnQiXSxbInAiLCJ0aHVtYiIsIjYwMHg0MDAjIl1d/25259663234_6c11537af2_k.jpg,https://www.atlasobscura.com/places/rakotzbrucke-devils-bridge,Rakotzbrücke Devil's Bridge,Gablenz,Germany,51.536283,14.640583
https://assets.atlasobscura.com/media/W1siZiIsInVwbG9hZHMvcGxhY2VfaW1hZ2VzLzZiMWJlOGI5ZDRhMzM1YTQ5ZGRhZGQzNTdiNTFmNjJiTW9uc3RlciBLYWJpbmV0dC5qcGciXSxbInAiLCJjb252ZXJ0IiwiLWF1dG8tb3JpZW50ICJdLFsicCIsInRodW1iIiwiMTAyNHg2ODIrMCsyOCJdLFsicCIsImNvbnZlcnQiLCItcXVhbGl0eSA4MSAtYXV0by1vcmllbnQiXSxbInAiLCJ0aHVtYiIsIjYwMHg0MDAjIl1d/Monster%20Kabinett.jpg,https://www.atlasobscura.com/places/monster-kabinett,Monster Kabinett,Berlin,Germany,52.523937,13.402526
https://assets.atlasobscura.com/media/W1siZiIsInVwbG9hZHMvcGxhY2VfaW1hZ2VzLzgwMHB4LUNhc3RsZV9OZXVzY2h3YW5zdGVpbi5qcGciXSxbInAiLCJjb252ZXJ0IiwiIl0sWyJwIiwiY29udmVydCIsIi1xdWFsaXR5IDgxIC1hdXRvLW9yaWVudCJdLFsicCIsInRodW1iIiwiNjAweDQwMCMiXV0/800px-Castle_Neuschwanstein.jpg,https://www.atlasobscura.com/places/neuschwanstein-castle,Neuschwanstein Castle,Schwangau,Germany,47.557429,10.749506
https://assets.atlasobscura.com/media/W1siZiIsInVwbG9hZHMvcGxhY2VfaW1hZ2VzLzI5OWFiOTE4NDI3NWY3ZmRkM19Ub3VyIDEgLSBHZXN1bmRicnVubmVuIEJ1bmtlciAtIEVudHJhbmNlIGZyb20gaW5zaWRlX0ZvdG8gRnJpZWRlciBTYWxtLmpwZyJdLFsicCIsImNvbnZlcnQiLCIiXSxbInAiLCJjb252ZXJ0IiwiLXF1YWxpdHkgODEgLWF1dG8tb3JpZW50Il0sWyJwIiwidGh1bWIiLCI2MDB4NDAwIyJdXQ/Tour%201%20-%20Gesundbrunnen%20Bunker%20-%20Entrance%20from%20inside_Foto%20Frieder%20Salm.jpg,https://www.atlasobscura.com/places/berliner-unterwelten-subterranean-berlin,Berliner Unterwelten (Subterranean Berlin),Berlin,Germany,52.547842,13.389272
https://assets.atlasobscura.com/media/W1siZiIsInVwbG9hZHMvcGxhY2VfaW1hZ2VzL2QxODYxNzNlNGY0YjQ5YTk5MV8xNDM0ODcyMjQ3Ml8wZGM1Zjg4ZDM5X2guanBnIl0sWyJwIiwiY29udmVydCIsIiJdLFsicCIsImNvbnZlcnQiLCItcXVhbGl0eSA4MSAtYXV0by1vcmllbnQiXSxbInAiLCJ0aHVtYiIsIjYwMHg0MDAjIl1d,https://www.atlasobscura.com/places/liquidrom,Liquidrom,Berlin,Germany,52.501619,13.381217
https://assets.atlasobscura.com/media/W1siZiIsInVwbG9hZHMvcGxhY2VfaW1hZ2VzLzViMDI0N2IyYTIyYzAyZmJhZWNlZjE4Y2M3YmY5MDRhOWM4ZGY1ZDIuanBnIl0sWyJwIiwiY29udmVydCIsIiJdLFsicCIsImNvbnZlcnQiLCItcXVhbGl0eSA4MSAtYXV0by1vcmllbnQiXSxbInAiLCJ0aHVtYiIsIjYwMHg0MDAjIl1d/5b0247b2a22c02fbaecef18cc7bf904a9c8df5d2.jpg,https://www.atlasobscura.com/places/berlin-botanical-garden,Berlin Botanical Garden,Berlin,Germany,52.458644,13.304476
https://assets.atlasobscura.com/media/W1siZiIsInVwbG9hZHMvcGxhY2VfaW1hZ2VzLzQxOTk5NmUwNjhiMDRkYjM2OWQzODU4MDc4MTU0NzVlMDFhY2M5ZmUuanBnIl0sWyJwIiwiY29udmVydCIsIiJdLFsicCIsImNvbnZlcnQiLCItcXVhbGl0eSA4MSAtYXV0by1vcmllbnQiXSxbInAiLCJ0aHVtYiIsIjYwMHg0MDAjIl1d/419996e068b04db369d385807815475e01acc9fe.jpg,https://www.atlasobscura.com/places/castle-frankenstein,Castle Frankenstein,Mühltal,Germany,49.794275,8.695164
https://assets.atlasobscura.com/media/W1siZiIsInVwbG9hZHMvcGxhY2VfaW1hZ2VzLzE5OWExZWZjYWM1MDFlMTJiOF9oaWdoZ2F0ZWNlbWV0ZXJ5MTIuanBnIl0sWyJwIiwiY29udmVydCIsIiJdLFsicCIsImNvbnZlcnQiLCItcXVhbGl0eSA4MSAtYXV0by1vcmllbnQiXSxbInAiLCJ0aHVtYiIsIjYwMHg0MDAjIl1d,https://www.atlasobscura.com/places/highgate-cemetery,Highgate Cemetery,London,United Kingdom,51.567536,-0.14829
https://assets.atlasobscura.com/media/W1siZiIsInVwbG9hZHMvcGxhY2VfaW1hZ2VzL2E2ZGY5ZjM5ODc0YzljNTMzNF8xMjAwcHgtTGVhZGVuaGFsbF9NYXJrZXRfSW5fTG9uZG9uXy1fRmViXzIwMDZfcm90YXRlZC5qcGciXSxbInAiLCJjb252ZXJ0IiwiIl0sWyJwIiwiY29udmVydCIsIi1xdWFsaXR5IDgxIC1hdXRvLW9yaWVudCJdLFsicCIsInRodW1iIiwiNjAweDQwMCMiXV0/1200px-Leadenhall_Market_In_London_-_Feb_2006_rotated.jpg,https://www.atlasobscura.com/places/leadenhall-market,Leadenhall Market,London,United Kingdom,51.512581,-0.083401
https://assets.atlasobscura.com/media/W1siZiIsInVwbG9hZHMvcGxhY2VfaW1hZ2VzLzMxNjcyOGRmZGJjOTJjZjliMF9GaW5nYWwnc19DYXZlLF9TdGFmZmFfSXNsYW5kXzA5LmpwZyJdLFsicCIsImNvbnZlcnQiLCItYXV0by1vcmllbnQgIl0sWyJwIiwidGh1bWIiLCI0MzgweDI5MjArMzcrMTYyIl0sWyJwIiwiY29udmVydCIsIi1xdWFsaXR5IDgxIC1hdXRvLW9yaWVudCJdLFsicCIsInRodW1iIiwiNjAweDQwMCMiXV0/Fingal%27s_Cave%2C_Staffa_Island_09.jpg,https://www.atlasobscura.com/places/fingal-s-cave,Fingal's Cave,Isle of Staffa,United Kingdom,56.43135,-6.341347
https://assets.atlasobscura.com/media/W1siZiIsInVwbG9hZHMvcGxhY2VfaW1hZ2VzLzJxcHE0MTBydDF5b2EwNjU5ZGM5NWFiOTg4MzI5MF9TdC5EdW5zdGFuc1J1aW5zLmpwZyJdLFsicCIsImNvbnZlcnQiLCItYXV0by1vcmllbnQgIl0sWyJwIiwidGh1bWIiLCI2MDB4NDAwKzArMTg0Il0sWyJwIiwiY29udmVydCIsIi1xdWFsaXR5IDgxIC1hdXRvLW9yaWVudCJdLFsicCIsInRodW1iIiwiNjAweDQwMCMiXV0/St.DunstansRuins.jpg,https://www.atlasobscura.com/places/the-ruins-of-st-dunstan-in-the-east-london-england,The Ruins of St. Dunstan-in-the-East,London,United Kingdom,51.509672,-0.082722
https://assets.atlasobscura.com/media/W1siZiIsInVwbG9hZHMvcGxhY2VfaW1hZ2VzLzNhZDEzOTYwODc4ZjQxODRjNV9Xb29kIDEuanBnIl0sWyJwIiwiY29udmVydCIsIiJdLFsicCIsImNvbnZlcnQiLCItcXVhbGl0eSA4MSAtYXV0by1vcmllbnQiXSxbInAiLCJ0aHVtYiIsIjYwMHg0MDAjIl1d/Wood%201.jpg,https://www.atlasobscura.com/places/puzzlewood,Puzzlewood,Coleford,United Kingdom,51.78169,-2.611378
https://assets.atlasobscura.com/media/W1siZiIsInVwbG9hZHMvcGxhY2VfaW1hZ2VzL3IybjUxaTNwZ2g2ODIxZDI0OGNlMWQyZTYyM2FfSU1HXzQ4ODYuSlBHIl0sWyJwIiwiY29udmVydCIsIiJdLFsicCIsImNvbnZlcnQiLCItcXVhbGl0eSA4MSAtYXV0by1vcmllbnQiXSxbInAiLCJ0aHVtYiIsIjYwMHg0MDAjIl1d/IMG_4886.JPG,https://www.atlasobscura.com/places/gods-own-junkyard,God's Own Junkyard,London,United Kingdom,51.58387,-0.008269
https://assets.atlasobscura.com/media/W1siZiIsInVwbG9hZHMvcGxhY2VfaW1hZ2VzLzk1Mjc3MTIxZjU1YzllYjFkNF8xMzc4MTQyMDU5M18yNDRmZTFkMmM5X2suanBnIl0sWyJwIiwiY29udmVydCIsIiJdLFsicCIsImNvbnZlcnQiLCItcXVhbGl0eSA4MSAtYXV0by1vcmllbnQiXSxbInAiLCJ0aHVtYiIsIjYwMHg0MDAjIl1d/13781420593_244fe1d2c9_k.jpg,https://www.atlasobscura.com/places/twinings-tea-shop,Twinings Tea Shop,London,United Kingdom,51.513275,-0.112812
https://assets.atlasobscura.com/media/W1siZiIsInVwbG9hZHMvcGxhY2VfaW1hZ2VzLzZiMWJlOGI5ZDRhMzM1YTQ5ZGRhZGQzNTdiNTFmNjJiVExUUzEuanBnIl0sWyJwIiwiY29udmVydCIsIiJdLFsicCIsImNvbnZlcnQiLCItcXVhbGl0eSA4MSAtYXV0by1vcmllbnQiXSxbInAiLCJ0aHVtYiIsIjYwMHg0MDAjIl1d/TLTS1.jpg,https://www.atlasobscura.com/places/the-viktor-wynd-museum-of-curiosities-fine-art-natural-history-london-england,"The Viktor Wynd Museum of Curiosities, Fine Art &amp; Natural History",London,United Kingdom,51.534636,-0.057466
https://assets.atlasobscura.com/media/W1siZiIsInVwbG9hZHMvcGxhY2VfaW1hZ2VzL2UzOGM1ZTFhNjNmMTRiMGY0Y18xMjMzMDE3NzMwNF83NmM3ZDk0NDYwX2IuanBnIl0sWyJwIiwiY29udmVydCIsIiJdLFsicCIsImNvbnZlcnQiLCItcXVhbGl0eSA4MSAtYXV0by1vcmllbnQiXSxbInAiLCJ0aHVtYiIsIjYwMHg0MDAjIl1d,https://www.atlasobscura.com/places/osterreichische-nationalbibliothek,Österreichische Nationalbibliothek (Austrian National Library),Vienna,Austria,48.206002,16.367297
https://assets.atlasobscura.com/media/W1siZiIsInVwbG9hZHMvcGxhY2VfaW1hZ2VzL0RTQ182MzIzLkpQRyJdLFsicCIsImNvbnZlcnQiLCIiXSxbInAiLCJjb252ZXJ0IiwiLXF1YWxpdHkgODEgLWF1dG8tb3JpZW50Il0sWyJwIiwidGh1bWIiLCI2MDB4NDAwIyJdXQ/DSC_6323.JPG,https://www.atlasobscura.com/places/stephansdom-crypt,Stephansdom Crypt,Vienna,Austria,48.208016,16.372923
https://assets.atlasobscura.com/media/W1siZiIsInVwbG9hZHMvcGxhY2VfaW1hZ2VzLzQ4OTk5MjEyOF9mMzg2ZDNmMjA0X2IuanBnIl0sWyJwIiwiY29udmVydCIsIiJdLFsicCIsImNvbnZlcnQiLCItcXVhbGl0eSA4MSAtYXV0by1vcmllbnQiXSxbInAiLCJ0aHVtYiIsIjYwMHg0MDAjIl1d/489992128_f386d3f204_b.jpg,https://www.atlasobscura.com/places/clock-museum,Clock Museum,Vienna,Austria,48.210828,16.369329
https://assets.atlasobscura.com/media/W1siZiIsInVwbG9hZHMvcGxhY2VfaW1hZ2VzLzJiZjQ3YWNmZDg5NDFmZGRhY19XaWVuX2thcHV6aW5lcmdydWZ0MDAyLmpwZyJdLFsicCIsImNvbnZlcnQiLCItYXV0by1vcmllbnQgIl0sWyJwIiwidGh1bWIiLCIyMjk4eDE1MzIrMCsxMzIiXSxbInAiLCJjb252ZXJ0IiwiLXF1YWxpdHkgODEgLWF1dG8tb3JpZW50Il0sWyJwIiwidGh1bWIiLCI2MDB4NDAwIyJdXQ/Wien_kapuzinergruft002.jpg,https://www.atlasobscura.com/places/hapsburg-imperial-crypt-vienna,Habsburg Imperial Crypt,Vienna,Austria,48.20554,16.369939
https://assets.atlasobscura.com/media/W1siZiIsInVwbG9hZHMvcGxhY2VfaW1hZ2VzL2NiYjVlN2M3Y2ZmMTE3MWQ4NmE0Mjc5ZTlkYTA3YjEyMDAzMjQ1YTkuanBnIl0sWyJwIiwiY29udmVydCIsIiJdLFsicCIsImNvbnZlcnQiLCItcXVhbGl0eSA4MSAtYXV0by1vcmllbnQiXSxbInAiLCJ0aHVtYiIsIjYwMHg0MDAjIl1d/cbb5e7c7cff1171d86a4279e9da07b12003245a9.jpg,https://www.atlasobscura.com/places/schmetterlinghaus-imperial-butterfly-park,Schmetterlinghaus: The Imperial Butterfly Park,Vienna,Austria,48.205345,16.366601
https://assets.atlasobscura.com/media/W1siZiIsInVwbG9hZHMvcGxhY2VfaW1hZ2VzL0RTQ18wMTI3LkpQRyJdLFsicCIsImNvbnZlcnQiLCIiXSxbInAiLCJjb252ZXJ0IiwiLXF1YWxpdHkgODEgLWF1dG8tb3JpZW50Il0sWyJwIiwidGh1bWIiLCI2MDB4NDAwIyJdXQ/DSC_0127.JPG,https://www.atlasobscura.com/places/kriminalmuseum,Kriminalmuseum ,Vienna,Austria,48.218361,16.378504
https://assets.atlasobscura.com/media/W1siZiIsInVwbG9hZHMvcGxhY2VfaW1hZ2VzLzgwMHB4LU5hcnJlbnR1cm1fVmllbm5hX0p1bmVfMjAwNl81NzcuanBnIl0sWyJwIiwiY29udmVydCIsIi1hdXRvLW9yaWVudCAiXSxbInAiLCJ0aHVtYiIsIjc1Mng1MDErMjcrNTYiXSxbInAiLCJjb252ZXJ0IiwiLXF1YWxpdHkgODEgLWF1dG8tb3JpZW50Il0sWyJwIiwidGh1bWIiLCI2MDB4NDAwIyJdXQ/800px-Narrenturm_Vienna_June_2006_577.jpg,https://www.atlasobscura.com/places/narrenturm,The Narrenturm,Vienna,Austria,48.21631,16.351362
https://assets.atlasobscura.com/media/W1siZiIsInVwbG9hZHMvcGxhY2VfaW1hZ2VzL0dsb2JlLU11c2V1bS0xLkpQRyJdLFsicCIsImNvbnZlcnQiLCIiXSxbInAiLCJjb252ZXJ0IiwiLXF1YWxpdHkgODEgLWF1dG8tb3JpZW50Il0sWyJwIiwidGh1bWIiLCI2MDB4NDAwIyJdXQ/Globe-Museum-1.JPG,https://www.atlasobscura.com/places/globe-museum,Globe Museum,Vienna,Austria,48.20941,16.365704
https://assets.atlasobscura.com/media/W1siZiIsInVwbG9hZHMvcGxhY2VfaW1hZ2VzL2EyZDlkMmMwLTlhZDgtNGNlNi1iMDBkLWI5YWFkYTg2MWQxOTZiNjZkNzNmZDBmMzIyMTBhNl9NZXRlb3JhXzFfZXZsYWhvcy5qcGciXSxbInAiLCJjb252ZXJ0IiwiIl0sWyJwIiwiY29udmVydCIsIi1xdWFsaXR5IDgxIC1hdXRvLW9yaWVudCJdLFsicCIsInRodW1iIiwiNjAweDQwMCMiXV0/Meteora_1_evlahos.jpg,https://www.atlasobscura.com/places/meteora,Meteora,Kalabaka,Greece,39.714167,21.631111
https://assets.atlasobscura.com/media/W1siZiIsInVwbG9hZHMvcGxhY2VfaW1hZ2VzL2RmODM4YTA3ZWUxZGYxMzI2YV8yNzYzNjc0OTI2XzZkN2JkZTgxZmZfYi5qcGciXSxbInAiLCJjb252ZXJ0IiwiLWF1dG8tb3JpZW50ICJdLFsicCIsInRodW1iIiwiMTAyNHg2ODIrMCs4NSJdLFsicCIsImNvbnZlcnQiLCItcXVhbGl0eSA4MSAtYXV0by1vcmllbnQiXSxbInAiLCJ0aHVtYiIsIjYwMHg0MDAjIl1d,https://www.atlasobscura.com/places/navagio-beach,Navagio Beach,Zakinthos,Greece,37.859687,20.624832
https://assets.atlasobscura.com/media/W1siZiIsInVwbG9hZHMvcGxhY2VfaW1hZ2VzLzY1MjcxNTgxYWY0OTNkNjc0NF9zaHV0dGVyc3RvY2tfMTU3MjQxMDI3LmpwZyJdLFsicCIsImNvbnZlcnQiLCIiXSxbInAiLCJjb252ZXJ0IiwiLXF1YWxpdHkgODEgLWF1dG8tb3JpZW50Il0sWyJwIiwidGh1bWIiLCI2MDB4NDAwIyJdXQ,https://www.atlasobscura.com/places/tourlitis-lighthouse,Tourlitis Lighthouse,Andros,Greece,37.842234,24.945373
https://assets.atlasobscura.com/media/W1siZiIsInVwbG9hZHMvcGxhY2VfaW1hZ2VzL0FudGlreXRoZXJhLmpwZyJdLFsicCIsImNvbnZlcnQiLCIiXSxbInAiLCJjb252ZXJ0IiwiLXF1YWxpdHkgODEgLWF1dG8tb3JpZW50Il0sWyJwIiwidGh1bWIiLCI2MDB4NDAwIyJdXQ/Antikythera.jpg,https://www.atlasobscura.com/places/antikythera-mechanism,Antikythera Mechanism,Athens,Greece,37.989167,23.7325
https://assets.atlasobscura.com/media/W1siZiIsInVwbG9hZHMvcGxhY2VfaW1hZ2VzLzRhNzlmZDdjMDVhZjJlNzM2M18xMTIwMDQwMjk5NF8yZjU1MjQ4OTUyX3ouanBnIl0sWyJwIiwiY29udmVydCIsIiJdLFsicCIsImNvbnZlcnQiLCItcXVhbGl0eSA4MSAtYXV0by1vcmllbnQiXSxbInAiLCJ0aHVtYiIsIjYwMHg0MDAjIl1d,https://www.atlasobscura.com/places/mycenae,Mycenae,Argolis,Greece,37.730863,22.756133
https://assets.atlasobscura.com/media/W1siZiIsInVwbG9hZHMvcGxhY2VfaW1hZ2VzLzA3NzBiNjhhYTMzYjU5MzZmOV9Lbm9zc29zIDEgdmlhIFdpa2ltZWRpYS5qcGciXSxbInAiLCJjb252ZXJ0IiwiIl0sWyJwIiwiY29udmVydCIsIi1xdWFsaXR5IDgxIC1hdXRvLW9yaWVudCJdLFsicCIsInRodW1iIiwiNjAweDQwMCMiXV0,https://www.atlasobscura.com/places/knossos-crete,Knossos,Heraklion,Greece,35.298011,25.16301
https://assets.atlasobscura.com/media/W1siZiIsInVwbG9hZHMvcGxhY2VfaW1hZ2VzL2NhYWMyM2E5YTEyNjE5NWU0OV9Jbl9EYXJnYXZzX05vcnRoX09zc2V0aWEuanBnIl0sWyJwIiwiY29udmVydCIsIiJdLFsicCIsImNvbnZlcnQiLCItcXVhbGl0eSA4MSAtYXV0by1vcmllbnQiXSxbInAiLCJ0aHVtYiIsIjYwMHg0MDAjIl1d/In_Dargavs_North_Ossetia.jpg,https://www.atlasobscura.com/places/dargavs-village-city-of-the-dead,Dargavs Village: City of the Dead,Dargavs,Russia,42.841499,44.445241
https://assets.atlasobscura.com/media/W1siZiIsInVwbG9hZHMvcGxhY2VfaW1hZ2VzL2VkMDZiOWRjZTU3MTJhYTY2Yl9TY3JlZW5zaG90IDIwMTUtMTAtMjkgMTQuNTcuMTQucG5nIl0sWyJwIiwiY29udmVydCIsIiJdLFsicCIsImNvbnZlcnQiLCItcXVhbGl0eSA4MSAtYXV0by1vcmllbnQiXSxbInAiLCJ0aHVtYiIsIjYwMHg0MDAjIl1d,https://www.atlasobscura.com/places/bunker-42,Bunker-42,Moscow,Russia,55.741737,37.649327
https://assets.atlasobscura.com/media/W1siZiIsInVwbG9hZHMvcGxhY2VfaW1hZ2VzLzE4N2M0MTBmODJmYmM2MDgyNl9LcmVtbGluIDYuanBnIl0sWyJwIiwiY29udmVydCIsIiJdLFsicCIsImNvbnZlcnQiLCItcXVhbGl0eSA4MSAtYXV0by1vcmllbnQiXSxbInAiLCJ0aHVtYiIsIjYwMHg0MDAjIl1d/Kremlin%206.jpg,https://www.atlasobscura.com/places/izmailovo-kremlin,Izmailovo Kremlin,Moscow,Russia,55.793948,37.750949
https://assets.atlasobscura.com/media/W1siZiIsInVwbG9hZHMvcGxhY2VfaW1hZ2VzL2xlbmluXzAuanBnIl0sWyJwIiwiY29udmVydCIsIiJdLFsicCIsImNvbnZlcnQiLCItcXVhbGl0eSA4MSAtYXV0by1vcmllbnQiXSxbInAiLCJ0aHVtYiIsIjYwMHg0MDAjIl1d/lenin_0.jpg,https://www.atlasobscura.com/places/lenins-mausoleum,Lenin's Mausoleum,Moscow,Russia,55.753222,37.621505
https://assets.atlasobscura.com/media/W1siZiIsInVwbG9hZHMvcGxhY2VfaW1hZ2VzLzY5ZjgzYjdlMmM1NjM2YzMxZV9DQVRFUlNfQWJhbmRvbmVkX1NhbHRfTWluZV8wMS5qcGciXSxbInAiLCJjb252ZXJ0IiwiIl0sWyJwIiwiY29udmVydCIsIi1xdWFsaXR5IDgxIC1hdXRvLW9yaWVudCJdLFsicCIsInRodW1iIiwiNjAweDQwMCMiXV0/CATERS_Abandoned_Salt_Mine_01.jpg,https://www.atlasobscura.com/places/psychedelic-salt-mines,Psychedelic Salt Mines,Yekaterinburg,Russia,56.833333,60.583333
https://assets.atlasobscura.com/media/W1siZiIsInVwbG9hZHMvcGxhY2VfaW1hZ2VzLzE5NDBjYzA4YWY0NGFjNTY5M185MjI0MDk5MjgxXzNjMDk1YjM3YWVfayAoMSkuanBnIl0sWyJwIiwiY29udmVydCIsIiJdLFsicCIsImNvbnZlcnQiLCItcXVhbGl0eSA4MSAtYXV0by1vcmllbnQiXSxbInAiLCJ0aHVtYiIsIjYwMHg0MDAjIl1d,https://www.atlasobscura.com/places/children-are-the-victims-of-adult-vices,Children are the Victims of Adult Vices,Moscow,Russia,55.745898,37.619377
https://assets.atlasobscura.com/media/W1siZiIsInVwbG9hZHMvcGxhY2VfaW1hZ2VzL2RlMjNjYWQyNWFjNzhkZDBjMzFhMWEyZmRmMDMzYjlmMzM5ODY3NzAuanBnIl0sWyJwIiwiY29udmVydCIsIiJdLFsicCIsImNvbnZlcnQiLCItcXVhbGl0eSA4MSAtYXV0by1vcmllbnQiXSxbInAiLCJ0aHVtYiIsIjYwMHg0MDAjIl1d/de23cad25ac78dd0c31a1a2fdf033b9f33986770.jpg,https://www.atlasobscura.com/places/soviet-arcade-game-museum,Museum of Soviet Arcade Games,Moscow,Russia,55.834161,37.626419
https://assets.atlasobscura.com/media/W1siZiIsInVwbG9hZHMvcGxhY2VfaW1hZ2VzLzZjMmU3ODY0ODdiOGFkYjgxNF8xNDAwODMyOTI4OV82Njk0ODZiNWVjX2suanBnIl0sWyJwIiwiY29udmVydCIsIiJdLFsicCIsImNvbnZlcnQiLCItcXVhbGl0eSA4MSAtYXV0by1vcmllbnQiXSxbInAiLCJ0aHVtYiIsIjYwMHg0MDAjIl1d/14008329289_669486b5ec_k.jpg,https://www.atlasobscura.com/places/moscow-metro-stations,Moscow Metro Stations,Moscow,Russia,55.776251,37.655818
https://assets.atlasobscura.com/media/W1siZiIsInVwbG9hZHMvcGxhY2VfaW1hZ2VzL2E0ZmRiNmM2LTI5MTYtNDc5Ny05MmQ2LWJjYzU4MmExMGM3OTJkYjg4OTVkZjlkOTZjNzRhZV8zNjEzNTk4NF82MzE5NDM2NTA1MzgzODZfNzYyOTAzNDI5NzczODkxOTkzNl9uLmpwZyJdLFsicCIsImNvbnZlcnQiLCItYXV0by1vcmllbnQgIl0sWyJwIiwidGh1bWIiLCIxMDc1eDcxNis1KzAiXSxbInAiLCJjb252ZXJ0IiwiLXF1YWxpdHkgODEgLWF1dG8tb3JpZW50Il0sWyJwIiwidGh1bWIiLCI2MDB4NDAwIyJdXQ/36135984_631943650538386_7629034297738919936_n.jpg,https://www.atlasobscura.com/places/quinta-da-regaleira,Quinta da Regaleira,Sintra,Portugal,38.796271,-9.395956
https://assets.atlasobscura.com/media/W1siZiIsInVwbG9hZHMvcGxhY2VfaW1hZ2VzLzlhNzY3MzgwZmUzNDEwYmZiOF8zNzA5NzMzNzk0XzgyYWI1ZWZkYmZfYi5qcGciXSxbInAiLCJjb252ZXJ0IiwiLWF1dG8tb3JpZW50ICJdLFsicCIsInRodW1iIiwiMHgwKzM0OSsyMTQiXSxbInAiLCJjb252ZXJ0IiwiLXF1YWxpdHkgODEgLWF1dG8tb3JpZW50Il0sWyJwIiwidGh1bWIiLCI2MDB4NDAwIyJdXQ,https://www.atlasobscura.com/places/livraria-lello,Livraria Lello,Porto,Portugal,41.147299,-8.614826
https://assets.atlasobscura.com/media/W1siZiIsInVwbG9hZHMvcGxhY2VfaW1hZ2VzLzQ2NDU1ZTVhZmMyM2U0MTllYl8xMDUxOTQzMTg1NV8xMDA5OGFhNDlhX2suanBnIl0sWyJwIiwiY29udmVydCIsIiJdLFsicCIsImNvbnZlcnQiLCItcXVhbGl0eSA4MSAtYXV0by1vcmllbnQiXSxbInAiLCJ0aHVtYiIsIjYwMHg0MDAjIl1d/10519431855_10098aa49a_k.jpg,https://www.atlasobscura.com/places/village-of-monsanto-boulders,The Village of Monsanto,Alcains,Portugal,40.039382,-7.114235
https://assets.atlasobscura.com/media/W1siZiIsInVwbG9hZHMvcGxhY2VfaW1hZ2VzL2U3MmMyNWNiZjc3YjBiZWVmMF8zNjM0MzY3NzE0Xzk5ZDE3NjY3YTJfYi5qcGciXSxbInAiLCJjb252ZXJ0IiwiIl0sWyJwIiwiY29udmVydCIsIi1xdWFsaXR5IDgxIC1hdXRvLW9yaWVudCJdLFsicCIsInRodW1iIiwiNjAweDQwMCMiXV0,https://www.atlasobscura.com/places/portugals-chapel-bones,Portugal's Chapel of Bones,Évora,Portugal,38.568878,-7.909045
https://assets.atlasobscura.com/media/W1siZiIsInVwbG9hZHMvcGxhY2VfaW1hZ2VzLzhkNjI2ZTUwZGUyZGZiMzczMjJiNzE4MGYwZTg2Nzc0MmIyYjFiNmQuanBnIl0sWyJwIiwiY29udmVydCIsIiJdLFsicCIsImNvbnZlcnQiLCItcXVhbGl0eSA4MSAtYXV0by1vcmllbnQiXSxbInAiLCJ0aHVtYiIsIjYwMHg0MDAjIl1d/8d626e50de2dfb37322b7180f0e867742b2b1b6d.jpg,https://www.atlasobscura.com/places/carmo-convent-ruins,Carmo Convent Ruins,Lisbon,Portugal,38.712128,-9.140368
https://assets.atlasobscura.com/media/W1siZiIsInVwbG9hZHMvcGxhY2VfaW1hZ2VzLzg3YzFkMWEwZjJjYzY3MjgwZl80MDAwMjMyNzA3X2JjZTVlNTQ0MGFfYi5qcGciXSxbInAiLCJjb252ZXJ0IiwiIl0sWyJwIiwiY29udmVydCIsIi1xdWFsaXR5IDgxIC1hdXRvLW9yaWVudCJdLFsicCIsInRodW1iIiwiNjAweDQwMCMiXV0,https://www.atlasobscura.com/places/pena-national-palace,Pena National Palace,Sintra,Portugal,38.787583,-9.390611
https://assets.atlasobscura.com/media/W1siZiIsInVwbG9hZHMvcGxhY2VfaW1hZ2VzL2Zhcm9fYm9uZV9jaGFwZWwuanBnIl0sWyJwIiwiY29udmVydCIsIiJdLFsicCIsImNvbnZlcnQiLCItcXVhbGl0eSA4MSAtYXV0by1vcmllbnQiXSxbInAiLCJ0aHVtYiIsIjYwMHg0MDAjIl1d/faro_bone_chapel.jpg,https://www.atlasobscura.com/places/capela-de-ossos-bone-chapel,Capela de Ossos Bone Chapel,Faro,Portugal,37.020213,-7.934657
https://assets.atlasobscura.com/media/W1siZiIsInVwbG9hZHMvcGxhY2VfaW1hZ2VzLzUxZTE3YzY5NTNlNTJkMjg4ODI0YmJlMjBlZDcyMmE5MmFhZjRhYTUuanBnIl0sWyJwIiwiY29udmVydCIsIiJdLFsicCIsImNvbnZlcnQiLCItcXVhbGl0eSA4MSAtYXV0by1vcmllbnQiXSxbInAiLCJ0aHVtYiIsIjYwMHg0MDAjIl1d/51e17c6953e52d288824bbe20ed722a92aaf4aa5.jpg,https://www.atlasobscura.com/places/mada-in-saleh,Mada'in Saleh,Al Ula,Saudi Arabia,26.6127,37.92284
https://assets.atlasobscura.com/media/W1siZiIsInVwbG9hZHMvcGxhY2VfaW1hZ2VzL2QwY2I2ZGRjYzM5MGMxYjYzYV82NzA4NjEyMjA1X2ZlOWE2Y2M0M2Zfby5qcGciXSxbInAiLCJjb252ZXJ0IiwiIl0sWyJwIiwiY29udmVydCIsIi1xdWFsaXR5IDgxIC1hdXRvLW9yaWVudCJdLFsicCIsInRodW1iIiwiNjAweDQwMCMiXV0/6708612205_fe9a6cc43f_o.jpg,https://www.atlasobscura.com/places/al-ula,Al 'Ula,Al Ula,Saudi Arabia,26.624945,37.915558
https://assets.atlasobscura.com/media/W1siZiIsInVwbG9hZHMvcGxhY2VfaW1hZ2VzLzE1MTE2Yjk2OWE1NDgzZDQ2ZV9tYXJibGV2aWxsYWdlLmpwZyJdLFsicCIsImNvbnZlcnQiLCIiXSxbInAiLCJjb252ZXJ0IiwiLXF1YWxpdHkgODEgLWF1dG8tb3JpZW50Il0sWyJwIiwidGh1bWIiLCI2MDB4NDAwIyJdXQ/15116b969a5483d46e_marblevillage.jpg,https://www.atlasobscura.com/places/marble-village-of-dhee-ayn,Marble Village of Dhee Ayn,Bidah Valley,Saudi Arabia,20.272274,41.441251
https://assets.atlasobscura.com/media/W1siZiIsInVwbG9hZHMvcGxhY2VfaW1hZ2VzLzQxMDU1NzI0MDY5NTFhNDU5MTAyNmE2YmU3ODNmYTNmMDMyNjMzNzIuanBnIl0sWyJwIiwiY29udmVydCIsIiJdLFsicCIsImNvbnZlcnQiLCItcXVhbGl0eSA4MSAtYXV0by1vcmllbnQiXSxbInAiLCJ0aHVtYiIsIjYwMHg0MDAjIl1d/4105572406951a4591026a6be783fa3f03263372.jpg,https://www.atlasobscura.com/places/eve-s-tomb,Eve's Tomb,Jeddah,Saudi Arabia,21.492003,39.19029
https://assets.atlasobscura.com/media/W1siZiIsInVwbG9hZHMvcGxhY2VfaW1hZ2VzLzNkY2RmZDVhMjJjNzRkZGYzZjQyMzU4YzBjN2NhMDU0N2YzYzA0NjAuZ2lmIl0sWyJwIiwiY29udmVydCIsIiJdLFsicCIsImNvbnZlcnQiLCItcXVhbGl0eSA4MSAtYXV0by1vcmllbnQgLWNvYWxlc2NlIC1sYXllcnMgT3B0aW1pemVUcmFuc3BhcmVuY3kiXSxbInAiLCJ0aHVtYiIsIjYwMHg0MDAjIl1d/3dcdfd5a22c74ddf3f42358c0c7ca0547f3c0460.gif,https://www.atlasobscura.com/places/the-rock-that-moses-hit-that-water-gushed-out-of-in-the-bible-al-bayad-saudi-arabia,Meribah's Split Rock,Al Bayad,Saudi Arabia,28.432572,35.141897
https://assets.atlasobscura.com/media/W1siZiIsInVwbG9hZHMvcGxhY2VfaW1hZ2VzL2libi1jbG9jay5qcGciXSxbInAiLCJjb252ZXJ0IiwiIl0sWyJwIiwiY29udmVydCIsIi1xdWFsaXR5IDgxIC1hdXRvLW9yaWVudCJdLFsicCIsInRodW1iIiwiNjAweDQwMCMiXV0/ibn-clock.jpg,https://www.atlasobscura.com/places/elephant-clock,Elephant Clock,Dubai,United Arab Emirates,25.04489,55.118719
https://assets.atlasobscura.com/media/W1siZiIsInVwbG9hZHMvcGxhY2VfaW1hZ2VzL2Q0MDQyYzIxNjE0YzlkYWM3YV81ODgzNzk3MzA4XzBlODEzZjEzMTFfby5qcGciXSxbInAiLCJjb252ZXJ0IiwiIl0sWyJwIiwiY29udmVydCIsIi1xdWFsaXR5IDgxIC1hdXRvLW9yaWVudCJdLFsicCIsInRodW1iIiwiNjAweDQwMCMiXV0,https://www.atlasobscura.com/places/ski-dubai,Ski Dubai,Dubai,United Arab Emirates,25.11809,55.20035
https://assets.atlasobscura.com/media/W1siZiIsInVwbG9hZHMvcGxhY2VfaW1hZ2VzL2RlMGQxYzQxLTc0MjUtNDg1OC1iZjdjLTk4MGMzZDM5Y2U3YzE3YTNmYWZiM2NjMjFjOGJjNF9VTkFESlVTVEVEUkFXX3RodW1iXzNkMjhiLmpwZyJdLFsicCIsImNvbnZlcnQiLCIiXSxbInAiLCJjb252ZXJ0IiwiLXF1YWxpdHkgODEgLWF1dG8tb3JpZW50Il0sWyJwIiwidGh1bWIiLCI2MDB4NDAwIyJdXQ/UNADJUSTEDRAW_thumb_3d28b.jpg,https://www.atlasobscura.com/places/buried-village-of-al-madam,Buried Village of Al Madam ,Al Madam,United Arab Emirates,24.898266,55.760202
https://assets.atlasobscura.com/media/W1siZiIsInVwbG9hZHMvcGxhY2VfaW1hZ2VzLzM1ZGMzNjMyYTFlMzhiNDU4NV91bm5hbWVkLTUxLmpwZyJdLFsicCIsImNvbnZlcnQiLCItYXV0by1vcmllbnQgIl0sWyJwIiwidGh1bWIiLCIxMTI3eDc1MSs1MDUrNiJdLFsicCIsImNvbnZlcnQiLCItcXVhbGl0eSA4MSAtYXV0by1vcmllbnQiXSxbInAiLCJ0aHVtYiIsIjYwMHg0MDAjIl1d,https://www.atlasobscura.com/places/dubai-miracle-garden,Dubai Miracle Garden,Dubai,United Arab Emirates,25.085593,55.212963
https://assets.atlasobscura.com/media/W1siZiIsInVwbG9hZHMvcGxhY2VfaW1hZ2VzLzkxZjQ1MmE3ZmRhOWRiODJhNl8xMjAwcHgtQXJ0aWZpY2lhbF9BcmNoaXBlbGFnb3MsX0R1YmFpLF9Vbml0ZWRfQXJhYl9FbWlyYXRlc19JU1MwMjItRS0wMjQ5NDBfbHJnLmpwZyJdLFsicCIsImNvbnZlcnQiLCIiXSxbInAiLCJjb252ZXJ0IiwiLXF1YWxpdHkgODEgLWF1dG8tb3JpZW50Il0sWyJwIiwidGh1bWIiLCI2MDB4NDAwIyJdXQ/1200px-Artificial_Archipelagos%2C_Dubai%2C_United_Arab_Emirates_ISS022-E-024940_lrg.jpg,https://www.atlasobscura.com/places/world-islands,The World Islands,Dubai,United Arab Emirates,25.224156,55.165792
https://assets.atlasobscura.com/media/W1siZiIsInVwbG9hZHMvcGxhY2VfaW1hZ2VzLzExYjM1ZDIwN2FlMDE5NWFlNV81MTIyODQ1NjUyXzhiZDljMWRlYTBfby5qcGciXSxbInAiLCJjb252ZXJ0IiwiIl0sWyJwIiwiY29udmVydCIsIi1xdWFsaXR5IDgxIC1hdXRvLW9yaWVudCJdLFsicCIsInRodW1iIiwiNjAweDQwMCMiXV0/5122845652_8bd9c1dea0_o.jpg,https://www.atlasobscura.com/places/masdar-city,Masdar City,Abu Dhabi,United Arab Emirates,24.426673,54.614979
https://assets.atlasobscura.com/media/W1siZiIsInVwbG9hZHMvcGxhY2VfaW1hZ2VzLzdiOTBjNDcyMTFiYjhkZTM5Y2ZkZWJhNWMxOWYyZDE3ZDcyMzQwNmEuanBnIl0sWyJwIiwiY29udmVydCIsIiJdLFsicCIsImNvbnZlcnQiLCItcXVhbGl0eSA4MSAtYXV0by1vcmllbnQiXSxbInAiLCJ0aHVtYiIsIjYwMHg0MDAjIl1d/7b90c47211bb8de39cfdeba5c19f2d17d723406a.jpg,https://www.atlasobscura.com/places/sheikh-zayed-mosque,Sheikh Zayed Grand Mosque ,Abu Dhabi,United Arab Emirates,24.412541,54.47514
https://assets.atlasobscura.com/media/W1siZiIsInVwbG9hZHMvcGxhY2VfaW1hZ2VzLzY4OWRlNzEwM2Y4NzdlN2RkY18xNzEwMjcwODA3N180YTUzYWYwZThkX28uanBnIl0sWyJwIiwiY29udmVydCIsIiJdLFsicCIsImNvbnZlcnQiLCItcXVhbGl0eSA4MSAtYXV0by1vcmllbnQiXSxbInAiLCJ0aHVtYiIsIjYwMHg0MDAjIl1d/17102708077_4a53af0e8d_o.jpg,https://www.atlasobscura.com/places/burj-al-arab,Burj Al Arab,Dubai,United Arab Emirates,25.14103,55.185685
https://assets.atlasobscura.com/media/W1siZiIsInVwbG9hZHMvcGxhY2VfaW1hZ2VzL2I1MGM4YTY5ZDM0ZmE0MzMwNl9hMWRhYTU5ZTc2LmpwZyJdLFsicCIsImNvbnZlcnQiLCIiXSxbInAiLCJjb252ZXJ0IiwiLXF1YWxpdHkgODEgLWF1dG8tb3JpZW50Il0sWyJwIiwidGh1bWIiLCI2MDB4NDAwIyJdXQ,https://www.atlasobscura.com/places/the-lost-city-of-heracleion-al-maadeyah-egypt,The Lost City of Heracleion,Alexandria,Egypt,31.348379,30.175936
https://assets.atlasobscura.com/media/W1siZiIsInVwbG9hZHMvcGxhY2VfaW1hZ2VzL2QxNGFhOTllMmY2NWNjMjI4ZF9DYWlyb19OaWxvbWV0ZXJfMi5qcGciXSxbInAiLCJjb252ZXJ0IiwiIl0sWyJwIiwiY29udmVydCIsIi1xdWFsaXR5IDgxIC1hdXRvLW9yaWVudCJdLFsicCIsInRodW1iIiwiNjAweDQwMCMiXV0/Cairo_Nilometer_2.jpg,https://www.atlasobscura.com/places/nilometer,Nilometer,Cairo,Egypt,30.006965,31.22521
https://assets.atlasobscura.com/media/W1siZiIsInVwbG9hZHMvcGxhY2VfaW1hZ2VzL2NjM2JhOWUwZGFiMzlkZTgwYl9hYnVzaW1iZWwwMS5qcGciXSxbInAiLCJjb252ZXJ0IiwiIl0sWyJwIiwiY29udmVydCIsIi1xdWFsaXR5IDgxIC1hdXRvLW9yaWVudCJdLFsicCIsInRodW1iIiwiNjAweDQwMCMiXV0,https://www.atlasobscura.com/places/the-temple-of-abu-simbel-egypt-nubia-egypt,The Temple of Abu Simbel,Nubia,Egypt,22.337107,31.625379
https://assets.atlasobscura.com/media/W1siZiIsInVwbG9hZHMvcGxhY2VfaW1hZ2VzLzU2Yjg1MjA4NjJmY2FjZDZjOWFkMmYzMDk4NmQxZDhhYzY0NmRmOTQuanBnIl0sWyJwIiwiY29udmVydCIsIiJdLFsicCIsImNvbnZlcnQiLCItcXVhbGl0eSA4MSAtYXV0by1vcmllbnQiXSxbInAiLCJ0aHVtYiIsIjYwMHg0MDAjIl1d/56b8520862fcacd6c9ad2f30986d1d8ac646df94.jpg,https://www.atlasobscura.com/places/city-of-the-dead,City of the Dead,El-Saf,Egypt,29.7431,31.3011
https://assets.atlasobscura.com/media/W1siZiIsInVwbG9hZHMvcGxhY2VfaW1hZ2VzLzFiMDcyMzQ1LTgwZWYtNDM2NC1hNmYwLWIyMTIzNzMxM2ZmOTc2NjQ3YTI0Yjg4M2NmMzk2NF9EZXRhaWwgb2YgY2VpbGluZyBvZiBtYWluIHRlbXBsZS5qcGciXSxbInAiLCJjb252ZXJ0IiwiIl0sWyJwIiwiY29udmVydCIsIi1xdWFsaXR5IDgxIC1hdXRvLW9yaWVudCJdLFsicCIsInRodW1iIiwiNjAweDQwMCMiXV0/Detail%20of%20ceiling%20of%20main%20temple.jpg,https://www.atlasobscura.com/places/hathor-temple,Hathor Temple,Dandarah,Egypt,26.141738,32.666262
https://assets.atlasobscura.com/media/W1siZiIsInVwbG9hZHMvcGxhY2VfaW1hZ2VzLzU2OTUzNjBhYTcwMzliODI2YV9EZXBvc2l0cGhvdG9zXzcyNzAxMDI5X29yaWdpbmFsLmpwZyJdLFsicCIsImNvbnZlcnQiLCIiXSxbInAiLCJjb252ZXJ0IiwiLXF1YWxpdHkgODEgLWF1dG8tb3JpZW50Il0sWyJwIiwidGh1bWIiLCI2MDB4NDAwIyJdXQ/Depositphotos_72701029_original.jpg,https://www.atlasobscura.com/places/colossi-of-memnon,Colossi of Memnon,Luxor,Egypt,25.720598,32.610456
https://assets.atlasobscura.com/media/W1siZiIsInVwbG9hZHMvcGxhY2VfaW1hZ2VzLzQyODc0M2U5NWEzODE2NDAzOF9kZXNlcnQxMC5qcGciXSxbInAiLCJjb252ZXJ0IiwiIl0sWyJwIiwiY29udmVydCIsIi1xdWFsaXR5IDgxIC1hdXRvLW9yaWVudCJdLFsicCIsInRodW1iIiwiNjAweDQwMCMiXV0,https://www.atlasobscura.com/places/desert-breath,Desert Breath,Qesm Hurghada,Egypt,27.380403,33.632156
https://assets.atlasobscura.com/media/W1siZiIsInVwbG9hZHMvcGxhY2VfaW1hZ2VzLzIxOTUzNTRkLWJkNTgtNDA0Zi04NzVjLTU4Zjc4NzY1ZDc2N2MzY2MxNGM5MTQ2Mzc1NmNiY19CNDlFNjQuanBnIl0sWyJwIiwiY29udmVydCIsIiJdLFsicCIsImNvbnZlcnQiLCItcXVhbGl0eSA4MSAtYXV0by1vcmllbnQiXSxbInAiLCJ0aHVtYiIsIjYwMHg0MDAjIl1d/B49E64.jpg,https://www.atlasobscura.com/places/white-desert,White Desert,Al Farafrah,Egypt,27.06,27.97
https://assets.atlasobscura.com/media/W1siZiIsInVwbG9hZHMvcGxhY2VfaW1hZ2VzL2RhOThlN2IxYmM4YWQzM2JiM19JTUdfNzc1MC5qcGciXSxbInAiLCJjb252ZXJ0IiwiLWF1dG8tb3JpZW50ICJdLFsicCIsInRodW1iIiwiMzQwOHgyMjcyKzArMzIiXSxbInAiLCJjb252ZXJ0IiwiLXF1YWxpdHkgODEgLWF1dG8tb3JpZW50Il0sWyJwIiwidGh1bWIiLCI2MDB4NDAwIyJdXQ,https://www.atlasobscura.com/places/shah-cheragh,Shah Cheragh,Shiraz,Iran,29.609318,52.543532
https://assets.atlasobscura.com/media/W1siZiIsInVwbG9hZHMvcGxhY2VfaW1hZ2VzLzhiZDIwOGVkNGVjZWNkNTFjNl9UaGUgcnVpbnMgb2YgUGVyc2Vwb2xpcywgdmlhIGZsaWNrci5qcGciXSxbInAiLCJjb252ZXJ0IiwiIl0sWyJwIiwiY29udmVydCIsIi1xdWFsaXR5IDgxIC1hdXRvLW9yaWVudCJdLFsicCIsInRodW1iIiwiNjAweDQwMCMiXV0,https://www.atlasobscura.com/places/the-ruins-of-persepolis-fars-province-iran,The Ruins of Persepolis,Fars Province,Iran,29.934939,52.890233
https://assets.atlasobscura.com/media/W1siZiIsInVwbG9hZHMvcGxhY2VfaW1hZ2VzLzcwNWMyZDMyYWNjNmZmNTU1ZF9iMy5qcGciXSxbInAiLCJjb252ZXJ0IiwiIl0sWyJwIiwiY29udmVydCIsIi1xdWFsaXR5IDgxIC1hdXRvLW9yaWVudCJdLFsicCIsInRodW1iIiwiNjAweDQwMCMiXV0/b3.jpg,https://www.atlasobscura.com/places/badab-e-surt,Badab-e Surt,Orost,Iran,36.355219,53.853982
https://assets.atlasobscura.com/media/W1siZiIsInVwbG9hZHMvcGxhY2VfaW1hZ2VzL2IzNDg5NTdkLThmNDktNGNlNy1hMjIyLTExN2I1ODE1ZTIyZGRhNTJhMjZlMzc3ZDM3YmUyOV9HMDkyRUUuanBnIl0sWyJwIiwiY29udmVydCIsIiJdLFsicCIsImNvbnZlcnQiLCItcXVhbGl0eSA4MSAtYXV0by1vcmllbnQiXSxbInAiLCJ0aHVtYiIsIjYwMHg0MDAjIl1d/G092EE.jpg,https://www.atlasobscura.com/places/nasir-al-mulk-mosque,Nasir al-Mulk Mosque,Shiraz,Iran,29.608602,52.548104
https://assets.atlasobscura.com/media/W1siZiIsInVwbG9hZHMvcGxhY2VfaW1hZ2VzL2Z4djJ2bjE3MXl2NTRkNWFkZGMxNWM5NzY3YjI1OV8xOSBIYXNzYW4gU2FiYWggQ2FzdGxlIC0gQWxhbXV0LkpQRyJdLFsicCIsImNvbnZlcnQiLCIiXSxbInAiLCJjb252ZXJ0IiwiLXF1YWxpdHkgODEgLWF1dG8tb3JpZW50Il0sWyJwIiwidGh1bWIiLCI2MDB4NDAwIyJdXQ/19%20Hassan%20Sabah%20Castle%20-%20Alamut.JPG,https://www.atlasobscura.com/places/alamut-castle,Alamut Castle,Roudbar Alamout,Iran,36.445422,50.585867
https://assets.atlasobscura.com/media/W1siZiIsInVwbG9hZHMvcGxhY2VfaW1hZ2VzL2VlYWM1ZjcyM2Q5ZWU4ZjQ3ZV9ZYWtoY2hhbF9vZl9ZYXpkX3Byb3ZpbmNlLmpwZyJdLFsicCIsImNvbnZlcnQiLCIiXSxbInAiLCJjb252ZXJ0IiwiLXF1YWxpdHkgODEgLWF1dG8tb3JpZW50Il0sWyJwIiwidGh1bWIiLCI2MDB4NDAwIyJdXQ/Yakhchal_of_Yazd_province.jpg,https://www.atlasobscura.com/places/yakhchals,Yakhchāls,Meybod,Iran,32.227259,54.00857
https://assets.atlasobscura.com/media/W1siZiIsInVwbG9hZHMvcGxhY2VfaW1hZ2VzLzF2MTBwZm1tN2kxNTFmZjM0NDAyZjFkN2NjMGYwX0RTQzA4MzUyLkpQRyJdLFsicCIsImNvbnZlcnQiLCIiXSxbInAiLCJjb252ZXJ0IiwiLXF1YWxpdHkgODEgLWF1dG8tb3JpZW50Il0sWyJwIiwidGh1bWIiLCI2MDB4NDAwIyJdXQ/DSC08352.JPG,https://www.atlasobscura.com/places/nushabad-underground-city,Nushabad Underground City,Nushabad,Iran,34.08002,51.437497
https://assets.atlasobscura.com/media/W1siZiIsInVwbG9hZHMvcGxhY2VfaW1hZ2VzL2FkMzY1NzM3M2I2MTQxYjQ1ZmJmMjAwNzJmN2QwMDE0NGVhOWExNDguanBnIl0sWyJwIiwiY29udmVydCIsIiJdLFsicCIsImNvbnZlcnQiLCItcXVhbGl0eSA4MSAtYXV0by1vcmllbnQiXSxbInAiLCJ0aHVtYiIsIjYwMHg0MDAjIl1d/ad3657373b6141b45fbf20072f7d00144ea9a148.jpg,https://www.atlasobscura.com/places/zoroastrian-towers-of-silence,Zoroastrian Towers of Silence,Yazd,Iran,31.822021,54.356854
https://assets.atlasobscura.com/media/W1siZiIsInVwbG9hZHMvcGxhY2VfaW1hZ2VzL2EwNTYwZGQ2ZGIyMWI1YmI1Zl9Gb3J0QXJhZDEuanBnIl0sWyJwIiwiY29udmVydCIsIiJdLFsicCIsImNvbnZlcnQiLCItcXVhbGl0eSA4MSAtYXV0by1vcmllbnQiXSxbInAiLCJ0aHVtYiIsIjYwMHg0MDAjIl1d,https://www.atlasobscura.com/places/arad-fort,Arad Fort,Arad,Bahrain,26.252523,50.627021
https://assets.atlasobscura.com/media/W1siZiIsInVwbG9hZHMvcGxhY2VfaW1hZ2VzL2I2OTg0MzRhMGQ0MGYyYjM0MzMzOTQ5NTAxZjZjNzFjMGVkMzU5ZDYuanBnIl0sWyJwIiwiY29udmVydCIsIiJdLFsicCIsImNvbnZlcnQiLCItcXVhbGl0eSA4MSAtYXV0by1vcmllbnQiXSxbInAiLCJ0aHVtYiIsIjYwMHg0MDAjIl1d/b698434a0d40f2b34333949501f6c71c0ed359d6.jpg,https://www.atlasobscura.com/places/bahrain-world-trade-center,Bahrain World Trade Center,Manama,Bahrain,26.23917,50.58139
https://assets.atlasobscura.com/media/W1siZiIsInVwbG9hZHMvcGxhY2VfaW1hZ2VzL2NiNGI3MzYyOTBkZWFkYjBiY18yMzkyNzk4NTQxNV9mMDllZDY4NTUyX2suanBnIl0sWyJwIiwiY29udmVydCIsIiJdLFsicCIsImNvbnZlcnQiLCItcXVhbGl0eSA4MSAtYXV0by1vcmllbnQiXSxbInAiLCJ0aHVtYiIsIjYwMHg0MDAjIl1d/23927985415_f09ed68552_k.jpg,https://www.atlasobscura.com/places/little-petra,Little Petra,Petra District,Jordan,30.374125,35.449748
https://assets.atlasobscura.com/media/W1siZiIsInVwbG9hZHMvcGxhY2VfaW1hZ2VzLzA5MzZjZmUxZWY5MjBhOGNiN19QbGFjZV9vdmFsZV9kZV9HZXJhc2FfbmV3LkpQRyJdLFsicCIsImNvbnZlcnQiLCIiXSxbInAiLCJjb252ZXJ0IiwiLXF1YWxpdHkgODEgLWF1dG8tb3JpZW50Il0sWyJwIiwidGh1bWIiLCI2MDB4NDAwIyJdXQ,https://www.atlasobscura.com/places/the-ruins-of-jerash-jerash-jordan,The Ruins of Jerash,Jerash,Jordan,32.276902,35.90555
https://assets.atlasobscura.com/media/W1siZiIsInVwbG9hZHMvcGxhY2VfaW1hZ2VzL2NhNzdlNzQ3M2RhOWQ2YzEzM19BbW1hbl9DaXRhZGVsXzE1MS5KUEciXSxbInAiLCJjb252ZXJ0IiwiIl0sWyJwIiwiY29udmVydCIsIi1xdWFsaXR5IDgxIC1hdXRvLW9yaWVudCJdLFsicCIsInRodW1iIiwiNjAweDQwMCMiXV0,https://www.atlasobscura.com/places/hand-of-hercules,Hand of Hercules,Amman,Jordan,31.9547,35.9343
https://assets.atlasobscura.com/media/W1siZiIsInVwbG9hZHMvcGxhY2VfaW1hZ2VzLzBjYjk2M2U3NjFkM2EyOGI4Yl85OTA4MDQwNDE2XzVjYzk3OGI5YjJfYi5qcGciXSxbInAiLCJjb252ZXJ0IiwiIl0sWyJwIiwiY29udmVydCIsIi1xdWFsaXR5IDgxIC1hdXRvLW9yaWVudCJdLFsicCIsInRodW1iIiwiNjAweDQwMCMiXV0,https://www.atlasobscura.com/places/madaba-mosaic-map,Madaba Mosaic Map,Madaba,Jordan,31.717728,35.794098
https://assets.atlasobscura.com/media/W1siZiIsInVwbG9hZHMvcGxhY2VfaW1hZ2VzLzI1NjdlMmM0LTg3MGItNGE3MS1iYWJlLTU2NzVkOTMzNzNkZDgxNDBhY2FiYWIzMzlhYWYzY19XYWRpTXVqaWItQ2FueW9uLmpwZyJdLFsicCIsImNvbnZlcnQiLCIiXSxbInAiLCJjb252ZXJ0IiwiLXF1YWxpdHkgODEgLWF1dG8tb3JpZW50Il0sWyJwIiwidGh1bWIiLCI2MDB4NDAwIyJdXQ/WadiMujib-Canyon.jpg,https://www.atlasobscura.com/places/river-canyons-of-jordan-wadi-mujib,River Canyons of Jordan,Areedh Sub-District,Jordan,31.465833,35.573333
https://assets.atlasobscura.com/media/W1siZiIsInVwbG9hZHMvcGxhY2VfaW1hZ2VzL2I1YmY0NTE5YTE2MzliOGFhN19pbWFnZTEuSlBHIl0sWyJwIiwiY29udmVydCIsIiJdLFsicCIsImNvbnZlcnQiLCItcXVhbGl0eSA4MSAtYXV0by1vcmllbnQiXSxbInAiLCJ0aHVtYiIsIjYwMHg0MDAjIl1d,https://www.atlasobscura.com/places/the-dukes-diwan-amman-jordan,The Duke's Diwan,Amman,Jordan,31.951857,35.93338
https://assets.atlasobscura.com/media/W1siZiIsInVwbG9hZHMvcGxhY2VfaW1hZ2VzLzQ3ZDQ4Njc1LTFkOGYtNDAzYS04NjhlLThhNDc4ZTE1NWI3ZDhiN2IzOGFmMzYxZDlhNWI0YV8xMjAwcHgtUm9tYW5fdGhlYXRlcl9vZl9BbW1hbl8wMS5qcGciXSxbInAiLCJjb252ZXJ0IiwiIl0sWyJwIiwiY29udmVydCIsIi1xdWFsaXR5IDgxIC1hdXRvLW9yaWVudCJdLFsicCIsInRodW1iIiwiNjAweDQwMCMiXV0/1200px-Roman_theater_of_Amman_01.jpg,https://www.atlasobscura.com/places/roman-amphitheater,Roman Theater of Amman,Amman,Jordan,31.952289,35.934635
https://assets.atlasobscura.com/media/W1siZiIsInVwbG9hZHMvcGxhY2VfaW1hZ2VzL2JmOWU0M2YwZTM0YzdhNjBhYV9CZWl0IEd1dnJpbiBOYXRpb25hbCBQYXJrIEJlbGwgQ2F2ZXMgU2hhbG9tIElzcmFlbCBUb3Vycy5qcGciXSxbInAiLCJjb252ZXJ0IiwiIl0sWyJwIiwiY29udmVydCIsIi1xdWFsaXR5IDgxIC1hdXRvLW9yaWVudCJdLFsicCIsInRodW1iIiwiNjAweDQwMCMiXV0,https://www.atlasobscura.com/places/beit-guvrin-caves,Beit Guvrin Caves,Ashkelon,Israel,31.596961,34.900647
https://assets.atlasobscura.com/media/W1siZiIsInVwbG9hZHMvcGxhY2VfaW1hZ2VzL2YwNzlmN2E5MGM2MDliMDc4N18xMjgwcHgtUm9zaF9IYW5pa3JhX2luX3N1bW1lcl8yMDExXygyKS5KUEciXSxbInAiLCJjb252ZXJ0IiwiIl0sWyJwIiwiY29udmVydCIsIi1xdWFsaXR5IDgxIC1hdXRvLW9yaWVudCJdLFsicCIsInRodW1iIiwiNjAweDQwMCMiXV0/f079f7a90c609b0787_1280px-Rosh_Hanikra_in_summer_2011_%282%29.JPG,https://www.atlasobscura.com/places/rosh-hanikra-grottoes,Rosh HaNikra Grottoes,Acre,Israel,33.093122,35.104767
https://assets.atlasobscura.com/media/W1siZiIsInVwbG9hZHMvcGxhY2VfaW1hZ2VzLzNiYTJlZDI0YWU4YTc2NjgyY18yNzEwOTQ0MjQ5X2UzMGJiZmJjOTBfYi5qcGciXSxbInAiLCJjb252ZXJ0IiwiIl0sWyJwIiwiY29udmVydCIsIi1xdWFsaXR5IDgxIC1hdXRvLW9yaWVudCJdLFsicCIsInRodW1iIiwiNjAweDQwMCMiXV0,https://www.atlasobscura.com/places/shrine-of-the-book,Shrine of the Book,Jerusalem,Israel,31.773327,35.20295
https://assets.atlasobscura.com/media/W1siZiIsInVwbG9hZHMvcGxhY2VfaW1hZ2VzLzkwNmQ3MTc4NzFjNjM3Y2RiN19pbWFnZSAoMTYpLmpwZyJdLFsicCIsImNvbnZlcnQiLCIiXSxbInAiLCJjb252ZXJ0IiwiLXF1YWxpdHkgODEgLWF1dG8tb3JpZW50Il0sWyJwIiwidGh1bWIiLCI2MDB4NDAwIyJdXQ/image%20%2816%29.jpg,https://www.atlasobscura.com/places/razzouk-ink,Razzouk Ink,Jerusalem,Israel,31.777204,35.228094
https://assets.atlasobscura.com/media/W1siZiIsInVwbG9hZHMvcGxhY2VfaW1hZ2VzL2gwdG44cHduejl1NzNmODIwNGNlMDJiMGYwMjIyX0FlcmlhbF92aWV3X29mX01hc2FkYV8oSXNyYWVsKV8wMS5qcGciXSxbInAiLCJjb252ZXJ0IiwiIl0sWyJwIiwiY29udmVydCIsIi1xdWFsaXR5IDgxIC1hdXRvLW9yaWVudCJdLFsicCIsInRodW1iIiwiNjAweDQwMCMiXV0/Aerial_view_of_Masada_%28Israel%29_01.jpg,https://www.atlasobscura.com/places/masada,Masada,Masada,Israel,31.315553,35.355521
https://assets.atlasobscura.com/media/W1siZiIsInVwbG9hZHMvcGxhY2VfaW1hZ2VzLzlkYmRmYjRkLTdiZTYtNDkxMi1iZWFmLTYzMjU0ZWE2NzIxMGViZjFlNWQzNWMwY2NmMmM5Zl9HZXR0eUltYWdlcy01ODUwNDM0OTkuanBnIl0sWyJwIiwiY29udmVydCIsIiJdLFsicCIsImNvbnZlcnQiLCItcXVhbGl0eSA4MSAtYXV0by1vcmllbnQiXSxbInAiLCJ0aHVtYiIsIjYwMHg0MDAjIl1d/GettyImages-585043499.jpg,https://www.atlasobscura.com/places/pool-of-arches,Pool of Arches,Ramla,Israel,31.932154,34.870893
https://assets.atlasobscura.com/media/W1siZiIsInVwbG9hZHMvcGxhY2VfaW1hZ2VzLzRjNTAzYjQ4NThlZTU1MTg0Ml83NzE1NzE4OTAyXzY2NGMyNGIxYTZfYi5qcGciXSxbInAiLCJjb252ZXJ0IiwiIl0sWyJwIiwiY29udmVydCIsIi1xdWFsaXR5IDgxIC1hdXRvLW9yaWVudCJdLFsicCIsInRodW1iIiwiNjAweDQwMCMiXV0/7715718902_664c24b1a6_b.jpg,https://www.atlasobscura.com/places/western-wall-tunnel,Western Wall Tunnel,East Jerusalem,Israel,31.776663,35.234291
https://assets.atlasobscura.com/media/W1siZiIsInVwbG9hZHMvcGxhY2VfaW1hZ2VzLzYxODBiZjZhMWIyYTZjY2I2NDMzNGM4Zjg4MDRiZGZhYTFjZWI1MDEuanBnIl0sWyJwIiwiY29udmVydCIsIiJdLFsicCIsImNvbnZlcnQiLCItcXVhbGl0eSA4MSAtYXV0by1vcmllbnQiXSxbInAiLCJ0aHVtYiIsIjYwMHg0MDAjIl1d/6180bf6a1b2a6ccb64334c8f8804bdfaa1ceb501.jpg,https://www.atlasobscura.com/places/atlit-yam,Atlit Yam,Haifa,Israel,32.83036,34.974339
https://assets.atlasobscura.com/media/W1siZiIsInVwbG9hZHMvcGxhY2VfaW1hZ2VzLzE1YzRmYmZlZmI2ZWMwZjYwN18xMTk5cHgtQmltbWFoX1Npbmtob2xlXzMuanBnIl0sWyJwIiwiY29udmVydCIsIiJdLFsicCIsImNvbnZlcnQiLCItcXVhbGl0eSA4MSAtYXV0by1vcmllbnQiXSxbInAiLCJ0aHVtYiIsIjYwMHg0MDAjIl1d/1199px-Bimmah_Sinkhole_3.jpg,https://www.atlasobscura.com/places/bimmah-sinkhole,Bimmah Sinkhole,Qurayyat,Oman,23.035822,59.072371
https://assets.atlasobscura.com/media/W1siZiIsInVwbG9hZHMvcGxhY2VfaW1hZ2VzL2E5ZjE2ZmIzMWE2YzM5ZTI3NV84MDBweC1OYWtoYWxfRm9ydF8oMikuanBnIl0sWyJwIiwiY29udmVydCIsIiJdLFsicCIsImNvbnZlcnQiLCItcXVhbGl0eSA4MSAtYXV0by1vcmllbnQiXSxbInAiLCJ0aHVtYiIsIjYwMHg0MDAjIl1d/800px-Nakhal_Fort_%282%29.jpg,https://www.atlasobscura.com/places/nakhal-fort,Nakhal Fort,Nakhl,Oman,23.394725,57.828677
https://assets.atlasobscura.com/media/W1siZiIsInVwbG9hZHMvcGxhY2VfaW1hZ2VzL2YyMzcwYzc0LTBjMzUtNGIxZi05Y2Y4LTk0OTVlNmEyNmI2NTFiZjM2NjlhN2M1MmVlZWM5YV85ODQwNDY2Mzk1XzM5Y2IwMzMwZTdfby5qcGciXSxbInAiLCJjb252ZXJ0IiwiIl0sWyJwIiwiY29udmVydCIsIi1xdWFsaXR5IDgxIC1hdXRvLW9yaWVudCJdLFsicCIsInRodW1iIiwiNjAweDQwMCMiXV0/9840466395_39cb0330e7_o.jpg,https://www.atlasobscura.com/places/sultan-qaboos-mosque-chandelier,Chandelier at the Sultan Qaboos Grand Mosque,Muscat,Oman,23.583715,58.388631
https://assets.atlasobscura.com/media/W1siZiIsInVwbG9hZHMvcGxhY2VfaW1hZ2VzLzZiMWJlOGI5ZDRhMzM1YTQ5ZGRhZGQzNTdiNTFmNjJiT21hbiAoNjExKS5KUEciXSxbInAiLCJjb252ZXJ0IiwiLWF1dG8tb3JpZW50ICJdLFsicCIsInRodW1iIiwiNDU3M3gzMDQ4KzM1Kzc0Il0sWyJwIiwiY29udmVydCIsIi1xdWFsaXR5IDgxIC1hdXRvLW9yaWVudCJdLFsicCIsInRodW1iIiwiNjAweDQwMCMiXV0/Oman%20%28611%29.JPG,https://www.atlasobscura.com/places/muttrah-souq,The Muttrah Souq,Muscat,Oman,23.628056,58.567778
https://assets.atlasobscura.com/media/W1siZiIsInVwbG9hZHMvcGxhY2VfaW1hZ2VzLzVhNzEwMzBlOTYwYWI3ZTkwNGY0NTVhOWQzZDUzYjFjMjJiZTYwOGQuanBnIl0sWyJwIiwiY29udmVydCIsIiJdLFsicCIsImNvbnZlcnQiLCItcXVhbGl0eSA4MSAtYXV0by1vcmllbnQiXSxbInAiLCJ0aHVtYiIsIjYwMHg0MDAjIl1d/5a71030e960ab7e904f455a9d3d53b1c22be608d.jpg,https://www.atlasobscura.com/places/beehive-tombs-of-bat,Beehive Tombs of Bat,Ibri,Oman,23.225441,56.515919
https://assets.atlasobscura.com/media/W1siZiIsInVwbG9hZHMvcGxhY2VfaW1hZ2VzL2Q2YWM0MDBkLWFiMDUtNGRlYS05M2U2LWU3M2RmMWE5MjRlZWNhOGZjYWNhYmEwMjYzYjI1Zl9JTUdfMzE4Ny5KUEciXSxbInAiLCJjb252ZXJ0IiwiIl0sWyJwIiwiY29udmVydCIsIi1xdWFsaXR5IDgxIC1hdXRvLW9yaWVudCJdLFsicCIsInRodW1iIiwiNjAweDQwMCMiXV0/IMG_3187.JPG,https://www.atlasobscura.com/places/ubar,Ubar,Ubar,Oman,18.25508,53.648932
https://assets.atlasobscura.com/media/W1siZiIsInVwbG9hZHMvcGxhY2VfaW1hZ2VzLzIxMGYyNzhlLWE1NTItNDE0NS1iNzkyLWY1MDhjNTEyNmUyZGMzNzZlYTZiYjc5ZGE4NGI5NF8yNjI4MTUzNTY0N183NDk5OTE2YjRlX2suanBnIl0sWyJwIiwiY29udmVydCIsIiJdLFsicCIsImNvbnZlcnQiLCItcXVhbGl0eSA4MSAtYXV0by1vcmllbnQiXSxbInAiLCJ0aHVtYiIsIjYwMHg0MDAjIl1d/26281535647_7499916b4e_k.jpg,https://www.atlasobscura.com/places/bibi-maryam-mausoleum,Bibi Maryam Mausoleum,Qalhat,Oman,22.698538,59.369643
https://assets.atlasobscura.com/media/W1siZiIsInVwbG9hZHMvcGxhY2VfaW1hZ2VzL2FmYWMzZjdmLTBjODgtNDg1MC1hMWM1LWYzYTI2NGUxNzYwNDdhYWFhMmFlMzYzNmE3MDkxZV8xNDA1MDYwMjkzM185YTc3MzBjZGU2X2suanBnIl0sWyJwIiwiY29udmVydCIsIiJdLFsicCIsImNvbnZlcnQiLCItcXVhbGl0eSA4MSAtYXV0by1vcmllbnQiXSxbInAiLCJ0aHVtYiIsIjYwMHg0MDAjIl1d/14050602933_9a7730cde6_k.jpg,https://www.atlasobscura.com/places/film-city,Film City,Film City,Qatar,25.576763,50.845199
https://assets.atlasobscura.com/media/W1siZiIsInVwbG9hZHMvcGxhY2VfaW1hZ2VzL3U5d2RoaDZtNnE4ZmNhMjkzZWI5ZmJkNTk2ZjQxX1BDMDIwMDI1LkpQRyJdLFsicCIsImNvbnZlcnQiLCIiXSxbInAiLCJjb252ZXJ0IiwiLXF1YWxpdHkgODEgLWF1dG8tb3JpZW50Il0sWyJwIiwidGh1bWIiLCI2MDB4NDAwIyJdXQ/PC020025.JPG,https://www.atlasobscura.com/places/al-shahaniya-camel-racetrack,Al Shahaniya Camel Racetrack,Ash-Shahaniyah,Qatar,25.406297,51.206665
https://assets.atlasobscura.com/media/W1siZiIsInVwbG9hZHMvcGxhY2VfaW1hZ2VzLzIyZzFobmF3bTQxOTkwZGYwZTgzNTg5MTMwYTk4X1AyMDkwMDAyLkpQRyJdLFsicCIsImNvbnZlcnQiLCIiXSxbInAiLCJjb252ZXJ0IiwiLXF1YWxpdHkgODEgLWF1dG8tb3JpZW50Il0sWyJwIiwidGh1bWIiLCI2MDB4NDAwIyJdXQ/P2090002.JPG,https://www.atlasobscura.com/places/barzan-towers,Barzan Towers,Umm Salal Muhammed,Qatar,25.418114,51.413222
https://assets.atlasobscura.com/media/W1siZiIsInVwbG9hZHMvcGxhY2VfaW1hZ2VzL2FiMDZmYzNlYjBmMDE4YTE0ZF9EZXNlcnQgM19lZGl0ZWQuanBnIl0sWyJwIiwiY29udmVydCIsIiJdLFsicCIsImNvbnZlcnQiLCItcXVhbGl0eSA4MSAtYXV0by1vcmllbnQiXSxbInAiLCJ0aHVtYiIsIjYwMHg0MDAjIl1d/Desert%203_edited.jpg,https://www.atlasobscura.com/places/bir-zekreet,Bir Zekreet,Zekreet,Qatar,25.589113,50.848785
